{"type": "FeatureCollection", "features": [{"type": "Feature", "geometry": {"type": "Point", "coordinates": [8.5387964, 47.3696687]}, "properties": {"layer": "LKZ1320-MSU-", "kind": "node", "node_type": "unknown"}}, {"type": "Feature", "geometry": {"type": "Point", "coordinates": [8.539192, 47.3697253]}, "properties": {"layer": "LKZ1320-MSU-", "kind": "node", "node_type": "unknown"}}, {"type": "Feature", "geometry": {"type": "Point", "coordinates": [8.5412186, 47.3690833]}, "properties": {"layer": "LKZ1322-MSU-", "kind": "node", "node_type": "hydrant"}}, {"type": "Feature", "geometry": {"type": "Point", "coordinates": [8.5388321, 47.3690235]}, "properties": {"layer": "LKZ1322-MSU-", "kind": "node", "node_type": "hydrant"}}, {"type": "Feature", "geometry": {"type": "Point", "coordinates": [8.5396265, 47.3690317]}, "properties": {"layer": "LKZ1322-MSU-", "kind": "node", "node_type": "hydrant"}}, {"type": "Feature", "geometry": {"type": "Point", "coordinates": [8.5386193, 47.3694165]}, "properties": {"layer": "LKZ1322-MSU-", "kind": "node", "node_type": "hydrant"}}, {"type": "Feature", "geometry": {"type": "Point", "coordinates": [8.5393969, 47.3691668]}, "properties": {"layer": "LKZ1322-MSU-", "kind": "node", "node_type": "hydrant"}}, {"type": "Feature", "geometry": {"type": "Point", "coordinates": [8.5410939, 47.3703195]}, "properties": {"layer": "LKZ1322-MSU-", "kind": "node", "node_type": "hydrant"}}, {"type": "Feature", "geometry": {"type": "Point", "coordinates": [8.5417972, 47.3703327]}, "properties": {"layer": "LKZ1322-MSU-", "kind": "node", "node_type": "hydrant"}}, {"type": "Feature", "geometry": {"type": "Point", "coordinates": [8.5391123, 47.3695765]}, "properties": {"layer": "LKZ1322-MSU-", "kind": "node", "node_type": "hydrant"}}, {"type": "Feature", "geometry": {"type": "Point", "coordinates": [8.539175, 47.3697441]}, "properties": {"layer": "LKZ1322-MSU-", "kind": "node", "node_type": "hydrant"}}, {"type": "Feature", "geometry": {"type": "Point", "coordinates": [8.5390826, 47.3700166]}, "properties": {"layer": "LKZ1322-MSU-", "kind": "node", "node_type": "hydrant"}}, {"type": "Feature", "geometry": {"type": "Point", "coordinates": [8.5394759, 47.3702638]}, "properties": {"layer": "LKZ1322-MSU-", "kind": "node", "node_type": "hydrant"}}, {"type": "Feature", "geometry": {"type": "Point", "coordinates": [8.5399667, 47.3702417]}, "properties": {"layer": "LKZ1322-MSU-", "kind": "node", "node_type": "hydrant"}}, {"type": "Feature", "geometry": {"type": "Point", "coordinates": [8.5404979, 47.3700103]}, "properties": {"layer": "LKZ1322-MSU-", "kind": "node", "node_type": "hydrant"}}, {"type": "Feature", "geometry": {"type": "Point", "coordinates": [8.5383604, 47.3697505]}, "properties": {"layer": "LKZ1322-MSU-", "kind": "node", "node_type": "hydrant"}}, {"type": "Feature", "geometry": {"type": "Point", "coordinates": [8.5384342, 47.3694675]}, "properties": {"layer": "LKZ1322-MSU-", "kind": "node", "node_type": "hydrant"}}, {"type": "Feature", "geometry": {"type": "Point", "coordinates": [8.5380794, 47.3691352]}, "properties": {"layer": "LKZ1322-MSU-", "kind": "node", "node_type": "hydrant"}}, {"type": "Feature", "geometry": {"type": "Point", "coordinates": [8.5375991, 47.3693474]}, "properties": {"layer": "LKZ1322-MSU-", "kind": "node", "node_type": "hydrant"}}, {"type": "Feature", "geometry": {"type": "Point", "coordinates": [8.5376154, 47.3702343]}, "properties": {"layer": "LKZ1322-MSU-", "kind": "node", "node_type": "hydrant"}}, {"type": "Feature", "geometry": {"type": "Point", "coordinates": [8.5415299, 47.3698301]}, "properties": {"layer": "LKZ1322-MSU-", "kind": "node", "node_type": "hydrant"}}, {"type": "Feature", "geometry": {"type": "Point", "coordinates": [8.5377447, 47.3700195]}, "properties": {"layer": "LKZ1322-MSU-", "kind": "node", "node_type": "hydrant"}}, {"type": "Feature", "geometry": {"type": "Point", "coordinates": [8.5395272, 47.3695332]}, "properties": {"layer": "LKZ1322-MSU-", "kind": "node", "node_type": "hydrant"}}, {"type": "Feature", "geometry": {"type": "Point", "coordinates": [8.5404886, 47.3696787]}, "properties": {"layer": "LKZ1322-MSU-", "kind": "node", "node_type": "hydrant"}}, {"type": "Feature", "geometry": {"type": "Point", "coordinates": [8.541051, 47.3695031]}, "properties": {"layer": "LKZ1325-MSU-", "kind": "node", "node_type": "fountain"}}, {"type": "Feature", "geometry": {"type": "Point", "coordinates": [8.5400873, 47.3693104]}, "properties": {"layer": "LKZ1325-MSU-", "kind": "node", "node_type": "fountain"}}, {"type": "Feature", "geometry": {"type": "Point", "coordinates": [8.5415468, 47.3695946]}, "properties": {"layer": "LKZ1325-MSU-", "kind": "node", "node_type": "fountain"}}, {"type": "Feature", "geometry": {"type": "Point", "coordinates": [8.5414028, 47.3701634]}, "properties": {"layer": "LKZ1325-MSU-", "kind": "node", "node_type": "fountain"}}, {"type": "Feature", "geometry": {"type": "Point", "coordinates": [8.53941, 47.3700719]}, "properties": {"layer": "LKZ1325-MSU-", "kind": "node", "node_type": "fountain"}}, {"type": "Feature", "geometry": {"type": "Point", "coordinates": [8.5393013, 47.3691829]}, "properties": {"layer": "LKZ1325-MSU-", "kind": "node", "node_type": "fountain"}}, {"type": "Feature", "geometry": {"type": "Point", "coordinates": [8.537427, 47.3701522]}, "properties": {"layer": "LKZ1325-MSU-", "kind": "node", "node_type": "fountain"}}, {"type": "Feature", "geometry": {"type": "Point", "coordinates": [8.5405956, 47.3700795]}, "properties": {"layer": "LKZ1325-MSU-", "kind": "node", "node_type": "fountain"}}, {"type": "Feature", "geometry": {"type": "Point", "coordinates": [8.5406464, 47.3700724]}, "properties": {"layer": "LKZ1325-MSU-", "kind": "node", "node_type": "fountain"}}, {"type": "Feature", "geometry": {"type": "Point", "coordinates": [8.539207, 47.3697277]}, "properties": {"layer": "LKZ1325-MSU-", "kind": "node", "node_type": "fountain"}}, {"type": "Feature", "geometry": {"type": "Point", "coordinates": [8.5385962, 47.3691947]}, "properties": {"layer": "LKZ1321-MSU-", "kind": "node", "node_type": "valve"}}, {"type": "Feature", "geometry": {"type": "Point", "coordinates": [8.5387674, 47.3690119]}, "properties": {"layer": "LKZ1321-MSU-", "kind": "node", "node_type": "valve"}}, {"type": "Feature", "geometry": {"type": "Point", "coordinates": [8.5387786, 47.3690083]}, "properties": {"layer": "LKZ1321-MSU-", "kind": "node", "node_type": "valve"}}, {"type": "Feature", "geometry": {"type": "Point", "coordinates": [8.5389206, 47.368819]}, "properties": {"layer": "LKZ1321-MSU-", "kind": "node", "node_type": "valve"}}, {"type": "Feature", "geometry": {"type": "Point", "coordinates": [8.5388779, 47.3691253]}, "properties": {"layer": "LKZ1321-MSU-", "kind": "node", "node_type": "valve"}}, {"type": "Feature", "geometry": {"type": "Point", "coordinates": [8.5389534, 47.3691381]}, "properties": {"layer": "LKZ1321-MSU-", "kind": "node", "node_type": "valve"}}, {"type": "Feature", "geometry": {"type": "Point", "coordinates": [8.5390894, 47.3691598]}, "properties": {"layer": "LKZ1321-MSU-", "kind": "node", "node_type": "valve"}}, {"type": "Feature", "geometry": {"type": "Point", "coordinates": [8.5392215, 47.3691856]}, "properties": {"layer": "LKZ1321-MSU-", "kind": "node", "node_type": "valve"}}, {"type": "Feature", "geometry": {"type": "Point", "coordinates": [8.5400981, 47.3693344]}, "properties": {"layer": "LKZ1321-MSU-", "kind": "node", "node_type": "valve"}}, {"type": "Feature", "geometry": {"type": "Point", "coordinates": [8.5395266, 47.3689154]}, "properties": {"layer": "LKZ1321-MSU-", "kind": "node", "node_type": "valve"}}, {"type": "Feature", "geometry": {"type": "Point", "coordinates": [8.5412235, 47.3703184]}, "properties": {"layer": "LKZ1321-MSU-", "kind": "node", "node_type": "valve"}}, {"type": "Feature", "geometry": {"type": "Point", "coordinates": [8.5413808, 47.3703134]}, "properties": {"layer": "LKZ1321-MSU-", "kind": "node", "node_type": "valve"}}, {"type": "Feature", "geometry": {"type": "Point", "coordinates": [8.5414372, 47.3703224]}, "properties": {"layer": "LKZ1321-MSU-", "kind": "node", "node_type": "valve"}}, {"type": "Feature", "geometry": {"type": "Point", "coordinates": [8.5416602, 47.3703227]}, "properties": {"layer": "LKZ1321-MSU-", "kind": "node", "node_type": "valve"}}, {"type": "Feature", "geometry": {"type": "Point", "coordinates": [8.541743, 47.3703253]}, "properties": {"layer": "LKZ1321-MSU-", "kind": "node", "node_type": "valve"}}, {"type": "Feature", "geometry": {"type": "Point", "coordinates": [8.5418591, 47.3703191]}, "properties": {"layer": "LKZ1321-MSU-", "kind": "node", "node_type": "valve"}}, {"type": "Feature", "geometry": {"type": "Point", "coordinates": [8.5394732, 47.3696006]}, "properties": {"layer": "LKZ1321-MSU-", "kind": "node", "node_type": "valve"}}, {"type": "Feature", "geometry": {"type": "Point", "coordinates": [8.5394423, 47.3695906]}, "properties": {"layer": "LKZ1321-MSU-", "kind": "node", "node_type": "valve"}}, {"type": "Feature", "geometry": {"type": "Point", "coordinates": [8.5388503, 47.3698659]}, "properties": {"layer": "LKZ1321-MSU-", "kind": "node", "node_type": "valve"}}, {"type": "Feature", "geometry": {"type": "Point", "coordinates": [8.5390789, 47.3700966]}, "properties": {"layer": "LKZ1321-MSU-", "kind": "node", "node_type": "valve"}}, {"type": "Feature", "geometry": {"type": "Point", "coordinates": [8.5390778, 47.3700895]}, "properties": {"layer": "LKZ1321-MSU-", "kind": "node", "node_type": "valve"}}, {"type": "Feature", "geometry": {"type": "Point", "coordinates": [8.5390622, 47.3701775]}, "properties": {"layer": "LKZ1321-MSU-", "kind": "node", "node_type": "valve"}}, {"type": "Feature", "geometry": {"type": "Point", "coordinates": [8.5392093, 47.3702076]}, "properties": {"layer": "LKZ1321-MSU-", "kind": "node", "node_type": "valve"}}, {"type": "Feature", "geometry": {"type": "Point", "coordinates": [8.5392133, 47.3702122]}, "properties": {"layer": "LKZ1321-MSU-", "kind": "node", "node_type": "valve"}}, {"type": "Feature", "geometry": {"type": "Point", "coordinates": [8.5394151, 47.3702008]}, "properties": {"layer": "LKZ1321-MSU-", "kind": "node", "node_type": "valve"}}, {"type": "Feature", "geometry": {"type": "Point", "coordinates": [8.5394465, 47.3702218]}, "properties": {"layer": "LKZ1321-MSU-", "kind": "node", "node_type": "valve"}}, {"type": "Feature", "geometry": {"type": "Point", "coordinates": [8.5395352, 47.3701209]}, "properties": {"layer": "LKZ1321-MSU-", "kind": "node", "node_type": "valve"}}, {"type": "Feature", "geometry": {"type": "Point", "coordinates": [8.5399441, 47.3701886]}, "properties": {"layer": "LKZ1321-MSU-", "kind": "node", "node_type": "valve"}}, {"type": "Feature", "geometry": {"type": "Point", "coordinates": [8.5400019, 47.3702167]}, "properties": {"layer": "LKZ1321-MSU-", "kind": "node", "node_type": "valve"}}, {"type": "Feature", "geometry": {"type": "Point", "coordinates": [8.5400461, 47.370236]}, "properties": {"layer": "LKZ1321-MSU-", "kind": "node", "node_type": "valve"}}, {"type": "Feature", "geometry": {"type": "Point", "coordinates": [8.5400426, 47.3702402]}, "properties": {"layer": "LKZ1321-MSU-", "kind": "node", "node_type": "valve"}}, {"type": "Feature", "geometry": {"type": "Point", "coordinates": [8.5401646, 47.370325]}, "properties": {"layer": "LKZ1321-MSU-", "kind": "node", "node_type": "valve"}}, {"type": "Feature", "geometry": {"type": "Point", "coordinates": [8.5401826, 47.3701547]}, "properties": {"layer": "LKZ1321-MSU-", "kind": "node", "node_type": "valve"}}, {"type": "Feature", "geometry": {"type": "Point", "coordinates": [8.5376495, 47.3688106]}, "properties": {"layer": "LKZ1321-MSU-", "kind": "node", "node_type": "valve"}}, {"type": "Feature", "geometry": {"type": "Point", "coordinates": [8.5376602, 47.3688156]}, "properties": {"layer": "LKZ1321-MSU-", "kind": "node", "node_type": "valve"}}, {"type": "Feature", "geometry": {"type": "Point", "coordinates": [8.5384572, 47.369293]}, "properties": {"layer": "LKZ1321-MSU-", "kind": "node", "node_type": "valve"}}, {"type": "Feature", "geometry": {"type": "Point", "coordinates": [8.5384456, 47.3692765]}, "properties": {"layer": "LKZ1321-MSU-", "kind": "node", "node_type": "valve"}}, {"type": "Feature", "geometry": {"type": "Point", "coordinates": [8.537893, 47.3690997]}, "properties": {"layer": "LKZ1321-MSU-", "kind": "node", "node_type": "valve"}}, {"type": "Feature", "geometry": {"type": "Point", "coordinates": [8.5375144, 47.3693444]}, "properties": {"layer": "LKZ1321-MSU-", "kind": "node", "node_type": "valve"}}, {"type": "Feature", "geometry": {"type": "Point", "coordinates": [8.5374476, 47.3694024]}, "properties": {"layer": "LKZ1321-MSU-", "kind": "node", "node_type": "valve"}}, {"type": "Feature", "geometry": {"type": "Point", "coordinates": [8.5381769, 47.3688445]}, "properties": {"layer": "LKZ1321-MSU-", "kind": "node", "node_type": "valve"}}, {"type": "Feature", "geometry": {"type": "Point", "coordinates": [8.5376873, 47.3692453]}, "properties": {"layer": "LKZ1321-MSU-", "kind": "node", "node_type": "valve"}}, {"type": "Feature", "geometry": {"type": "Point", "coordinates": [8.5402595, 47.3689048]}, "properties": {"layer": "LKZ1321-MSU-", "kind": "node", "node_type": "valve"}}, {"type": "Feature", "geometry": {"type": "Point", "coordinates": [8.5400852, 47.3688855]}, "properties": {"layer": "LKZ1321-MSU-", "kind": "node", "node_type": "valve"}}, {"type": "Feature", "geometry": {"type": "Point", "coordinates": [8.5401969, 47.3688938]}, "properties": {"layer": "LKZ1321-MSU-", "kind": "node", "node_type": "valve"}}, {"type": "Feature", "geometry": {"type": "Point", "coordinates": [8.5402255, 47.3689031]}, "properties": {"layer": "LKZ1321-MSU-", "kind": "node", "node_type": "valve"}}, {"type": "Feature", "geometry": {"type": "Point", "coordinates": [8.5400122, 47.3688688]}, "properties": {"layer": "LKZ1321-MSU-", "kind": "node", "node_type": "valve"}}, {"type": "Feature", "geometry": {"type": "Point", "coordinates": [8.540348, 47.3689152]}, "properties": {"layer": "LKZ1321-MSU-", "kind": "node", "node_type": "valve"}}, {"type": "Feature", "geometry": {"type": "Point", "coordinates": [8.5404152, 47.3689246]}, "properties": {"layer": "LKZ1321-MSU-", "kind": "node", "node_type": "valve"}}, {"type": "Feature", "geometry": {"type": "Point", "coordinates": [8.5403093, 47.3693486]}, "properties": {"layer": "LKZ1321-MSU-", "kind": "node", "node_type": "valve"}}, {"type": "Feature", "geometry": {"type": "Point", "coordinates": [8.5403247, 47.3692807]}, "properties": {"layer": "LKZ1321-MSU-", "kind": "node", "node_type": "valve"}}, {"type": "Feature", "geometry": {"type": "Point", "coordinates": [8.5403216, 47.3692775]}, "properties": {"layer": "LKZ1321-MSU-", "kind": "node", "node_type": "valve"}}, {"type": "Feature", "geometry": {"type": "Point", "coordinates": [8.5400877, 47.3693867]}, "properties": {"layer": "LKZ1321-MSU-", "kind": "node", "node_type": "valve"}}, {"type": "Feature", "geometry": {"type": "Point", "coordinates": [8.5401314, 47.3693948]}, "properties": {"layer": "LKZ1321-MSU-", "kind": "node", "node_type": "valve"}}, {"type": "Feature", "geometry": {"type": "Point", "coordinates": [8.5401627, 47.3693989]}, "properties": {"layer": "LKZ1321-MSU-", "kind": "node", "node_type": "valve"}}, {"type": "Feature", "geometry": {"type": "Point", "coordinates": [8.5401697, 47.3693998]}, "properties": {"layer": "LKZ1321-MSU-", "kind": "node", "node_type": "valve"}}, {"type": "Feature", "geometry": {"type": "Point", "coordinates": [8.5401655, 47.3694017]}, "properties": {"layer": "LKZ1321-MSU-", "kind": "node", "node_type": "valve"}}, {"type": "Feature", "geometry": {"type": "Point", "coordinates": [8.5390835, 47.3700836]}, "properties": {"layer": "LKZ1321-MSU-", "kind": "node", "node_type": "valve"}}, {"type": "Feature", "geometry": {"type": "Point", "coordinates": [8.539995, 47.370216]}, "properties": {"layer": "LKZ1321-MSU-", "kind": "node", "node_type": "valve"}}, {"type": "Feature", "geometry": {"type": "Point", "coordinates": [8.5382471, 47.3691189]}, "properties": {"layer": "LKZ1321-MSU-", "kind": "node", "node_type": "valve"}}, {"type": "Feature", "geometry": {"type": "Point", "coordinates": [8.5405354, 47.3689472]}, "properties": {"layer": "LKZ1321-MSU-", "kind": "node", "node_type": "valve"}}, {"type": "Feature", "geometry": {"type": "Point", "coordinates": [8.5393948, 47.3692077]}, "properties": {"layer": "LKZ1323-MSU-", "kind": "node", "node_type": "vent_standpipe"}}, {"type": "Feature", "geometry": {"type": "Point", "coordinates": [8.5396747, 47.3688347]}, "properties": {"layer": "LKZ1323-MSU-", "kind": "node", "node_type": "vent_standpipe"}}, {"type": "Feature", "geometry": {"type": "Point", "coordinates": [8.5402442, 47.3689028]}, "properties": {"layer": "LKZ1323-MSU-", "kind": "node", "node_type": "vent_standpipe"}}, {"type": "Feature", "geometry": {"type": "Point", "coordinates": [8.5402689, 47.3689062]}, "properties": {"layer": "LKZ1323-MSU-", "kind": "node", "node_type": "vent_standpipe"}}, {"type": "Feature", "geometry": {"type": "Point", "coordinates": [8.5387242, 47.3690999]}, "properties": {"layer": "LKZ1323-MSU-", "kind": "node", "node_type": "vent_standpipe"}}, {"type": "Feature", "geometry": {"type": "Point", "coordinates": [8.5407671, 47.3689782]}, "properties": {"layer": "LKZ1323-MSU-", "kind": "node", "node_type": "vent_standpipe"}}, {"type": "Feature", "geometry": {"type": "Point", "coordinates": [8.5407864, 47.3689715]}, "properties": {"layer": "LKZ1323-MSU-", "kind": "node", "node_type": "vent_standpipe"}}, {"type": "Feature", "geometry": {"type": "Point", "coordinates": [8.5407726, 47.3689604]}, "properties": {"layer": "LKZ1323-MSU-", "kind": "node", "node_type": "vent_standpipe"}}, {"type": "Feature", "geometry": {"type": "Point", "coordinates": [8.5408025, 47.3688504]}, "properties": {"layer": "LKZ1321-MSU-", "kind": "node", "node_type": "valve"}}, {"type": "Feature", "geometry": {"type": "Point", "coordinates": [8.5408279, 47.3687949]}, "properties": {"layer": "LKZ1321-MSU-", "kind": "node", "node_type": "valve"}}, {"type": "Feature", "geometry": {"type": "Point", "coordinates": [8.5402005, 47.3692744]}, "properties": {"layer": "LKZ1321-MSU-", "kind": "node", "node_type": "valve"}}, {"type": "Feature", "geometry": {"type": "Point", "coordinates": [8.54008, 47.3693882]}, "properties": {"layer": "LKZ1321-MSU-", "kind": "node", "node_type": "valve"}}, {"type": "Feature", "geometry": {"type": "Point", "coordinates": [8.5401924, 47.3692753]}, "properties": {"layer": "LKZ1323-MSU-", "kind": "node", "node_type": "vent_standpipe"}}, {"type": "Feature", "geometry": {"type": "Point", "coordinates": [8.5412272, 47.3690463]}, "properties": {"layer": "LKZ1321-MSU-", "kind": "node", "node_type": "valve"}}, {"type": "Feature", "geometry": {"type": "Point", "coordinates": [8.540608, 47.369715]}, "properties": {"layer": "LKZ1323-MSU-", "kind": "node", "node_type": "vent_standpipe"}}, {"type": "Feature", "geometry": {"type": "Point", "coordinates": [8.5405746, 47.3696627]}, "properties": {"layer": "LKZ1321-MSU-", "kind": "node", "node_type": "valve"}}, {"type": "Feature", "geometry": {"type": "Point", "coordinates": [8.5406236, 47.3697178]}, "properties": {"layer": "LKZ1323-MSU-", "kind": "node", "node_type": "vent_standpipe"}}, {"type": "Feature", "geometry": {"type": "Point", "coordinates": [8.5418606, 47.3690131]}, "properties": {"layer": "LKZ1321-MSU-", "kind": "node", "node_type": "valve"}}, {"type": "Feature", "geometry": {"type": "Point", "coordinates": [8.5417624, 47.3691125]}, "properties": {"layer": "LKZ1321-MSU-", "kind": "node", "node_type": "valve"}}, {"type": "Feature", "geometry": {"type": "Point", "coordinates": [8.5417638, 47.3691174]}, "properties": {"layer": "LKZ1321-MSU-", "kind": "node", "node_type": "valve"}}, {"type": "Feature", "geometry": {"type": "Point", "coordinates": [8.5417287, 47.3691494]}, "properties": {"layer": "LKZ1323-MSU-", "kind": "node", "node_type": "vent_standpipe"}}, {"type": "Feature", "geometry": {"type": "Point", "coordinates": [8.5417197, 47.369584]}, "properties": {"layer": "LKZ1321-MSU-", "kind": "node", "node_type": "valve"}}, {"type": "Feature", "geometry": {"type": "Point", "coordinates": [8.5417268, 47.3698413]}, "properties": {"layer": "LKZ1321-MSU-", "kind": "node", "node_type": "valve"}}, {"type": "Feature", "geometry": {"type": "Point", "coordinates": [8.541735, 47.3698435]}, "properties": {"layer": "LKZ1321-MSU-", "kind": "node", "node_type": "valve"}}, {"type": "Feature", "geometry": {"type": "Point", "coordinates": [8.541148, 47.3701758]}, "properties": {"layer": "LKZ1321-MSU-", "kind": "node", "node_type": "valve"}}, {"type": "Feature", "geometry": {"type": "Point", "coordinates": [8.5410325, 47.3699185]}, "properties": {"layer": "LKZ1323-MSU-", "kind": "node", "node_type": "vent_standpipe"}}, {"type": "Feature", "geometry": {"type": "Point", "coordinates": [8.5410255, 47.3699189]}, "properties": {"layer": "LKZ1323-MSU-", "kind": "node", "node_type": "vent_standpipe"}}, {"type": "Feature", "geometry": {"type": "Point", "coordinates": [8.5410371, 47.3699091]}, "properties": {"layer": "LKZ1321-MSU-", "kind": "node", "node_type": "valve"}}, {"type": "Feature", "geometry": {"type": "Point", "coordinates": [8.5410331, 47.3699251]}, "properties": {"layer": "LKZ1321-MSU-", "kind": "node", "node_type": "valve"}}, {"type": "Feature", "geometry": {"type": "Point", "coordinates": [8.5412181, 47.3703332]}, "properties": {"layer": "LKZ1321-MSU-", "kind": "node", "node_type": "valve"}}, {"type": "Feature", "geometry": {"type": "Point", "coordinates": [8.5412183, 47.3703112]}, "properties": {"layer": "LKZ1321-MSU-", "kind": "node", "node_type": "valve"}}, {"type": "Feature", "geometry": {"type": "Point", "coordinates": [8.5415336, 47.3698348]}, "properties": {"layer": "LKZ1321-MSU-", "kind": "node", "node_type": "valve"}}, {"type": "Feature", "geometry": {"type": "Point", "coordinates": [8.5410975, 47.3702544]}, "properties": {"layer": "LKZ1321-MSU-", "kind": "node", "node_type": "valve"}}, {"type": "Feature", "geometry": {"type": "Point", "coordinates": [8.5408424, 47.3699396]}, "properties": {"layer": "LKZ1323-MSU-", "kind": "node", "node_type": "vent_standpipe"}}, {"type": "Feature", "geometry": {"type": "Point", "coordinates": [8.5402902, 47.370102]}, "properties": {"layer": "LKZ1321-MSU-", "kind": "node", "node_type": "valve"}}, {"type": "Feature", "geometry": {"type": "Point", "coordinates": [8.5402998, 47.3700974]}, "properties": {"layer": "LKZ1321-MSU-", "kind": "node", "node_type": "valve"}}, {"type": "Feature", "geometry": {"type": "Point", "coordinates": [8.5403837, 47.3700765]}, "properties": {"layer": "LKZ1321-MSU-", "kind": "node", "node_type": "valve"}}, {"type": "Feature", "geometry": {"type": "Point", "coordinates": [8.5404653, 47.3700562]}, "properties": {"layer": "LKZ1321-MSU-", "kind": "node", "node_type": "valve"}}, {"type": "Feature", "geometry": {"type": "Point", "coordinates": [8.5406002, 47.3700209]}, "properties": {"layer": "LKZ1321-MSU-", "kind": "node", "node_type": "valve"}}, {"type": "Feature", "geometry": {"type": "Point", "coordinates": [8.5405739, 47.3700271]}, "properties": {"layer": "LKZ1321-MSU-", "kind": "node", "node_type": "valve"}}, {"type": "Feature", "geometry": {"type": "Point", "coordinates": [8.5405891, 47.3700295]}, "properties": {"layer": "LKZ1321-MSU-", "kind": "node", "node_type": "valve"}}, {"type": "Feature", "geometry": {"type": "Point", "coordinates": [8.5391686, 47.3697217]}, "properties": {"layer": "LKZ1321-MSU-", "kind": "node", "node_type": "valve"}}, {"type": "Feature", "geometry": {"type": "Point", "coordinates": [8.5398655, 47.3693602]}, "properties": {"layer": "LKZ1321-MSU-", "kind": "node", "node_type": "valve"}}, {"type": "Feature", "geometry": {"type": "Point", "coordinates": [8.5416996, 47.3703167]}, "properties": {"layer": "LKZ1321-MSU-", "kind": "node", "node_type": "valve"}}, {"type": "Feature", "geometry": {"type": "Point", "coordinates": [8.5380832, 47.3691326]}, "properties": {"layer": "LKZ1321-MSU-", "kind": "node", "node_type": "valve"}}, {"type": "Feature", "geometry": {"type": "Point", "coordinates": [8.5396841, 47.3700644]}, "properties": {"layer": "LKZ1321-MSU-", "kind": "node", "node_type": "valve"}}, {"type": "Feature", "geometry": {"type": "Point", "coordinates": [8.5377016, 47.3700695]}, "properties": {"layer": "LKZ1323-MSU-", "kind": "node", "node_type": "vent_standpipe"}}, {"type": "Feature", "geometry": {"type": "Point", "coordinates": [8.5374832, 47.3699814]}, "properties": {"layer": "LKZ1323-MSU-", "kind": "node", "node_type": "vent_standpipe"}}, {"type": "Feature", "geometry": {"type": "Point", "coordinates": [8.5404126, 47.3697309]}, "properties": {"layer": "LKZ1321-MSU-", "kind": "node", "node_type": "valve"}}, {"type": "Feature", "geometry": {"type": "Point", "coordinates": [8.5395133, 47.3696063]}, "properties": {"layer": "LKZ1321-MSU-", "kind": "node", "node_type": "valve"}}, {"type": "Feature", "geometry": {"type": "Point", "coordinates": [8.5397223, 47.3696427]}, "properties": {"layer": "LKZ1321-MSU-", "kind": "node", "node_type": "valve"}}, {"type": "Feature", "geometry": {"type": "Point", "coordinates": [8.540178, 47.3697038]}, "properties": {"layer": "LKZ1321-MSU-", "kind": "node", "node_type": "valve"}}, {"type": "Feature", "geometry": {"type": "Point", "coordinates": [8.5401485, 47.3696997]}, "properties": {"layer": "LKZ1321-MSU-", "kind": "node", "node_type": "valve"}}, {"type": "Feature", "geometry": {"type": "Point", "coordinates": [8.5400327, 47.3696783]}, "properties": {"layer": "LKZ1321-MSU-", "kind": "node", "node_type": "valve"}}, {"type": "Feature", "geometry": {"type": "Point", "coordinates": [8.5395287, 47.3695403]}, "properties": {"layer": "LKZ1321-MSU-", "kind": "node", "node_type": "valve"}}, {"type": "Feature", "geometry": {"type": "Point", "coordinates": [8.5419067, 47.3690147]}, "properties": {"layer": "LKZ1320-MSU-", "kind": "node", "node_type": "unknown"}}, {"type": "Feature", "geometry": {"type": "Point", "coordinates": [8.5387242, 47.3690999]}, "properties": {"layer": "LKZ1321-MSU-", "kind": "node", "node_type": "valve"}}, {"type": "Feature", "geometry": {"type": "Point", "coordinates": [8.5394192, 47.3692117]}, "properties": {"layer": "LKZ1321-MSU-", "kind": "node", "node_type": "valve"}}, {"type": "Feature", "geometry": {"type": "Point", "coordinates": [8.5396747, 47.3688347]}, "properties": {"layer": "LKZ1321-MSU-", "kind": "node", "node_type": "valve"}}, {"type": "Feature", "geometry": {"type": "Point", "coordinates": [8.5383287, 47.3697172]}, "properties": {"layer": "LKZ1321-MSU-", "kind": "node", "node_type": "valve"}}, {"type": "Feature", "geometry": {"type": "Point", "coordinates": [8.5382246, 47.3696607]}, "properties": {"layer": "LKZ1321-MSU-", "kind": "node", "node_type": "valve"}}, {"type": "Feature", "geometry": {"type": "Point", "coordinates": [8.5379576, 47.3690327]}, "properties": {"layer": "LKZ1321-MSU-", "kind": "node", "node_type": "valve"}}, {"type": "Feature", "geometry": {"type": "Point", "coordinates": [8.5380766, 47.3690001]}, "properties": {"layer": "LKZ1321-MSU-", "kind": "node", "node_type": "valve"}}, {"type": "Feature", "geometry": {"type": "Point", "coordinates": [8.5406164, 47.3697108]}, "properties": {"layer": "LKZ1321-MSU-", "kind": "node", "node_type": "valve"}}, {"type": "Feature", "geometry": {"type": "Point", "coordinates": [8.5417647, 47.3691082]}, "properties": {"layer": "LKZ1321-MSU-", "kind": "node", "node_type": "valve"}}, {"type": "Feature", "geometry": {"type": "Point", "coordinates": [8.5408496, 47.3699473]}, "properties": {"layer": "LKZ1321-MSU-", "kind": "node", "node_type": "valve"}}, {"type": "Feature", "geometry": {"type": "Point", "coordinates": [8.5410235, 47.3699023]}, "properties": {"layer": "LKZ1321-MSU-", "kind": "node", "node_type": "valve"}}, {"type": "Feature", "geometry": {"type": "Point", "coordinates": [8.5377344, 47.3700423]}, "properties": {"layer": "LKZ1321-MSU-", "kind": "node", "node_type": "valve"}}, {"type": "Feature", "geometry": {"type": "Point", "coordinates": [8.5376943, 47.3700755]}, "properties": {"layer": "LKZ1321-MSU-", "kind": "node", "node_type": "valve"}}, {"type": "Feature", "geometry": {"type": "Point", "coordinates": [8.5407698, 47.3689694]}, "properties": {"layer": "LKZ1321-MSU-", "kind": "node", "node_type": "valve"}}]}