{"type": "FeatureCollection", "features": [{"type": "Feature", "geometry": {"type": "LineString", "coordinates": [[8.5400812, 47.3695471], [8.5398858, 47.3695216]]}, "properties": {"layer": "LKZ1315-MLU1", "function": "connection"}}, {"type": "Feature", "geometry": {"type": "LineString", "coordinates": [[8.5401632, 47.36941], [8.5401446, 47.3694809], [8.5403686, 47.36951]]}, "properties": {"layer": "LKZ1315-MLU1", "function": "connection"}}, {"type": "Feature", "geometry": {"type": "LineString", "coordinates": [[8.5401446, 47.3694809], [8.5401372, 47.3695074]]}, "properties": {"layer": "LKZ1315-MLU1", "function": "connection"}}, {"type": "Feature", "geometry": {"type": "LineString", "coordinates": [[8.5402144, 47.3689605], [8.5402065, 47.3689869], [8.5403525, 47.3690072]]}, "properties": {"layer": "LKZ1315-MLU1", "function": "connection"}}, {"type": "Feature", "geometry": {"type": "LineString", "coordinates": [[8.5402065, 47.3689869], [8.5401676, 47.3689815]]}, "properties": {"layer": "LKZ1315-MLU1", "function": "connection"}}, {"type": "Feature", "geometry": {"type": "LineString", "coordinates": [[8.539634, 47.3698204], [8.5396149, 47.3698181], [8.5395076, 47.3698051]]}, "properties": {"layer": "LKZ1315-MLU1", "function": "connection"}}, {"type": "Feature", "geometry": {"type": "LineString", "coordinates": [[8.5397437, 47.3698184], [8.5397605, 47.3697555]]}, "properties": {"layer": "LKZ1315-MLU1", "function": "connection"}}, {"type": "Feature", "geometry": {"type": "LineString", "coordinates": [[8.5396149, 47.3698181], [8.5396189, 47.3698031], [8.53963, 47.3698044]]}, "properties": {"layer": "LKZ1315-MLU1", "function": "connection"}}, {"type": "Feature", "geometry": {"type": "LineString", "coordinates": [[8.5396501, 47.3698069], [8.5397437, 47.3698184], [8.5398726, 47.3698343], [8.5401245, 47.3700618]]}, "properties": {"layer": "LKZ1315-MLU1", "function": "connection"}}, {"type": "Feature", "geometry": {"type": "LineString", "coordinates": [[8.5397054, 47.3697165], [8.5396983, 47.369743], [8.5396579, 47.3697376], [8.539649, 47.3697682], [8.539644, 47.3697859], [8.5396383, 47.3698055], [8.539634, 47.3698204], [8.5396328, 47.3698244], [8.5396278, 47.3698418], [8.5396224, 47.3698607], [8.5396023, 47.3699302], [8.5397496, 47.3699871], [8.5397159, 47.3700216]]}, "properties": {"layer": "LKZ1315-MLU1", "function": "connection"}}, {"type": "Feature", "geometry": {"type": "LineString", "coordinates": [[8.5376675, 47.3700045], [8.5376385, 47.369986]]}, "properties": {"layer": "LKZ1315-MLU1", "function": "connection"}}, {"type": "Feature", "geometry": {"type": "LineString", "coordinates": [[8.5412279, 47.3690846], [8.5412186, 47.3690833]]}, "properties": {"layer": "LKZ1317-MLU1", "function": "hydrant_connection"}}, {"type": "Feature", "geometry": {"type": "LineString", "coordinates": [[8.5412271, 47.3690875], [8.5412237, 47.3690989]]}, "properties": {"layer": "LKZ1315-MLU1", "function": "connection"}}, {"type": "Feature", "geometry": {"type": "LineString", "coordinates": [[8.5412269, 47.3690994], [8.5411977, 47.3692043], [8.5411017, 47.3691908], [8.5410926, 47.3692212]]}, "properties": {"layer": "LKZ1319-MLU1", "function": "spring"}}, {"type": "Feature", "geometry": {"type": "LineString", "coordinates": [[8.5410856, 47.3694001], [8.5410917, 47.369477], [8.5410488, 47.3694786], [8.541051, 47.3695031]]}, "properties": {"layer": "LKZ1319-MLU1", "function": "spring"}}, {"type": "Feature", "geometry": {"type": "LineString", "coordinates": [[8.5412256, 47.3692449], [8.5411355, 47.3692835], [8.5411348, 47.3692842], [8.5411291, 47.3693003]]}, "properties": {"layer": "LKZ131B-MLU0", "function": "internal"}}, {"type": "Feature", "geometry": {"type": "LineString", "coordinates": [[8.5416333, 47.3686799], [8.5416036, 47.3686808], [8.5416233, 47.368937], [8.5410608, 47.3688618]]}, "properties": {"layer": "LKZ131B-MLU0", "function": "internal"}}, {"type": "Feature", "geometry": {"type": "LineString", "coordinates": [[8.5385653, 47.3692131], [8.5385923, 47.3691919], [8.5386187, 47.3691709], [8.5386335, 47.369159], [8.5386989, 47.3691066], [8.5387211, 47.3691008], [8.5387242, 47.3690999]]}, "properties": {"layer": "LKZ1314-MLU1", "function": "distribution"}}, {"type": "Feature", "geometry": {"type": "LineString", "coordinates": [[8.5385923, 47.3691919], [8.5385962, 47.3691947], [8.5385982, 47.369196]]}, "properties": {"layer": "LKZ1315-MLU1", "function": "connection"}}, {"type": "Feature", "geometry": {"type": "LineString", "coordinates": [[8.5385982, 47.369196], [8.5386105, 47.3692031]]}, "properties": {"layer": "LKZ1315-MLU1", "function": "connection"}}, {"type": "Feature", "geometry": {"type": "LineString", "coordinates": [[8.5387242, 47.3690999], [8.5387237, 47.3690977], [8.5387207, 47.3690816], [8.5387237, 47.3690774], [8.5387704, 47.3690127], [8.5387746, 47.3690071]]}, "properties": {"layer": "LKZ1314-MLU1", "function": "distribution"}}, {"type": "Feature", "geometry": {"type": "LineString", "coordinates": [[8.5387704, 47.3690127], [8.5387674, 47.3690119], [8.5387644, 47.369011], [8.5387591, 47.369003], [8.5387396, 47.3689936]]}, "properties": {"layer": "LKZ1315-MLU1", "function": "connection"}}, {"type": "Feature", "geometry": {"type": "LineString", "coordinates": [[8.5387746, 47.3690071], [8.5387786, 47.3690083], [8.5387895, 47.3690115]]}, "properties": {"layer": "LKZ1317-MLU1", "function": "hydrant_connection"}}, {"type": "Feature", "geometry": {"type": "LineString", "coordinates": [[8.5387895, 47.3690115], [8.5388164, 47.3690196], [8.5388321, 47.3690235]]}, "properties": {"layer": "LKZ1317-MLU1", "function": "hydrant_connection"}}, {"type": "Feature", "geometry": {"type": "LineString", "coordinates": [[8.5387746, 47.3690071], [8.5387775, 47.369003]]}, "properties": {"layer": "LKZ1315-MLU1", "function": "connection"}}, {"type": "Feature", "geometry": {"type": "LineString", "coordinates": [[8.5388843, 47.3687817], [8.5388862, 47.3687797]]}, "properties": {"layer": "LKZ1315-MLU1", "function": "connection"}}, {"type": "Feature", "geometry": {"type": "LineString", "coordinates": [[8.5388862, 47.3687797], [8.5388952, 47.3687708], [8.5388868, 47.3687669], [8.5388843, 47.3687658]]}, "properties": {"layer": "LKZ1315-MLU1", "function": "connection"}}, {"type": "Feature", "geometry": {"type": "LineString", "coordinates": [[8.5387242, 47.3690999], [8.5387275, 47.3690994], [8.5387324, 47.3690987]]}, "properties": {"layer": "LKZ1314-MLU1", "function": "distribution"}}, {"type": "Feature", "geometry": {"type": "LineString", "coordinates": [[8.5387324, 47.3690987], [8.5388784, 47.3691233], [8.5389546, 47.3691355], [8.5390905, 47.3691572], [8.539176, 47.3691706], [8.5391894, 47.3691783], [8.5392103, 47.3691814], [8.5392164, 47.3691825], [8.5392223, 47.3691834], [8.5392385, 47.3691859], [8.5392506, 47.3691856], [8.5393948, 47.3692077], [8.5393984, 47.3692083]]}, "properties": {"layer": "LKZ1314-MLU1", "function": "distribution"}}, {"type": "Feature", "geometry": {"type": "LineString", "coordinates": [[8.5388784, 47.3691233], [8.5388779, 47.3691253], [8.5388731, 47.3691415], [8.5388586, 47.3691742]]}, "properties": {"layer": "LKZ1315-MLU1", "function": "connection"}}, {"type": "Feature", "geometry": {"type": "LineString", "coordinates": [[8.5388586, 47.3691742], [8.5388528, 47.3691867]]}, "properties": {"layer": "LKZ1315-MLU1", "function": "connection"}}, {"type": "Feature", "geometry": {"type": "LineString", "coordinates": [[8.5388528, 47.3691867], [8.538852, 47.3691885]]}, "properties": {"layer": "LKZ1315-MLU1", "function": "connection"}}, {"type": "Feature", "geometry": {"type": "LineString", "coordinates": [[8.5389546, 47.3691355], [8.5389534, 47.3691381], [8.5389432, 47.3691684], [8.5389429, 47.3691695], [8.538936, 47.3691895], [8.5389347, 47.3691935]]}, "properties": {"layer": "LKZ1315-MLU1", "function": "connection"}}, {"type": "Feature", "geometry": {"type": "LineString", "coordinates": [[8.5389347, 47.3691935], [8.5389315, 47.3692025]]}, "properties": {"layer": "LKZ1315-MLU1", "function": "connection"}}, {"type": "Feature", "geometry": {"type": "LineString", "coordinates": [[8.5389315, 47.3692025], [8.5389307, 47.3692049]]}, "properties": {"layer": "LKZ1315-MLU1", "function": "connection"}}, {"type": "Feature", "geometry": {"type": "LineString", "coordinates": [[8.5390905, 47.3691572], [8.5390894, 47.3691598], [8.5390776, 47.3691925], [8.5390704, 47.3691976], [8.5390666, 47.3692121], [8.5390638, 47.3692249]]}, "properties": {"layer": "LKZ1315-MLU1", "function": "connection"}}, {"type": "Feature", "geometry": {"type": "LineString", "coordinates": [[8.5392223, 47.3691834], [8.5392215, 47.3691856], [8.5392105, 47.3692205], [8.5392049, 47.3692262], [8.5392027, 47.3692333]]}, "properties": {"layer": "LKZ1315-MLU1", "function": "connection"}}, {"type": "Feature", "geometry": {"type": "LineString", "coordinates": [[8.5392027, 47.3692333], [8.5391992, 47.3692451]]}, "properties": {"layer": "LKZ1315-MLU1", "function": "connection"}}, {"type": "Feature", "geometry": {"type": "LineString", "coordinates": [[8.5393984, 47.3692083], [8.539416, 47.3692112], [8.5394192, 47.3692117]]}, "properties": {"layer": "LKZ1314-MLU1", "function": "distribution"}}, {"type": "Feature", "geometry": {"type": "LineString", "coordinates": [[8.5392103, 47.3691814], [8.5392105, 47.369181], [8.5392137, 47.3691815], [8.5392168, 47.369172]]}, "properties": {"layer": "LKZ1310-MLU1", "function": "misc"}}, {"type": "Feature", "geometry": {"type": "LineString", "coordinates": [[8.5396352, 47.3686293], [8.5395953, 47.3687344], [8.5395861, 47.3687597], [8.5395613, 47.3688283], [8.5395618, 47.3688328], [8.5395458, 47.3688809], [8.5395418, 47.3688848], [8.5395305, 47.3689158], [8.5394338, 47.3691735], [8.53942, 47.3692095], [8.5394192, 47.3692117]]}, "properties": {"layer": "LKZ1314-MLU1", "function": "distribution"}}, {"type": "Feature", "geometry": {"type": "LineString", "coordinates": [[8.5395305, 47.3689158], [8.5395266, 47.3689154], [8.5394789, 47.3689076]]}, "properties": {"layer": "LKZ1315-MLU1", "function": "connection"}}, {"type": "Feature", "geometry": {"type": "LineString", "coordinates": [[8.5394789, 47.3689076], [8.5394419, 47.3689012]]}, "properties": {"layer": "LKZ1315-MLU1", "function": "connection"}}, {"type": "Feature", "geometry": {"type": "LineString", "coordinates": [[8.5394419, 47.3689012], [8.5394219, 47.3688977]]}, "properties": {"layer": "LKZ1315-MLU1", "function": "connection"}}, {"type": "Feature", "geometry": {"type": "LineString", "coordinates": [[8.5394171, 47.3691705], [8.5394134, 47.36917]]}, "properties": {"layer": "LKZ1317-MLU1", "function": "hydrant_connection"}}, {"type": "Feature", "geometry": {"type": "LineString", "coordinates": [[8.5394134, 47.36917], [8.5393969, 47.3691668]]}, "properties": {"layer": "LKZ1317-MLU1", "function": "hydrant_connection"}}, {"type": "Feature", "geometry": {"type": "LineString", "coordinates": [[8.5394192, 47.3692117], [8.5394183, 47.3692139], [8.5392996, 47.369522]]}, "properties": {"layer": "LKZ1314-MLU1", "function": "distribution"}}, {"type": "Feature", "geometry": {"type": "LineString", "coordinates": [[8.5394338, 47.3691735], [8.5394195, 47.369171], [8.5394171, 47.3691705]]}, "properties": {"layer": "LKZ1317-MLU1", "function": "hydrant_connection"}}, {"type": "Feature", "geometry": {"type": "LineString", "coordinates": [[8.5397447, 47.3686489], [8.5396756, 47.3688325], [8.5396747, 47.3688347]]}, "properties": {"layer": "LKZ1314-MLU1", "function": "distribution"}}, {"type": "Feature", "geometry": {"type": "LineString", "coordinates": [[8.5396014, 47.3690273], [8.5396265, 47.3690317]]}, "properties": {"layer": "LKZ1317-MLU1", "function": "hydrant_connection"}}, {"type": "Feature", "geometry": {"type": "LineString", "coordinates": [[8.5400156, 47.3688417], [8.5400211, 47.3688241]]}, "properties": {"layer": "LKZ1315-MLU1", "function": "connection"}}, {"type": "Feature", "geometry": {"type": "LineString", "coordinates": [[8.5397772, 47.3688467], [8.5396831, 47.3688362]]}, "properties": {"layer": "LKZ1314-MLU1", "function": "distribution"}}, {"type": "Feature", "geometry": {"type": "LineString", "coordinates": [[8.5396831, 47.3688362], [8.5396779, 47.3688353], [8.5396747, 47.3688347]]}, "properties": {"layer": "LKZ1314-MLU1", "function": "distribution"}}, {"type": "Feature", "geometry": {"type": "LineString", "coordinates": [[8.5401072, 47.3693426], [8.5401066, 47.3693424], [8.5401007, 47.3693367]]}, "properties": {"layer": "LKZ1310-MLU1", "function": "misc"}}, {"type": "Feature", "geometry": {"type": "LineString", "coordinates": [[8.5401007, 47.3693367], [8.5400981, 47.3693344], [8.5400936, 47.3693309]]}, "properties": {"layer": "LKZ1310-MLU1", "function": "misc"}}, {"type": "Feature", "geometry": {"type": "LineString", "coordinates": [[8.5400936, 47.3693309], [8.5400837, 47.3693225], [8.5400873, 47.3693104]]}, "properties": {"layer": "LKZ1310-MLU1", "function": "misc"}}, {"type": "Feature", "geometry": {"type": "LineString", "coordinates": [[8.540165, 47.3694035], [8.5401648, 47.3694044]]}, "properties": {"layer": "LKZ1315-MLU1", "function": "connection"}}, {"type": "Feature", "geometry": {"type": "LineString", "coordinates": [[8.5401648, 47.3694044], [8.5401632, 47.36941]]}, "properties": {"layer": "LKZ1315-MLU1", "function": "connection"}}, {"type": "Feature", "geometry": {"type": "LineString", "coordinates": [[8.5407368, 47.3688426], [8.5407342, 47.3688423]]}, "properties": {"layer": "LKZ1315-MLU1", "function": "connection"}}, {"type": "Feature", "geometry": {"type": "LineString", "coordinates": [[8.5386116, 47.3694243], [8.5386143, 47.3694213], [8.5386193, 47.3694165]]}, "properties": {"layer": "LKZ1317-MLU1", "function": "hydrant_connection"}}, {"type": "Feature", "geometry": {"type": "LineString", "coordinates": [[8.541825, 47.3703229], [8.5418588, 47.3703236], [8.5418591, 47.3703191], [8.5418602, 47.3703104], [8.541877, 47.3703011], [8.5418893, 47.3702296], [8.5418973, 47.3702231], [8.5418952, 47.3702029], [8.5418709, 47.3702036]]}, "properties": {"layer": "LKZ1315-MLU1", "function": "connection"}}, {"type": "Feature", "geometry": {"type": "LineString", "coordinates": [[8.5413808, 47.370317], [8.5413808, 47.3703156]]}, "properties": {"layer": "LKZ1315-MLU1", "function": "connection"}}, {"type": "Feature", "geometry": {"type": "LineString", "coordinates": [[8.5413808, 47.3703156], [8.5413808, 47.3703134], [8.5413809, 47.3703124]]}, "properties": {"layer": "LKZ1315-MLU1", "function": "connection"}}, {"type": "Feature", "geometry": {"type": "LineString", "coordinates": [[8.5413809, 47.3703124], [8.5413812, 47.3703057]]}, "properties": {"layer": "LKZ1315-MLU1", "function": "connection"}}, {"type": "Feature", "geometry": {"type": "LineString", "coordinates": [[8.541437, 47.370318], [8.541437, 47.3703204]]}, "properties": {"layer": "LKZ1315-MLU1", "function": "connection"}}, {"type": "Feature", "geometry": {"type": "LineString", "coordinates": [[8.541437, 47.3703204], [8.5414372, 47.3703224], [8.5414371, 47.3703235]]}, "properties": {"layer": "LKZ1315-MLU1", "function": "connection"}}, {"type": "Feature", "geometry": {"type": "LineString", "coordinates": [[8.5414371, 47.3703235], [8.5414373, 47.3703297]]}, "properties": {"layer": "LKZ1315-MLU1", "function": "connection"}}, {"type": "Feature", "geometry": {"type": "LineString", "coordinates": [[8.5416605, 47.3703187], [8.5416604, 47.3703208]]}, "properties": {"layer": "LKZ1315-MLU1", "function": "connection"}}, {"type": "Feature", "geometry": {"type": "LineString", "coordinates": [[8.5416604, 47.3703208], [8.5416602, 47.3703227], [8.5416599, 47.370326], [8.5416596, 47.3703298]]}, "properties": {"layer": "LKZ1315-MLU1", "function": "connection"}}, {"type": "Feature", "geometry": {"type": "LineString", "coordinates": [[8.5416992, 47.3703192], [8.5416994, 47.3703178]]}, "properties": {"layer": "LKZ1315-MLU1", "function": "connection"}}, {"type": "Feature", "geometry": {"type": "LineString", "coordinates": [[8.5417433, 47.3703207], [8.5417431, 47.3703231]]}, "properties": {"layer": "LKZ1315-MLU1", "function": "connection"}}, {"type": "Feature", "geometry": {"type": "LineString", "coordinates": [[8.5417431, 47.3703231], [8.541743, 47.3703253], [8.5417402, 47.3703355], [8.54174, 47.3703364]]}, "properties": {"layer": "LKZ1315-MLU1", "function": "connection"}}, {"type": "Feature", "geometry": {"type": "LineString", "coordinates": [[8.5417974, 47.3703222], [8.5417972, 47.3703255]]}, "properties": {"layer": "LKZ1317-MLU1", "function": "hydrant_connection"}}, {"type": "Feature", "geometry": {"type": "LineString", "coordinates": [[8.5417972, 47.3703255], [8.5417972, 47.3703286], [8.5417972, 47.3703327]]}, "properties": {"layer": "LKZ1317-MLU1", "function": "hydrant_connection"}}, {"type": "Feature", "geometry": {"type": "LineString", "coordinates": [[8.5385859, 47.3697934], [8.5387551, 47.369843], [8.5388489, 47.3698681], [8.5390474, 47.3699216], [8.5390814, 47.3699496]]}, "properties": {"layer": "LKZ1314-MLU1", "function": "distribution"}}, {"type": "Feature", "geometry": {"type": "LineString", "coordinates": [[8.5388877, 47.3698005], [8.5389148, 47.3697528]]}, "properties": {"layer": "LKZ1315-MLU1", "function": "connection"}}, {"type": "Feature", "geometry": {"type": "LineString", "coordinates": [[8.5392081, 47.3695722], [8.5392107, 47.3695754], [8.5392177, 47.3695839], [8.5392078, 47.3696119], [8.5391652, 47.369721], [8.539159, 47.369741], [8.539175, 47.3697441]]}, "properties": {"layer": "LKZ1317-MLU1", "function": "hydrant_connection"}}, {"type": "Feature", "geometry": {"type": "LineString", "coordinates": [[8.5391098, 47.3695856], [8.5391108, 47.3695823], [8.5391123, 47.3695765]]}, "properties": {"layer": "LKZ1317-MLU1", "function": "hydrant_connection"}}, {"type": "Feature", "geometry": {"type": "LineString", "coordinates": [[8.5383414, 47.3698988], [8.5389049, 47.3700487], [8.5389364, 47.3700574]]}, "properties": {"layer": "LKZ131B-MLU0", "function": "internal"}}, {"type": "Feature", "geometry": {"type": "LineString", "coordinates": [[8.5390059, 47.3700766], [8.5389631, 47.370065], [8.5389364, 47.3700574]]}, "properties": {"layer": "LKZ131B-MLU0", "function": "internal"}}, {"type": "Feature", "geometry": {"type": "LineString", "coordinates": [[8.5389049, 47.3700487], [8.5387159, 47.3705557]]}, "properties": {"layer": "LKZ131B-MLU0", "function": "internal"}}, {"type": "Feature", "geometry": {"type": "LineString", "coordinates": [[8.5390814, 47.3699496], [8.5391028, 47.3700137], [8.5391054, 47.3700213], [8.5390835, 47.3700836], [8.5390812, 47.3700901], [8.5390789, 47.3700966], [8.5390515, 47.3701756]]}, "properties": {"layer": "LKZ1314-MLU1", "function": "distribution"}}, {"type": "Feature", "geometry": {"type": "LineString", "coordinates": [[8.5391028, 47.3700137], [8.539096, 47.3700147], [8.5390826, 47.3700166]]}, "properties": {"layer": "LKZ1317-MLU1", "function": "hydrant_connection"}}, {"type": "Feature", "geometry": {"type": "LineString", "coordinates": [[8.5390812, 47.3700901], [8.5390778, 47.3700895], [8.5390714, 47.3700883]]}, "properties": {"layer": "LKZ1315-MLU1", "function": "connection"}}, {"type": "Feature", "geometry": {"type": "LineString", "coordinates": [[8.5390714, 47.3700883], [8.5390187, 47.3700789]]}, "properties": {"layer": "LKZ1315-MLU1", "function": "connection"}}, {"type": "Feature", "geometry": {"type": "LineString", "coordinates": [[8.5390187, 47.3700789], [8.5390059, 47.3700766]]}, "properties": {"layer": "LKZ1315-MLU1", "function": "connection"}}, {"type": "Feature", "geometry": {"type": "LineString", "coordinates": [[8.5390515, 47.3701756], [8.5390497, 47.3701806], [8.5390561, 47.3701875], [8.5390634, 47.3701955], [8.5390313, 47.3702821], [8.5389845, 47.3704084], [8.5389254, 47.3705708]]}, "properties": {"layer": "LKZ1314-MLU1", "function": "distribution"}}, {"type": "Feature", "geometry": {"type": "LineString", "coordinates": [[8.5390515, 47.3701756], [8.5390622, 47.3701775], [8.5391862, 47.3701984], [8.539211, 47.3702031]]}, "properties": {"layer": "LKZ1314-MLU1", "function": "distribution"}}, {"type": "Feature", "geometry": {"type": "LineString", "coordinates": [[8.539211, 47.3702031], [8.5392093, 47.3702076], [8.5392079, 47.3702113]]}, "properties": {"layer": "LKZ1314-MLU1", "function": "distribution"}}, {"type": "Feature", "geometry": {"type": "LineString", "coordinates": [[8.5395373, 47.3701226], [8.5395352, 47.3701209], [8.5395269, 47.3701142], [8.539457, 47.3700614], [8.5394528, 47.3700613], [8.5394229, 47.3700686]]}, "properties": {"layer": "LKZ1319-MLU1", "function": "spring"}}, {"type": "Feature", "geometry": {"type": "LineString", "coordinates": [[8.5394229, 47.3700686], [8.5394184, 47.3700697], [8.53941, 47.3700719]]}, "properties": {"layer": "LKZ1319-MLU1", "function": "spring"}}, {"type": "Feature", "geometry": {"type": "LineString", "coordinates": [[8.5392079, 47.3702113], [8.5392133, 47.3702122], [8.5392546, 47.3702198], [8.5392631, 47.3702203], [8.5393539, 47.3702122], [8.5394042, 47.3702001], [8.5394138, 47.370203]]}, "properties": {"layer": "LKZ1314-MLU1", "function": "distribution"}}, {"type": "Feature", "geometry": {"type": "LineString", "coordinates": [[8.5394957, 47.3702427], [8.5394947, 47.3702437]]}, "properties": {"layer": "LKZ1317-MLU1", "function": "hydrant_connection"}}, {"type": "Feature", "geometry": {"type": "LineString", "coordinates": [[8.5394947, 47.3702437], [8.5394916, 47.370247], [8.5394834, 47.3702557], [8.539482, 47.3702572], [8.5394778, 47.3702617]]}, "properties": {"layer": "LKZ1317-MLU1", "function": "hydrant_connection"}}, {"type": "Feature", "geometry": {"type": "LineString", "coordinates": [[8.5394778, 47.3702617], [8.5394759, 47.3702638]]}, "properties": {"layer": "LKZ1317-MLU1", "function": "hydrant_connection"}}, {"type": "Feature", "geometry": {"type": "LineString", "coordinates": [[8.5394405, 47.3695964], [8.5394732, 47.3696006], [8.5395035, 47.369605]]}, "properties": {"layer": "LKZ1314-MLU1", "function": "distribution"}}, {"type": "Feature", "geometry": {"type": "LineString", "coordinates": [[8.5397933, 47.3703614], [8.5397914, 47.3703633]]}, "properties": {"layer": "LKZ1315-MLU1", "function": "connection"}}, {"type": "Feature", "geometry": {"type": "LineString", "coordinates": [[8.5400415, 47.3702367], [8.5400426, 47.3702402], [8.5400494, 47.3702535]]}, "properties": {"layer": "LKZ1314-MLU1", "function": "distribution"}}, {"type": "Feature", "geometry": {"type": "LineString", "coordinates": [[8.5400494, 47.3702535], [8.5400531, 47.3702629], [8.5400559, 47.3702704]]}, "properties": {"layer": "LKZ1314-MLU1", "function": "distribution"}}, {"type": "Feature", "geometry": {"type": "LineString", "coordinates": [[8.5400559, 47.3702704], [8.5400563, 47.3702713], [8.5400623, 47.3702859], [8.5401632, 47.3703263], [8.5402909, 47.3703784], [8.5403139, 47.3703875], [8.5403428, 47.3703932], [8.5403612, 47.370409], [8.540365, 47.3704119], [8.5403711, 47.370413], [8.5404248, 47.3704241], [8.5404361, 47.3704263], [8.5404664, 47.3704325], [8.5405916, 47.3704582], [8.5406131, 47.3704626], [8.540641, 47.370468], [8.5406455, 47.3704688]]}, "properties": {"layer": "LKZ1314-MLU1", "function": "distribution"}}, {"type": "Feature", "geometry": {"type": "LineString", "coordinates": [[8.539943, 47.3701895], [8.5399441, 47.3701886], [8.5399449, 47.370188], [8.5399481, 47.3701859], [8.5399577, 47.3701796], [8.5399644, 47.3701753]]}, "properties": {"layer": "LKZ1315-MLU1", "function": "connection"}}, {"type": "Feature", "geometry": {"type": "LineString", "coordinates": [[8.539997, 47.3702142], [8.539995, 47.370216], [8.5399934, 47.3702174]]}, "properties": {"layer": "LKZ1314-MLU1", "function": "distribution"}}, {"type": "Feature", "geometry": {"type": "LineString", "coordinates": [[8.5399934, 47.3702174], [8.5399732, 47.3702362]]}, "properties": {"layer": "LKZ1314-MLU1", "function": "distribution"}}, {"type": "Feature", "geometry": {"type": "LineString", "coordinates": [[8.5399732, 47.3702362], [8.5399667, 47.3702417]]}, "properties": {"layer": "LKZ1317-MLU1", "function": "hydrant_connection"}}, {"type": "Feature", "geometry": {"type": "LineString", "coordinates": [[8.5399732, 47.3702362], [8.5399765, 47.370238]]}, "properties": {"layer": "LKZ1315-MLU1", "function": "connection"}}, {"type": "Feature", "geometry": {"type": "LineString", "coordinates": [[8.5399765, 47.370238], [8.539991, 47.3702448], [8.5399848, 47.3702504]]}, "properties": {"layer": "LKZ1315-MLU1", "function": "connection"}}, {"type": "Feature", "geometry": {"type": "LineString", "coordinates": [[8.5399848, 47.3702504], [8.5399777, 47.3702573]]}, "properties": {"layer": "LKZ1315-MLU1", "function": "connection"}}, {"type": "Feature", "geometry": {"type": "LineString", "coordinates": [[8.5401632, 47.3703263], [8.540164, 47.3703255]]}, "properties": {"layer": "LKZ1315-MLU1", "function": "connection"}}, {"type": "Feature", "geometry": {"type": "LineString", "coordinates": [[8.540164, 47.3703255], [8.5401645, 47.370325], [8.5401646, 47.370325]]}, "properties": {"layer": "LKZ1315-MLU1", "function": "connection"}}, {"type": "Feature", "geometry": {"type": "LineString", "coordinates": [[8.5401646, 47.370325], [8.5401652, 47.3703244]]}, "properties": {"layer": "LKZ1315-MLU1", "function": "connection"}}, {"type": "Feature", "geometry": {"type": "LineString", "coordinates": [[8.5402918, 47.3703774], [8.5402933, 47.3703757], [8.5402972, 47.3703715], [8.5402997, 47.3703687]]}, "properties": {"layer": "LKZ1315-MLU1", "function": "connection"}}, {"type": "Feature", "geometry": {"type": "LineString", "coordinates": [[8.5406855, 47.3702663], [8.5406119, 47.3703939], [8.5405968, 47.3704376], [8.5405916, 47.3704582], [8.540587, 47.3704764], [8.5405702, 47.370541], [8.5408212, 47.3705657]]}, "properties": {"layer": "LKZ131B-MLU0", "function": "internal"}}, {"type": "Feature", "geometry": {"type": "LineString", "coordinates": [[8.5400181, 47.3702141], [8.5400203, 47.3702143], [8.5400354, 47.370217], [8.5400486, 47.3702195], [8.540051, 47.3702193], [8.5400537, 47.3702187], [8.5401474, 47.3701604], [8.5401487, 47.3701595], [8.5401493, 47.3701591]]}, "properties": {"layer": "LKZ1319-MLU1", "function": "spring"}}, {"type": "Feature", "geometry": {"type": "LineString", "coordinates": [[8.5401493, 47.3701591], [8.5402203, 47.3701122], [8.5402414, 47.3700983]]}, "properties": {"layer": "LKZ1319-MLU1", "function": "spring"}}, {"type": "Feature", "geometry": {"type": "LineString", "coordinates": [[8.5400415, 47.3702367], [8.5400461, 47.370236], [8.5400703, 47.3702321], [8.5400932, 47.3702096], [8.5400953, 47.3702072], [8.5401798, 47.3701533], [8.5402213, 47.3701251], [8.5402399, 47.3701222]]}, "properties": {"layer": "LKZ1314-MLU1", "function": "distribution"}}, {"type": "Feature", "geometry": {"type": "LineString", "coordinates": [[8.5401798, 47.3701533], [8.5401826, 47.3701547], [8.5402083, 47.3701751]]}, "properties": {"layer": "LKZ1315-MLU1", "function": "connection"}}, {"type": "Feature", "geometry": {"type": "LineString", "coordinates": [[8.5402943, 47.3700981], [8.5402509, 47.3701049], [8.5402414, 47.3700983]]}, "properties": {"layer": "LKZ1319-MLU1", "function": "spring"}}, {"type": "Feature", "geometry": {"type": "LineString", "coordinates": [[8.5385938, 47.369415], [8.5385977, 47.3694162], [8.5386116, 47.3694243], [8.5386633, 47.3694539], [8.5387382, 47.3694976], [8.5389881, 47.3695652], [8.5391098, 47.3695856], [8.5391191, 47.3695872], [8.5391622, 47.369588], [8.5392081, 47.3695722], [8.5392706, 47.3695481], [8.5392996, 47.369522]]}, "properties": {"layer": "LKZ1314-MLU1", "function": "distribution"}}, {"type": "Feature", "geometry": {"type": "LineString", "coordinates": [[8.5389148, 47.3697528], [8.5389179, 47.3697478], [8.5389189, 47.369746]]}, "properties": {"layer": "LKZ1315-MLU1", "function": "connection"}}, {"type": "Feature", "geometry": {"type": "LineString", "coordinates": [[8.5385859, 47.3697934], [8.538373, 47.3697309], [8.5383317, 47.3697181], [8.5383287, 47.3697172]]}, "properties": {"layer": "LKZ1314-MLU1", "function": "distribution"}}, {"type": "Feature", "geometry": {"type": "LineString", "coordinates": [[8.538373, 47.3697309], [8.5383626, 47.3697472], [8.5383604, 47.3697505]]}, "properties": {"layer": "LKZ1317-MLU1", "function": "hydrant_connection"}}, {"type": "Feature", "geometry": {"type": "LineString", "coordinates": [[8.5383287, 47.3697172], [8.5383257, 47.3697162], [8.5382916, 47.3697046], [8.538227, 47.3696622], [8.5382246, 47.3696607]]}, "properties": {"layer": "LKZ1314-MLU1", "function": "distribution"}}, {"type": "Feature", "geometry": {"type": "LineString", "coordinates": [[8.5382246, 47.3696607], [8.5382269, 47.369659], [8.5382653, 47.3696314], [8.5384497, 47.3694991], [8.5384517, 47.3694679], [8.5384536, 47.369453]]}, "properties": {"layer": "LKZ1314-MLU1", "function": "distribution"}}, {"type": "Feature", "geometry": {"type": "LineString", "coordinates": [[8.5384469, 47.3694677], [8.5384342, 47.3694675]]}, "properties": {"layer": "LKZ1317-MLU1", "function": "hydrant_connection"}}, {"type": "Feature", "geometry": {"type": "LineString", "coordinates": [[8.5384517, 47.3694679], [8.5384469, 47.3694677]]}, "properties": {"layer": "LKZ1317-MLU1", "function": "hydrant_connection"}}, {"type": "Feature", "geometry": {"type": "LineString", "coordinates": [[8.5385938, 47.369415], [8.5385782, 47.3694121], [8.5384572, 47.369293], [8.5384428, 47.3692778]]}, "properties": {"layer": "LKZ1314-MLU1", "function": "distribution"}}, {"type": "Feature", "geometry": {"type": "LineString", "coordinates": [[8.5384536, 47.369453], [8.5383318, 47.369313], [8.5380864, 47.3691304], [8.5380194, 47.3690796], [8.5379664, 47.3690394], [8.5379598, 47.3690344], [8.5379576, 47.3690327]]}, "properties": {"layer": "LKZ1314-MLU1", "function": "distribution"}}, {"type": "Feature", "geometry": {"type": "LineString", "coordinates": [[8.5380864, 47.3691304], [8.5380832, 47.3691326], [8.5380794, 47.3691352]]}, "properties": {"layer": "LKZ1317-MLU1", "function": "hydrant_connection"}}, {"type": "Feature", "geometry": {"type": "LineString", "coordinates": [[8.5379576, 47.3690327], [8.5379554, 47.369031], [8.5379509, 47.3690276], [8.5379445, 47.3690228], [8.5379426, 47.369013], [8.5379387, 47.3689937], [8.5379378, 47.3689892], [8.5379132, 47.3689716]]}, "properties": {"layer": "LKZ1314-MLU1", "function": "distribution"}}, {"type": "Feature", "geometry": {"type": "LineString", "coordinates": [[8.5379132, 47.3689716], [8.5379102, 47.3689709], [8.5378915, 47.3689692], [8.537689, 47.3688209], [8.537674, 47.3688105], [8.5376596, 47.3688105], [8.5376495, 47.3688106], [8.5376443, 47.3688106]]}, "properties": {"layer": "LKZ1314-MLU1", "function": "distribution"}}, {"type": "Feature", "geometry": {"type": "LineString", "coordinates": [[8.5376443, 47.3688106], [8.5376177, 47.3688112], [8.5375483, 47.3687727]]}, "properties": {"layer": "LKZ1314-MLU1", "function": "distribution"}}, {"type": "Feature", "geometry": {"type": "LineString", "coordinates": [[8.5376596, 47.3688105], [8.5376602, 47.3688156], [8.5376605, 47.3688186]]}, "properties": {"layer": "LKZ1315-MLU1", "function": "connection"}}, {"type": "Feature", "geometry": {"type": "LineString", "coordinates": [[8.53765, 47.3688285], [8.5376231, 47.3688438], [8.5376182, 47.3688472]]}, "properties": {"layer": "LKZ1315-MLU1", "function": "connection"}}, {"type": "Feature", "geometry": {"type": "LineString", "coordinates": [[8.5376182, 47.3688472], [8.5376049, 47.3688561], [8.5375911, 47.3688655], [8.5377088, 47.3689447], [8.5377607, 47.3689805], [8.5377306, 47.3690025], [8.5377912, 47.3690444], [8.5378146, 47.3690606]]}, "properties": {"layer": "LKZ131B-MLU0", "function": "internal"}}, {"type": "Feature", "geometry": {"type": "LineString", "coordinates": [[8.5377088, 47.3689447], [8.5376763, 47.3689666]]}, "properties": {"layer": "LKZ131B-MLU0", "function": "internal"}}, {"type": "Feature", "geometry": {"type": "LineString", "coordinates": [[8.5376605, 47.3688186], [8.5376611, 47.3688227], [8.53765, 47.3688285]]}, "properties": {"layer": "LKZ1315-MLU1", "function": "connection"}}, {"type": "Feature", "geometry": {"type": "LineString", "coordinates": [[8.5384428, 47.3692778], [8.5384004, 47.3692328], [8.5383682, 47.3692096], [8.538254, 47.3691268], [8.5382449, 47.3691202], [8.5381899, 47.36908], [8.5381905, 47.369075], [8.5381845, 47.3690709], [8.5381789, 47.3690671], [8.5381713, 47.3690664], [8.5381646, 47.3690615], [8.5381433, 47.3690462], [8.5381004, 47.3690204], [8.5380966, 47.3690181], [8.5380917, 47.3690094], [8.5380791, 47.3690016], [8.5380766, 47.3690001]]}, "properties": {"layer": "LKZ1314-MLU1", "function": "distribution"}}, {"type": "Feature", "geometry": {"type": "LineString", "coordinates": [[8.5382449, 47.3691202], [8.5382471, 47.3691189], [8.5382497, 47.3691171], [8.5382513, 47.3691159], [8.5382601, 47.3691099], [8.5382826, 47.3690945]]}, "properties": {"layer": "LKZ1315-MLU1", "function": "connection"}}, {"type": "Feature", "geometry": {"type": "LineString", "coordinates": [[8.5384428, 47.3692778], [8.5384456, 47.3692765], [8.5384563, 47.3692723], [8.5384594, 47.3692663], [8.5384724, 47.369258], [8.5384848, 47.3692497]]}, "properties": {"layer": "LKZ1314-MLU1", "function": "distribution"}}, {"type": "Feature", "geometry": {"type": "LineString", "coordinates": [[8.5384848, 47.3692497], [8.5384863, 47.3692491], [8.5385049, 47.3692371], [8.5385329, 47.3692337], [8.5385653, 47.3692131]]}, "properties": {"layer": "LKZ1314-MLU1", "function": "distribution"}}, {"type": "Feature", "geometry": {"type": "LineString", "coordinates": [[8.5369114, 47.3696844], [8.5369136, 47.3696827], [8.5369194, 47.3696786], [8.5369309, 47.3696787], [8.5369484, 47.3696831], [8.5370013, 47.3696772], [8.5370142, 47.3696668], [8.5373564, 47.3694552], [8.5374454, 47.3694007], [8.5374633, 47.369387], [8.5374646, 47.369378], [8.5374788, 47.3693678], [8.5374925, 47.3693667], [8.5375211, 47.3693492], [8.5375649, 47.3693223], [8.5376899, 47.3692474], [8.5378986, 47.3691182], [8.5379002, 47.3691], [8.5379022, 47.3690711], [8.5379031, 47.3690677], [8.5379135, 47.3690611], [8.5379179, 47.3690584], [8.5379217, 47.3690559]]}, "properties": {"layer": "LKZ1314-MLU1", "function": "distribution"}}, {"type": "Feature", "geometry": {"type": "LineString", "coordinates": [[8.5379217, 47.3690559], [8.5379551, 47.3690342], [8.5379576, 47.3690327]]}, "properties": {"layer": "LKZ1314-MLU1", "function": "distribution"}}, {"type": "Feature", "geometry": {"type": "LineString", "coordinates": [[8.5374454, 47.3694007], [8.5374476, 47.3694024], [8.5374805, 47.3694284], [8.5374814, 47.3694301]]}, "properties": {"layer": "LKZ1315-MLU1", "function": "connection"}}, {"type": "Feature", "geometry": {"type": "LineString", "coordinates": [[8.5374814, 47.3694301], [8.5374994, 47.3694433]]}, "properties": {"layer": "LKZ1315-MLU1", "function": "connection"}}, {"type": "Feature", "geometry": {"type": "LineString", "coordinates": [[8.5375211, 47.3693492], [8.5375144, 47.3693444], [8.5375061, 47.3693387], [8.5374925, 47.3693296], [8.5374879, 47.369326], [8.5374752, 47.3693177]]}, "properties": {"layer": "LKZ1315-MLU1", "function": "connection"}}, {"type": "Feature", "geometry": {"type": "LineString", "coordinates": [[8.5374752, 47.3693177], [8.5374601, 47.3693071], [8.5374507, 47.3693007]]}, "properties": {"layer": "LKZ1315-MLU1", "function": "connection"}}, {"type": "Feature", "geometry": {"type": "LineString", "coordinates": [[8.5374507, 47.3693007], [8.5374261, 47.3692833], [8.5374251, 47.3692752], [8.5374178, 47.3692696]]}, "properties": {"layer": "LKZ1315-MLU1", "function": "connection"}}, {"type": "Feature", "geometry": {"type": "LineString", "coordinates": [[8.5374178, 47.3692696], [8.5374257, 47.3692559], [8.5372249, 47.3691069]]}, "properties": {"layer": "LKZ1315-MLU1", "function": "connection"}}, {"type": "Feature", "geometry": {"type": "LineString", "coordinates": [[8.5375649, 47.3693223], [8.537573, 47.3693285], [8.5375752, 47.3693302], [8.5375881, 47.3693396]]}, "properties": {"layer": "LKZ1317-MLU1", "function": "hydrant_connection"}}, {"type": "Feature", "geometry": {"type": "LineString", "coordinates": [[8.5375881, 47.3693396], [8.5375919, 47.3693423]]}, "properties": {"layer": "LKZ1317-MLU1", "function": "hydrant_connection"}}, {"type": "Feature", "geometry": {"type": "LineString", "coordinates": [[8.5375919, 47.3693423], [8.5375991, 47.3693474]]}, "properties": {"layer": "LKZ1317-MLU1", "function": "hydrant_connection"}}, {"type": "Feature", "geometry": {"type": "LineString", "coordinates": [[8.5376899, 47.3692474], [8.5376873, 47.3692453], [8.5376785, 47.3692386], [8.5376761, 47.3692367], [8.5376559, 47.3692212], [8.5376481, 47.3692151], [8.5376376, 47.369207], [8.5376306, 47.3692016], [8.5376279, 47.3691996], [8.5376231, 47.3691959], [8.537619, 47.3691927]]}, "properties": {"layer": "LKZ1315-MLU1", "function": "connection"}}, {"type": "Feature", "geometry": {"type": "LineString", "coordinates": [[8.5379002, 47.3691], [8.537893, 47.3690997], [8.5378917, 47.3690997]]}, "properties": {"layer": "LKZ1315-MLU1", "function": "connection"}}, {"type": "Feature", "geometry": {"type": "LineString", "coordinates": [[8.5380766, 47.3690001], [8.5380788, 47.3689984], [8.5381002, 47.3689828], [8.5381339, 47.3689564], [8.5381459, 47.3689404], [8.5381598, 47.3689213]]}, "properties": {"layer": "LKZ1314-MLU1", "function": "distribution"}}, {"type": "Feature", "geometry": {"type": "LineString", "coordinates": [[8.5381948, 47.3696835], [8.5382224, 47.3696624], [8.5382246, 47.3696607]]}, "properties": {"layer": "LKZ1314-MLU1", "function": "distribution"}}, {"type": "Feature", "geometry": {"type": "LineString", "coordinates": [[8.5380696, 47.370855], [8.5380791, 47.3708277], [8.5378002, 47.3707814], [8.5373813, 47.3705853], [8.5377209, 47.3703364], [8.5377344, 47.3703253]]}, "properties": {"layer": "LKZ131B-MLU0", "function": "internal"}}, {"type": "Feature", "geometry": {"type": "LineString", "coordinates": [[8.5377209, 47.3703364], [8.5379468, 47.3704631]]}, "properties": {"layer": "LKZ131B-MLU0", "function": "internal"}}, {"type": "Feature", "geometry": {"type": "LineString", "coordinates": [[8.5380791, 47.3708277], [8.5382938, 47.3708623], [8.538585, 47.3705866], [8.5386522, 47.3705229], [8.5386096, 47.370501], [8.5383179, 47.3703371], [8.5380008, 47.3701591]]}, "properties": {"layer": "LKZ131B-MLU0", "function": "internal"}}, {"type": "Feature", "geometry": {"type": "LineString", "coordinates": [[8.5383179, 47.3703371], [8.538285, 47.3703652]]}, "properties": {"layer": "LKZ131B-MLU0", "function": "internal"}}, {"type": "Feature", "geometry": {"type": "LineString", "coordinates": [[8.5381923, 47.369698], [8.5381904, 47.3696871], [8.5381948, 47.3696835]]}, "properties": {"layer": "LKZ1314-MLU1", "function": "distribution"}}, {"type": "Feature", "geometry": {"type": "LineString", "coordinates": [[8.5375681, 47.369185], [8.537578, 47.369179], [8.5376024, 47.3691799], [8.537619, 47.3691927]]}, "properties": {"layer": "LKZ1315-MLU1", "function": "connection"}}, {"type": "Feature", "geometry": {"type": "LineString", "coordinates": [[8.5400121, 47.3688508], [8.5400156, 47.3688417]]}, "properties": {"layer": "LKZ1315-MLU1", "function": "connection"}}, {"type": "Feature", "geometry": {"type": "LineString", "coordinates": [[8.540203, 47.3688722], [8.540204, 47.3688686]]}, "properties": {"layer": "LKZ1315-MLU1", "function": "connection"}}, {"type": "Feature", "geometry": {"type": "LineString", "coordinates": [[8.5397772, 47.3688467], [8.5397935, 47.3688485], [8.5398115, 47.368844], [8.5400113, 47.368872], [8.540086, 47.3688825], [8.5401962, 47.3688964], [8.540226, 47.3689004], [8.5402442, 47.3689028], [8.5402595, 47.3689048], [8.5402689, 47.3689062], [8.5403472, 47.3689179], [8.5404143, 47.3689273], [8.5404716, 47.3689354], [8.5405362, 47.3689447], [8.5406677, 47.3689634], [8.5406803, 47.368961], [8.5406926, 47.3689588], [8.5407319, 47.3689642]]}, "properties": {"layer": "LKZ1314-MLU1", "function": "distribution"}}, {"type": "Feature", "geometry": {"type": "LineString", "coordinates": [[8.5402101, 47.3688507], [8.540204, 47.3688686]]}, "properties": {"layer": "LKZ1315-MLU1", "function": "connection"}}, {"type": "Feature", "geometry": {"type": "LineString", "coordinates": [[8.5403468, 47.3691951], [8.5403455, 47.3691993]]}, "properties": {"layer": "LKZ1315-MLU1", "function": "connection"}}, {"type": "Feature", "geometry": {"type": "LineString", "coordinates": [[8.5401744, 47.3694004], [8.540171, 47.3694]]}, "properties": {"layer": "LKZ1315-MLU1", "function": "connection"}}, {"type": "Feature", "geometry": {"type": "LineString", "coordinates": [[8.5401828, 47.3694016], [8.5401744, 47.3694004]]}, "properties": {"layer": "LKZ1315-MLU1", "function": "connection"}}, {"type": "Feature", "geometry": {"type": "LineString", "coordinates": [[8.5402891, 47.369411], [8.5402879, 47.3694157], [8.5402672, 47.3694129]]}, "properties": {"layer": "LKZ1315-MLU1", "function": "connection"}}, {"type": "Feature", "geometry": {"type": "LineString", "coordinates": [[8.5403087, 47.3693342], [8.5403057, 47.3693481], [8.5403042, 47.3693537]]}, "properties": {"layer": "LKZ1315-MLU1", "function": "connection"}}, {"type": "Feature", "geometry": {"type": "LineString", "coordinates": [[8.540087, 47.3693891], [8.5400877, 47.3693867]]}, "properties": {"layer": "LKZ1314-MLU1", "function": "distribution"}}, {"type": "Feature", "geometry": {"type": "LineString", "coordinates": [[8.5400873, 47.3693104], [8.5400875, 47.3693087]]}, "properties": {"layer": "LKZ1310-MLU1", "function": "misc"}}, {"type": "Feature", "geometry": {"type": "LineString", "coordinates": [[8.540171, 47.3694], [8.5401697, 47.3693998], [8.5401662, 47.3693993], [8.5401627, 47.3693989], [8.5401614, 47.3693987]]}, "properties": {"layer": "LKZ1315-MLU1", "function": "connection"}}, {"type": "Feature", "geometry": {"type": "LineString", "coordinates": [[8.540165, 47.3694035], [8.5401655, 47.3694017], [8.5401662, 47.3693993]]}, "properties": {"layer": "LKZ1315-MLU1", "function": "connection"}}, {"type": "Feature", "geometry": {"type": "LineString", "coordinates": [[8.5401614, 47.3693987], [8.5401352, 47.3693953]]}, "properties": {"layer": "LKZ1315-MLU1", "function": "connection"}}, {"type": "Feature", "geometry": {"type": "LineString", "coordinates": [[8.5392168, 47.369172], [8.5393013, 47.3691829]]}, "properties": {"layer": "LKZ1310-MLU1", "function": "misc"}}, {"type": "Feature", "geometry": {"type": "LineString", "coordinates": [[8.5405353, 47.3689476], [8.5405354, 47.3689472], [8.5405362, 47.3689447]]}, "properties": {"layer": "LKZ1315-MLU1", "function": "connection"}}, {"type": "Feature", "geometry": {"type": "LineString", "coordinates": [[8.5397914, 47.3703633], [8.5397907, 47.370364]]}, "properties": {"layer": "LKZ1315-MLU1", "function": "connection"}}, {"type": "Feature", "geometry": {"type": "LineString", "coordinates": [[8.5378917, 47.3690997], [8.5378897, 47.3690996]]}, "properties": {"layer": "LKZ1315-MLU1", "function": "connection"}}, {"type": "Feature", "geometry": {"type": "LineString", "coordinates": [[8.5378897, 47.3690996], [8.5378652, 47.3690986], [8.5378146, 47.3690606]]}, "properties": {"layer": "LKZ1315-MLU1", "function": "connection"}}, {"type": "Feature", "geometry": {"type": "LineString", "coordinates": [[8.5380766, 47.3690001], [8.5380742, 47.3689986]]}, "properties": {"layer": "LKZ1314-MLU1", "function": "distribution"}}, {"type": "Feature", "geometry": {"type": "LineString", "coordinates": [[8.5400181, 47.3702141], [8.5400054, 47.3702124], [8.5399481, 47.3701859], [8.5397358, 47.3700878], [8.5397212, 47.3700698], [8.5397042, 47.3700629], [8.5396852, 47.3700629], [8.5396657, 47.3700628], [8.5396297, 47.3700648], [8.5396266, 47.3700651], [8.5396002, 47.3700863], [8.5395373, 47.3701226]]}, "properties": {"layer": "LKZ1319-MLU1", "function": "spring"}}, {"type": "Feature", "geometry": {"type": "LineString", "coordinates": [[8.5410491, 47.3699828], [8.5411556, 47.3701738], [8.5411865, 47.3702292]]}, "properties": {"layer": "LKZ1314-MLU1", "function": "distribution"}}, {"type": "Feature", "geometry": {"type": "LineString", "coordinates": [[8.5411865, 47.3702292], [8.5411876, 47.3702309]]}, "properties": {"layer": "LKZ1314-MLU1", "function": "distribution"}}, {"type": "Feature", "geometry": {"type": "LineString", "coordinates": [[8.5407319, 47.3689642], [8.5407666, 47.368969], [8.5407698, 47.3689694]]}, "properties": {"layer": "LKZ1314-MLU1", "function": "distribution"}}, {"type": "Feature", "geometry": {"type": "LineString", "coordinates": [[8.5407698, 47.3689694], [8.5407731, 47.3689698], [8.5407763, 47.3689702]]}, "properties": {"layer": "LKZ1314-MLU1", "function": "distribution"}}, {"type": "Feature", "geometry": {"type": "LineString", "coordinates": [[8.5407698, 47.3689694], [8.5407691, 47.3689716], [8.5407671, 47.3689782], [8.5407123, 47.3691559]]}, "properties": {"layer": "LKZ1314-MLU1", "function": "distribution"}}, {"type": "Feature", "geometry": {"type": "LineString", "coordinates": [[8.5408064, 47.3688509], [8.5408025, 47.3688504]]}, "properties": {"layer": "LKZ1315-MLU1", "function": "connection"}}, {"type": "Feature", "geometry": {"type": "LineString", "coordinates": [[8.5408025, 47.3688504], [8.5407868, 47.3688484], [8.540769, 47.3688464], [8.5407553, 47.3688449], [8.5407368, 47.3688426]]}, "properties": {"layer": "LKZ1315-MLU1", "function": "connection"}}, {"type": "Feature", "geometry": {"type": "LineString", "coordinates": [[8.5410608, 47.3688618], [8.5410269, 47.3688573], [8.5410026, 47.368854], [8.5410108, 47.3688254], [8.5410038, 47.3688245]]}, "properties": {"layer": "LKZ131B-MLU0", "function": "internal"}}, {"type": "Feature", "geometry": {"type": "LineString", "coordinates": [[8.5400877, 47.3693867], [8.5400885, 47.3693838]]}, "properties": {"layer": "LKZ1314-MLU1", "function": "distribution"}}, {"type": "Feature", "geometry": {"type": "LineString", "coordinates": [[8.5401999, 47.3692763], [8.5402005, 47.3692744], [8.5402013, 47.3692715], [8.5401977, 47.3692666]]}, "properties": {"layer": "LKZ1315-MLU1", "function": "connection"}}, {"type": "Feature", "geometry": {"type": "LineString", "coordinates": [[8.5401924, 47.3692753], [8.5401999, 47.3692763]]}, "properties": {"layer": "LKZ1314-MLU1", "function": "distribution"}}, {"type": "Feature", "geometry": {"type": "LineString", "coordinates": [[8.5376055, 47.3702287], [8.5376154, 47.3702343]]}, "properties": {"layer": "LKZ1317-MLU1", "function": "hydrant_connection"}}, {"type": "Feature", "geometry": {"type": "LineString", "coordinates": [[8.540087, 47.3693891], [8.5401314, 47.3693948], [8.5401352, 47.3693953]]}, "properties": {"layer": "LKZ1314-MLU1", "function": "distribution"}}, {"type": "Feature", "geometry": {"type": "LineString", "coordinates": [[8.540087, 47.3693891], [8.54008, 47.3693882]]}, "properties": {"layer": "LKZ1315-MLU1", "function": "connection"}}, {"type": "Feature", "geometry": {"type": "LineString", "coordinates": [[8.5403057, 47.3693481], [8.5403093, 47.3693486], [8.5403269, 47.3693507]]}, "properties": {"layer": "LKZ1315-MLU1", "function": "connection"}}, {"type": "Feature", "geometry": {"type": "LineString", "coordinates": [[8.5397907, 47.370364], [8.5397885, 47.3703663], [8.5397866, 47.3703683], [8.539784, 47.3703709], [8.5397821, 47.3703729], [8.5397715, 47.370384], [8.5397537, 47.3704017], [8.5397461, 47.3704027], [8.5397431, 47.3704057]]}, "properties": {"layer": "LKZ1315-MLU1", "function": "connection"}}, {"type": "Feature", "geometry": {"type": "LineString", "coordinates": [[8.5403233, 47.3692721], [8.5403216, 47.3692775], [8.5403208, 47.3692802], [8.5403179, 47.369293]]}, "properties": {"layer": "LKZ1315-MLU1", "function": "connection"}}, {"type": "Feature", "geometry": {"type": "LineString", "coordinates": [[8.5381735, 47.3688431], [8.5381769, 47.3688445], [8.5381803, 47.3688459], [8.5381825, 47.3688469], [8.5382559, 47.3688777]]}, "properties": {"layer": "LKZ1315-MLU1", "function": "connection"}}, {"type": "Feature", "geometry": {"type": "LineString", "coordinates": [[8.5401962, 47.3688964], [8.5401969, 47.3688938], [8.540203, 47.3688722]]}, "properties": {"layer": "LKZ1315-MLU1", "function": "connection"}}, {"type": "Feature", "geometry": {"type": "LineString", "coordinates": [[8.540226, 47.3689004], [8.5402255, 47.3689031], [8.5402182, 47.3689407], [8.5402147, 47.3689596], [8.5402144, 47.3689605]]}, "properties": {"layer": "LKZ1315-MLU1", "function": "connection"}}, {"type": "Feature", "geometry": {"type": "LineString", "coordinates": [[8.5403582, 47.3688713], [8.540348, 47.3689152], [8.5403472, 47.3689179]]}, "properties": {"layer": "LKZ1315-MLU1", "function": "connection"}}, {"type": "Feature", "geometry": {"type": "LineString", "coordinates": [[8.5404281, 47.368881], [8.5404152, 47.3689246], [8.5404143, 47.3689273]]}, "properties": {"layer": "LKZ1315-MLU1", "function": "connection"}}, {"type": "Feature", "geometry": {"type": "LineString", "coordinates": [[8.540086, 47.3688825], [8.5400852, 47.3688855], [8.5400743, 47.3689225], [8.5400694, 47.3689393]]}, "properties": {"layer": "LKZ1315-MLU1", "function": "connection"}}, {"type": "Feature", "geometry": {"type": "LineString", "coordinates": [[8.5400113, 47.368872], [8.5400122, 47.3688688], [8.540013, 47.3688657], [8.540009, 47.368861], [8.5400121, 47.3688508]]}, "properties": {"layer": "LKZ1315-MLU1", "function": "connection"}}, {"type": "Feature", "geometry": {"type": "LineString", "coordinates": [[8.5403468, 47.3691951], [8.5403477, 47.3691921], [8.5403542, 47.369193]]}, "properties": {"layer": "LKZ1315-MLU1", "function": "connection"}}, {"type": "Feature", "geometry": {"type": "LineString", "coordinates": [[8.5404117, 47.3692009], [8.5404182, 47.3692018]]}, "properties": {"layer": "LKZ1315-MLU1", "function": "connection"}}, {"type": "Feature", "geometry": {"type": "LineString", "coordinates": [[8.5402258, 47.3701847], [8.5402361, 47.3701904]]}, "properties": {"layer": "LKZ1315-MLU1", "function": "connection"}}, {"type": "Feature", "geometry": {"type": "LineString", "coordinates": [[8.5402083, 47.3701751], [8.5402238, 47.3701836]]}, "properties": {"layer": "LKZ1315-MLU1", "function": "connection"}}, {"type": "Feature", "geometry": {"type": "LineString", "coordinates": [[8.5402238, 47.3701836], [8.5402258, 47.3701847]]}, "properties": {"layer": "LKZ1315-MLU1", "function": "connection"}}, {"type": "Feature", "geometry": {"type": "LineString", "coordinates": [[8.5407763, 47.3689702], [8.5407864, 47.3689715], [8.5409477, 47.3689912]]}, "properties": {"layer": "LKZ1314-MLU1", "function": "distribution"}}, {"type": "Feature", "geometry": {"type": "LineString", "coordinates": [[8.5392079, 47.3702113], [8.5392065, 47.3702149]]}, "properties": {"layer": "LKZ1314-MLU1", "function": "distribution"}}, {"type": "Feature", "geometry": {"type": "LineString", "coordinates": [[8.5412366, 47.3690597], [8.5412269, 47.3690994]]}, "properties": {"layer": "LKZ1319-MLU1", "function": "spring"}}, {"type": "Feature", "geometry": {"type": "LineString", "coordinates": [[8.541228, 47.3690437], [8.5412272, 47.3690463], [8.5412264, 47.3690494]]}, "properties": {"layer": "LKZ1314-MLU1", "function": "distribution"}}, {"type": "Feature", "geometry": {"type": "LineString", "coordinates": [[8.5412264, 47.3690494], [8.5412258, 47.3690517], [8.5412354, 47.3690529], [8.5412345, 47.3690574]]}, "properties": {"layer": "LKZ1314-MLU1", "function": "distribution"}}, {"type": "Feature", "geometry": {"type": "LineString", "coordinates": [[8.5412366, 47.3690597], [8.5412377, 47.3690554], [8.5412384, 47.3690535], [8.5412422, 47.3690539], [8.5412537, 47.3690554], [8.5414577, 47.3690842], [8.5416137, 47.369105], [8.5416194, 47.3691057]]}, "properties": {"layer": "LKZ1319-MLU1", "function": "spring"}}, {"type": "Feature", "geometry": {"type": "LineString", "coordinates": [[8.5412345, 47.3690574], [8.5412279, 47.3690846]]}, "properties": {"layer": "LKZ1314-MLU1", "function": "distribution"}}, {"type": "Feature", "geometry": {"type": "LineString", "coordinates": [[8.5412279, 47.3690846], [8.5412271, 47.3690875]]}, "properties": {"layer": "LKZ1315-MLU1", "function": "connection"}}, {"type": "Feature", "geometry": {"type": "LineString", "coordinates": [[8.5386812, 47.368274], [8.5385704, 47.3683935], [8.5385675, 47.3683968], [8.5385619, 47.3684032], [8.5385217, 47.3684505], [8.5385009, 47.3684719], [8.5384966, 47.3684854], [8.5384876, 47.3684917], [8.5383823, 47.3686066], [8.5381735, 47.3688431], [8.5381439, 47.3688764], [8.5381598, 47.3689213]]}, "properties": {"layer": "LKZ1314-MLU1", "function": "distribution"}}, {"type": "Feature", "geometry": {"type": "LineString", "coordinates": [[8.5406164, 47.3697108], [8.5406137, 47.3697122], [8.540608, 47.369715], [8.5405708, 47.3697342], [8.5405449, 47.3697468], [8.5404688, 47.3697388]]}, "properties": {"layer": "LKZ1314-MLU1", "function": "distribution"}}, {"type": "Feature", "geometry": {"type": "LineString", "coordinates": [[8.5405818, 47.3696628], [8.5407826, 47.3696556]]}, "properties": {"layer": "LKZ1315-MLU1", "function": "connection"}}, {"type": "Feature", "geometry": {"type": "LineString", "coordinates": [[8.5405706, 47.3696624], [8.5405746, 47.3696627], [8.5405782, 47.3696629], [8.5405818, 47.3696628]]}, "properties": {"layer": "LKZ1315-MLU1", "function": "connection"}}, {"type": "Feature", "geometry": {"type": "LineString", "coordinates": [[8.5407826, 47.3696556], [8.5407901, 47.3696553], [8.5407959, 47.3696583], [8.5407987, 47.3696581]]}, "properties": {"layer": "LKZ1315-MLU1", "function": "connection"}}, {"type": "Feature", "geometry": {"type": "LineString", "coordinates": [[8.5400885, 47.3693838], [8.5400897, 47.3693791], [8.5400977, 47.36938], [8.5400988, 47.3693754]]}, "properties": {"layer": "LKZ1314-MLU1", "function": "distribution"}}, {"type": "Feature", "geometry": {"type": "LineString", "coordinates": [[8.5401058, 47.369348], [8.5401072, 47.3693426], [8.5401076, 47.3693412], [8.5401174, 47.3693347]]}, "properties": {"layer": "LKZ1314-MLU1", "function": "distribution"}}, {"type": "Feature", "geometry": {"type": "LineString", "coordinates": [[8.5401893, 47.3692865], [8.5401988, 47.3692802], [8.5401999, 47.3692763]]}, "properties": {"layer": "LKZ1314-MLU1", "function": "distribution"}}, {"type": "Feature", "geometry": {"type": "LineString", "coordinates": [[8.5418124, 47.3681301], [8.5418309, 47.3684514], [8.541832, 47.3684704], [8.5418394, 47.3685746], [8.5418396, 47.3685784], [8.5418435, 47.368607], [8.5418544, 47.3686141], [8.5418588, 47.3686724], [8.541862, 47.3687267], [8.5418658, 47.3687802], [8.5418689, 47.3688129], [8.5418582, 47.3688205], [8.5418608, 47.3688514], [8.5418656, 47.3689302], [8.5418683, 47.3689688], [8.5418703, 47.3689926], [8.5418623, 47.3690013], [8.5418625, 47.3690139], [8.5418626, 47.3690197], [8.541839, 47.3690356], [8.5417666, 47.3691144]]}, "properties": {"layer": "LKZ1319-MLU1", "function": "spring"}}, {"type": "Feature", "geometry": {"type": "LineString", "coordinates": [[8.5405699, 47.3696668], [8.5406144, 47.369709], [8.5406164, 47.3697108]]}, "properties": {"layer": "LKZ1314-MLU1", "function": "distribution"}}, {"type": "Feature", "geometry": {"type": "LineString", "coordinates": [[8.5408403, 47.3687404], [8.5408392, 47.368744], [8.5408375, 47.3687494], [8.5408237, 47.3687943], [8.5408064, 47.3688509], [8.5407726, 47.3689604], [8.5407705, 47.3689672], [8.5407698, 47.3689694]]}, "properties": {"layer": "LKZ1314-MLU1", "function": "distribution"}}, {"type": "Feature", "geometry": {"type": "LineString", "coordinates": [[8.541858, 47.369012], [8.5418586, 47.3690123], [8.5418606, 47.3690131], [8.5418625, 47.3690139], [8.5418627, 47.369014], [8.5418644, 47.3690148], [8.5418815, 47.369019], [8.5419067, 47.3690147]]}, "properties": {"layer": "LKZ1315-MLU1", "function": "connection"}}, {"type": "Feature", "geometry": {"type": "LineString", "coordinates": [[8.5417644, 47.3691136], [8.5417624, 47.3691125], [8.5417613, 47.3691121], [8.5417465, 47.3691056], [8.5417432, 47.3691019], [8.5416685, 47.3690908], [8.5416314, 47.3691071], [8.5416194, 47.3691057]]}, "properties": {"layer": "LKZ1319-MLU1", "function": "spring"}}, {"type": "Feature", "geometry": {"type": "LineString", "coordinates": [[8.5417644, 47.3691136], [8.5417666, 47.3691144]]}, "properties": {"layer": "LKZ1319-MLU1", "function": "spring"}}, {"type": "Feature", "geometry": {"type": "LineString", "coordinates": [[8.5409477, 47.3689912], [8.5409852, 47.3690123], [8.541141, 47.369032], [8.541228, 47.3690437], [8.5414611, 47.369076], [8.5416152, 47.3690979], [8.5416199, 47.3690984], [8.5416402, 47.3691006], [8.5416672, 47.3690869], [8.5417323, 47.3690955], [8.5417618, 47.3691071], [8.5417647, 47.3691082]]}, "properties": {"layer": "LKZ1314-MLU1", "function": "distribution"}}, {"type": "Feature", "geometry": {"type": "LineString", "coordinates": [[8.5417958, 47.3681352], [8.5418119, 47.3683253], [8.5418121, 47.3683284], [8.5418203, 47.3684519], [8.5418283, 47.3685745], [8.5418304, 47.3686066], [8.5418469, 47.368617], [8.5418522, 47.3686727], [8.5418566, 47.368727], [8.5418603, 47.3687802], [8.5418619, 47.3688115], [8.5418474, 47.3688225], [8.5418534, 47.368931], [8.5418565, 47.3689843], [8.541858, 47.369012], [8.5418583, 47.3690154], [8.5418586, 47.3690189], [8.5418357, 47.3690325], [8.5417663, 47.3691063], [8.5417647, 47.3691082]]}, "properties": {"layer": "LKZ1314-MLU1", "function": "distribution"}}, {"type": "Feature", "geometry": {"type": "LineString", "coordinates": [[8.5396548, 47.3689056], [8.5396748, 47.3688516], [8.5396724, 47.368842], [8.539674, 47.3688369], [8.5396747, 47.3688347]]}, "properties": {"layer": "LKZ1314-MLU1", "function": "distribution"}}, {"type": "Feature", "geometry": {"type": "LineString", "coordinates": [[8.539621, 47.3689733], [8.5396429, 47.3689207], [8.5396494, 47.3689074], [8.5396548, 47.3689056]]}, "properties": {"layer": "LKZ1314-MLU1", "function": "distribution"}}, {"type": "Feature", "geometry": {"type": "LineString", "coordinates": [[8.5394405, 47.3695964], [8.5394423, 47.3695906], [8.5394535, 47.3695555], [8.5394474, 47.3695341], [8.5394557, 47.3695106], [8.5394724, 47.3694544], [8.5394735, 47.3694511], [8.539462, 47.3694052], [8.5394821, 47.369354], [8.5395038, 47.3693441]]}, "properties": {"layer": "LKZ1314-MLU1", "function": "distribution"}}, {"type": "Feature", "geometry": {"type": "LineString", "coordinates": [[8.5395137, 47.3693184], [8.5395007, 47.3693009], [8.5395024, 47.369296], [8.539511, 47.3692724], [8.5395171, 47.369256], [8.5395309, 47.3692496], [8.5395413, 47.3692222], [8.5395331, 47.3692125], [8.5396014, 47.3690273], [8.539621, 47.3689733]]}, "properties": {"layer": "LKZ1314-MLU1", "function": "distribution"}}, {"type": "Feature", "geometry": {"type": "LineString", "coordinates": [[8.5395038, 47.3693441], [8.5395129, 47.3693404], [8.5395187, 47.3693253], [8.5395137, 47.3693184]]}, "properties": {"layer": "LKZ1314-MLU1", "function": "distribution"}}, {"type": "Feature", "geometry": {"type": "LineString", "coordinates": [[8.5417045, 47.3695849], [8.5415601, 47.3695938], [8.5415468, 47.3695946]]}, "properties": {"layer": "LKZ1319-MLU1", "function": "spring"}}, {"type": "Feature", "geometry": {"type": "LineString", "coordinates": [[8.5417235, 47.3695838], [8.5417229, 47.3695838], [8.54172, 47.369584], [8.5417197, 47.369584], [8.5417171, 47.3695841], [8.5417132, 47.3695843], [8.5417045, 47.3695849]]}, "properties": {"layer": "LKZ1319-MLU1", "function": "spring"}}, {"type": "Feature", "geometry": {"type": "LineString", "coordinates": [[8.5408237, 47.3687943], [8.5408279, 47.3687949], [8.5409515, 47.3688127], [8.5409615, 47.3688186], [8.5410038, 47.3688245]]}, "properties": {"layer": "LKZ1315-MLU1", "function": "connection"}}, {"type": "Feature", "geometry": {"type": "LineString", "coordinates": [[8.5417666, 47.3691144], [8.5417638, 47.3691174], [8.5417616, 47.3691197], [8.5417345, 47.3691491], [8.5417317, 47.3691521], [8.5416807, 47.3692062], [8.5416855, 47.3692754], [8.5417019, 47.3694408], [8.5417123, 47.3694471], [8.5417189, 47.3695152], [8.5417235, 47.3695838], [8.541724, 47.3695964], [8.541716, 47.3696014], [8.5417267, 47.3697079], [8.5417292, 47.3697615], [8.5417314, 47.3698187], [8.5417323, 47.3698281], [8.541735, 47.3698435]]}, "properties": {"layer": "LKZ1319-MLU1", "function": "spring"}}, {"type": "Feature", "geometry": {"type": "LineString", "coordinates": [[8.5411449, 47.3701767], [8.541148, 47.3701758], [8.5411536, 47.3701743]]}, "properties": {"layer": "LKZ1319-MLU1", "function": "spring"}}, {"type": "Feature", "geometry": {"type": "LineString", "coordinates": [[8.5411536, 47.3701743], [8.5411556, 47.3701738], [8.5412471, 47.3701499], [8.5412513, 47.3701494], [8.5413751, 47.3701574]]}, "properties": {"layer": "LKZ1319-MLU1", "function": "spring"}}, {"type": "Feature", "geometry": {"type": "LineString", "coordinates": [[8.5413855, 47.3701579], [8.5413888, 47.3701579], [8.5413915, 47.370159], [8.5414028, 47.3701634]]}, "properties": {"layer": "LKZ1319-MLU1", "function": "spring"}}, {"type": "Feature", "geometry": {"type": "LineString", "coordinates": [[8.5413751, 47.3701574], [8.5413789, 47.3701577]]}, "properties": {"layer": "LKZ1319-MLU1", "function": "spring"}}, {"type": "Feature", "geometry": {"type": "LineString", "coordinates": [[8.5413789, 47.3701577], [8.5413855, 47.3701579]]}, "properties": {"layer": "LKZ1319-MLU1", "function": "spring"}}, {"type": "Feature", "geometry": {"type": "LineString", "coordinates": [[8.5410397, 47.369966], [8.5410491, 47.3699828]]}, "properties": {"layer": "LKZ1314-MLU1", "function": "distribution"}}, {"type": "Feature", "geometry": {"type": "LineString", "coordinates": [[8.5412235, 47.3703184], [8.5412226, 47.3703184], [8.5412182, 47.3703184]]}, "properties": {"layer": "LKZ1314-MLU1", "function": "distribution"}}, {"type": "Feature", "geometry": {"type": "LineString", "coordinates": [[8.5415352, 47.3698751], [8.5415348, 47.3698718], [8.5415304, 47.369835]]}, "properties": {"layer": "LKZ1314-MLU1", "function": "distribution"}}, {"type": "Feature", "geometry": {"type": "LineString", "coordinates": [[8.5415304, 47.369835], [8.5415302, 47.3698327], [8.5415299, 47.3698301]]}, "properties": {"layer": "LKZ1317-MLU1", "function": "hydrant_connection"}}, {"type": "Feature", "geometry": {"type": "LineString", "coordinates": [[8.5415304, 47.369835], [8.5415336, 47.3698348], [8.5415367, 47.3698346], [8.5415369, 47.369837], [8.5415641, 47.3698348], [8.5415741, 47.3698264], [8.5415675, 47.3697791], [8.5415667, 47.3697733], [8.5415663, 47.3697706]]}, "properties": {"layer": "LKZ1315-MLU1", "function": "connection"}}, {"type": "Feature", "geometry": {"type": "LineString", "coordinates": [[8.5409342, 47.3702226], [8.5410521, 47.3702531]]}, "properties": {"layer": "LKZ1315-MLU1", "function": "connection"}}, {"type": "Feature", "geometry": {"type": "LineString", "coordinates": [[8.5411, 47.3702544], [8.541103, 47.3702545]]}, "properties": {"layer": "LKZ1315-MLU1", "function": "connection"}}, {"type": "Feature", "geometry": {"type": "LineString", "coordinates": [[8.541103, 47.3702545], [8.5411086, 47.3702545]]}, "properties": {"layer": "LKZ1315-MLU1", "function": "connection"}}, {"type": "Feature", "geometry": {"type": "LineString", "coordinates": [[8.5411086, 47.3702545], [8.5411065, 47.3702737], [8.5411019, 47.3702918], [8.5410959, 47.3703111]]}, "properties": {"layer": "LKZ1317-MLU1", "function": "hydrant_connection"}}, {"type": "Feature", "geometry": {"type": "LineString", "coordinates": [[8.5410959, 47.3703111], [8.5410939, 47.3703195]]}, "properties": {"layer": "LKZ1317-MLU1", "function": "hydrant_connection"}}, {"type": "Feature", "geometry": {"type": "LineString", "coordinates": [[8.5411915, 47.3702376], [8.5411818, 47.3702402], [8.5411509, 47.3702488], [8.5411324, 47.3702544], [8.5411086, 47.3702545]]}, "properties": {"layer": "LKZ1314-MLU1", "function": "distribution"}}, {"type": "Feature", "geometry": {"type": "LineString", "coordinates": [[8.5410521, 47.3702531], [8.5410625, 47.3702555]]}, "properties": {"layer": "LKZ1315-MLU1", "function": "connection"}}, {"type": "Feature", "geometry": {"type": "LineString", "coordinates": [[8.5410625, 47.3702555], [8.5410678, 47.3702537], [8.5410975, 47.3702544], [8.5411, 47.3702544]]}, "properties": {"layer": "LKZ1315-MLU1", "function": "connection"}}, {"type": "Feature", "geometry": {"type": "LineString", "coordinates": [[8.5406164, 47.3697108], [8.5406183, 47.3697127], [8.5406236, 47.3697178], [8.5406652, 47.3697596], [8.5407082, 47.3698035]]}, "properties": {"layer": "LKZ1314-MLU1", "function": "distribution"}}, {"type": "Feature", "geometry": {"type": "LineString", "coordinates": [[8.5407082, 47.3698035], [8.5407569, 47.3698514], [8.5408018, 47.3698959], [8.5408424, 47.3699396], [8.5408447, 47.3699421], [8.5408478, 47.3699454], [8.5408481, 47.3699457], [8.5408496, 47.3699473]]}, "properties": {"layer": "LKZ1314-MLU1", "function": "distribution"}}, {"type": "Feature", "geometry": {"type": "LineString", "coordinates": [[8.5409342, 47.3702226], [8.5409256, 47.3702204]]}, "properties": {"layer": "LKZ1315-MLU1", "function": "connection"}}, {"type": "Feature", "geometry": {"type": "LineString", "coordinates": [[8.5409256, 47.3702204], [8.5409216, 47.3702256]]}, "properties": {"layer": "LKZ1315-MLU1", "function": "connection"}}, {"type": "Feature", "geometry": {"type": "LineString", "coordinates": [[8.5402399, 47.3701222], [8.5402617, 47.370108], [8.5402841, 47.3701033], [8.5402902, 47.370102]]}, "properties": {"layer": "LKZ1314-MLU1", "function": "distribution"}}, {"type": "Feature", "geometry": {"type": "LineString", "coordinates": [[8.5402948, 47.3700941], [8.5402992, 47.3700959], [8.5402998, 47.3700973], [8.5402998, 47.3700974], [8.5403009, 47.3700998]]}, "properties": {"layer": "LKZ1315-MLU1", "function": "connection"}}, {"type": "Feature", "geometry": {"type": "LineString", "coordinates": [[8.5404624, 47.3700527], [8.5404646, 47.370055], [8.5404648, 47.3700554], [8.5404653, 47.3700562], [8.5404667, 47.3700585]]}, "properties": {"layer": "LKZ1315-MLU1", "function": "connection"}}, {"type": "Feature", "geometry": {"type": "LineString", "coordinates": [[8.5406017, 47.3700232], [8.5406002, 47.3700209], [8.5405995, 47.3700193], [8.5405932, 47.3700044]]}, "properties": {"layer": "LKZ1315-MLU1", "function": "connection"}}, {"type": "Feature", "geometry": {"type": "LineString", "coordinates": [[8.5402995, 47.3700974], [8.5402943, 47.3700981]]}, "properties": {"layer": "LKZ1319-MLU1", "function": "spring"}}, {"type": "Feature", "geometry": {"type": "LineString", "coordinates": [[8.5405187, 47.3700455], [8.5405163, 47.3700413], [8.5405012, 47.370016]]}, "properties": {"layer": "LKZ1317-MLU1", "function": "hydrant_connection"}}, {"type": "Feature", "geometry": {"type": "LineString", "coordinates": [[8.5404979, 47.3700103], [8.5405012, 47.370016]]}, "properties": {"layer": "LKZ1317-MLU1", "function": "hydrant_connection"}}, {"type": "Feature", "geometry": {"type": "LineString", "coordinates": [[8.5409966, 47.3699558], [8.5409952, 47.36996]]}, "properties": {"layer": "LKZ1317-MLU1", "function": "hydrant_connection"}}, {"type": "Feature", "geometry": {"type": "LineString", "coordinates": [[8.5406057, 47.3700181], [8.5405995, 47.3700193], [8.5405723, 47.3700247], [8.5405163, 47.3700413], [8.5404926, 47.3700484], [8.5404648, 47.3700554], [8.5403834, 47.3700758], [8.5403337, 47.3700883], [8.5403059, 47.3700957], [8.5403029, 47.3700969], [8.5402998, 47.3700973], [8.5402995, 47.3700974]]}, "properties": {"layer": "LKZ1319-MLU1", "function": "spring"}}, {"type": "Feature", "geometry": {"type": "LineString", "coordinates": [[8.5403851, 47.3700789], [8.5403837, 47.3700765], [8.5403834, 47.3700758], [8.540378, 47.3700642]]}, "properties": {"layer": "LKZ1315-MLU1", "function": "connection"}}, {"type": "Feature", "geometry": {"type": "LineString", "coordinates": [[8.540611, 47.3700446], [8.5406144, 47.3700488], [8.540614, 47.3700569], [8.5406238, 47.3700704]]}, "properties": {"layer": "LKZ1317-MLU1", "function": "hydrant_connection"}}, {"type": "Feature", "geometry": {"type": "LineString", "coordinates": [[8.5405876, 47.3700272], [8.5405891, 47.3700295], [8.5405899, 47.3700306], [8.5405936, 47.3700364], [8.5406034, 47.3700521]]}, "properties": {"layer": "LKZ1310-MLU1", "function": "misc"}}, {"type": "Feature", "geometry": {"type": "LineString", "coordinates": [[8.5406034, 47.3700521], [8.5406078, 47.3700558], [8.540619, 47.3700721]]}, "properties": {"layer": "LKZ1310-MLU1", "function": "misc"}}, {"type": "Feature", "geometry": {"type": "LineString", "coordinates": [[8.5405723, 47.3700247], [8.5405739, 47.3700271], [8.540575, 47.3700303], [8.5405751, 47.3700305], [8.5405777, 47.3700352], [8.5405919, 47.3700543]]}, "properties": {"layer": "LKZ1319-MLU1", "function": "spring"}}, {"type": "Feature", "geometry": {"type": "LineString", "coordinates": [[8.5405919, 47.3700543], [8.5406055, 47.3700601], [8.5406143, 47.3700738]]}, "properties": {"layer": "LKZ1319-MLU1", "function": "spring"}}, {"type": "Feature", "geometry": {"type": "LineString", "coordinates": [[8.5407316, 47.3700029], [8.5407337, 47.3700049], [8.5407355, 47.3700079]]}, "properties": {"layer": "LKZ1317-MLU1", "function": "hydrant_connection"}}, {"type": "Feature", "geometry": {"type": "LineString", "coordinates": [[8.5407355, 47.3700079], [8.5407363, 47.3700096]]}, "properties": {"layer": "LKZ1317-MLU1", "function": "hydrant_connection"}}, {"type": "Feature", "geometry": {"type": "LineString", "coordinates": [[8.540378, 47.3700642], [8.5403773, 47.3700625], [8.5403779, 47.370061], [8.5403531, 47.3700312]]}, "properties": {"layer": "LKZ1315-MLU1", "function": "connection"}}, {"type": "Feature", "geometry": {"type": "LineString", "coordinates": [[8.5391652, 47.369721], [8.5391686, 47.3697217], [8.5391715, 47.3697223]]}, "properties": {"layer": "LKZ1310-MLU1", "function": "misc"}}, {"type": "Feature", "geometry": {"type": "LineString", "coordinates": [[8.5391715, 47.3697223], [8.5391728, 47.3697225], [8.5391796, 47.3697235], [8.5391869, 47.3697244], [8.539192, 47.3697253], [8.539207, 47.3697277]]}, "properties": {"layer": "LKZ1310-MLU1", "function": "misc"}}, {"type": "Feature", "geometry": {"type": "LineString", "coordinates": [[8.5388946, 47.3687858], [8.5388843, 47.3687817]]}, "properties": {"layer": "LKZ1315-MLU1", "function": "connection"}}, {"type": "Feature", "geometry": {"type": "LineString", "coordinates": [[8.5389181, 47.3688232], [8.5389206, 47.368819], [8.5389317, 47.3688006], [8.5388946, 47.3687858]]}, "properties": {"layer": "LKZ1315-MLU1", "function": "connection"}}, {"type": "Feature", "geometry": {"type": "LineString", "coordinates": [[8.5387775, 47.369003], [8.538797, 47.3689762], [8.5388025, 47.368974], [8.5388157, 47.3689583], [8.5388144, 47.3689534], [8.5388748, 47.3688965], [8.5389166, 47.3688257]]}, "properties": {"layer": "LKZ1315-MLU1", "function": "connection"}}, {"type": "Feature", "geometry": {"type": "LineString", "coordinates": [[8.5389166, 47.3688257], [8.5389181, 47.3688232]]}, "properties": {"layer": "LKZ1315-MLU1", "function": "connection"}}, {"type": "Feature", "geometry": {"type": "LineString", "coordinates": [[8.5402902, 47.370102], [8.5403009, 47.3700998], [8.5403375, 47.370093], [8.5403407, 47.3700897], [8.5403851, 47.3700789], [8.5404166, 47.3700711], [8.5404667, 47.3700585], [8.5404913, 47.3700523], [8.5405187, 47.3700455], [8.5405751, 47.3700305], [8.5405876, 47.3700272], [8.5406017, 47.3700232], [8.540612, 47.3700201], [8.5406256, 47.3700158], [8.540699, 47.3699941], [8.5407719, 47.369973], [8.5408453, 47.369949]]}, "properties": {"layer": "LKZ1314-MLU1", "function": "distribution"}}, {"type": "Feature", "geometry": {"type": "LineString", "coordinates": [[8.5410338, 47.3699094], [8.5410316, 47.3699095], [8.5410247, 47.36991], [8.5409435, 47.3699162], [8.5408702, 47.3699397], [8.5408525, 47.3699462], [8.5408496, 47.3699473], [8.5408468, 47.3699485], [8.5408453, 47.369949]]}, "properties": {"layer": "LKZ1314-MLU1", "function": "distribution"}}, {"type": "Feature", "geometry": {"type": "LineString", "coordinates": [[8.5409966, 47.3699558], [8.5409975, 47.3699529], [8.540998, 47.3699518], [8.5410014, 47.3699433], [8.5409972, 47.369939], [8.5409716, 47.3699359], [8.5409566, 47.3699355], [8.5409326, 47.3699375], [8.540861, 47.3699627], [8.5408574, 47.3699642], [8.5408478, 47.3699682], [8.5408411, 47.3699668], [8.5407886, 47.3699851], [8.5407489, 47.3699979], [8.5407316, 47.3700029], [8.5406916, 47.3700154], [8.5406135, 47.3700437], [8.540611, 47.3700446]]}, "properties": {"layer": "LKZ1317-MLU1", "function": "hydrant_connection"}}, {"type": "Feature", "geometry": {"type": "LineString", "coordinates": [[8.5411876, 47.3702309], [8.5411915, 47.3702376], [8.5412003, 47.3702548], [8.5412122, 47.3702594], [8.5412247, 47.3702867], [8.5412222, 47.3702898], [8.5412181, 47.3702948], [8.5412183, 47.3703024], [8.5412183, 47.370304], [8.5412183, 47.3703112], [8.5412182, 47.3703184], [8.5412181, 47.3703332], [8.5412181, 47.3703345], [8.5412178, 47.3703406], [8.54122, 47.3703432], [8.5412251, 47.3703652], [8.5412312, 47.3703683], [8.5412325, 47.370389], [8.5412342, 47.3704033], [8.5412355, 47.3704147], [8.5412345, 47.3704175], [8.5412128, 47.3704288], [8.5412126, 47.3704296], [8.5412113, 47.3704401]]}, "properties": {"layer": "LKZ1314-MLU1", "function": "distribution"}}, {"type": "Feature", "geometry": {"type": "LineString", "coordinates": [[8.5410235, 47.3699023], [8.5410237, 47.3699046], [8.5410239, 47.3699066], [8.5410247, 47.36991], [8.5410249, 47.369911], [8.5410255, 47.3699189], [8.5410263, 47.3699263], [8.5410271, 47.3699298], [8.5410326, 47.3699721], [8.5410415, 47.3699891], [8.5410605, 47.3700279], [8.5410787, 47.3700602], [8.5410961, 47.3700905], [8.5411156, 47.370123], [8.5411319, 47.3701532], [8.5411449, 47.3701767], [8.5411554, 47.3701949], [8.5411647, 47.3702091], [8.5411692, 47.3702156], [8.5411682, 47.3702192], [8.5411818, 47.3702402], [8.5411917, 47.3702556], [8.5412046, 47.3702596], [8.5412222, 47.3702851], [8.5412222, 47.3702898], [8.5412226, 47.3703184], [8.5412228, 47.3703314], [8.5412238, 47.3703405], [8.5412254, 47.3703499], [8.5412284, 47.3703617], [8.5412349, 47.370365], [8.5412375, 47.3703892], [8.5412393, 47.370404], [8.5412407, 47.3704154], [8.5412364, 47.3704208], [8.5412126, 47.3704296], [8.5412085, 47.3704312], [8.5412063, 47.3704342], [8.5412059, 47.3704366]]}, "properties": {"layer": "LKZ1319-MLU1", "function": "spring"}}, {"type": "Feature", "geometry": {"type": "LineString", "coordinates": [[8.5410316, 47.3699095], [8.5410317, 47.36991], [8.5410325, 47.3699185], [8.5410331, 47.3699251]]}, "properties": {"layer": "LKZ1314-MLU1", "function": "distribution"}}, {"type": "Feature", "geometry": {"type": "LineString", "coordinates": [[8.5410331, 47.3699251], [8.541034, 47.3699285], [8.5410339, 47.3699345], [8.5410342, 47.3699569], [8.5410397, 47.369966]]}, "properties": {"layer": "LKZ1314-MLU1", "function": "distribution"}}, {"type": "Feature", "geometry": {"type": "LineString", "coordinates": [[8.5410163, 47.3699026], [8.5409541, 47.3699104], [8.5409234, 47.3699207], [8.5408868, 47.3699336], [8.5408692, 47.3699384], [8.5408481, 47.3699457], [8.5408401, 47.3699485], [8.5407698, 47.3699696], [8.5406972, 47.3699917], [8.5406238, 47.3700131], [8.5406057, 47.3700181]]}, "properties": {"layer": "LKZ1319-MLU1", "function": "spring"}}, {"type": "Feature", "geometry": {"type": "LineString", "coordinates": [[8.541735, 47.3698435], [8.5417367, 47.3698528], [8.5417318, 47.3698573], [8.5417227, 47.369858], [8.5415638, 47.3698698], [8.5415348, 47.3698718], [8.5414524, 47.3698778], [8.5413372, 47.3698855], [8.5411404, 47.369896], [8.5410269, 47.3699022], [8.5410235, 47.3699023], [8.5410202, 47.3699025], [8.5410163, 47.3699026]]}, "properties": {"layer": "LKZ1319-MLU1", "function": "spring"}}, {"type": "Feature", "geometry": {"type": "LineString", "coordinates": [[8.5417268, 47.3698413], [8.5417272, 47.3698543], [8.5417227, 47.369858], [8.5417149, 47.3698645], [8.5415543, 47.3698743], [8.5415352, 47.3698751], [8.5414538, 47.3698811], [8.5412949, 47.3698915], [8.5411371, 47.3699025], [8.5410579, 47.3699076], [8.5410371, 47.3699091], [8.5410338, 47.3699094]]}, "properties": {"layer": "LKZ1314-MLU1", "function": "distribution"}}, {"type": "Feature", "geometry": {"type": "LineString", "coordinates": [[8.5417647, 47.3691082], [8.541763, 47.3691102], [8.5417613, 47.3691121], [8.5417362, 47.3691414], [8.5417321, 47.3691458], [8.5417287, 47.3691494], [8.5416719, 47.3692097], [8.5416777, 47.3692641], [8.5416833, 47.3693168], [8.541694, 47.3694238], [8.5416952, 47.3694351], [8.5417064, 47.3694636], [8.5417127, 47.3695178], [8.54172, 47.369584], [8.5417208, 47.3695913], [8.5417092, 47.3696009], [8.5417204, 47.3697075], [8.5417242, 47.3697616], [8.5417262, 47.3698186], [8.5417268, 47.3698394], [8.5417268, 47.3698413]]}, "properties": {"layer": "LKZ1314-MLU1", "function": "distribution"}}, {"type": "Feature", "geometry": {"type": "LineString", "coordinates": [[8.5398705, 47.3693607], [8.5398701, 47.3693625]]}, "properties": {"layer": "LKZ1315-MLU1", "function": "connection"}}, {"type": "Feature", "geometry": {"type": "LineString", "coordinates": [[8.5398314, 47.3693464], [8.5398342, 47.3693469], [8.5398415, 47.3693481], [8.539856, 47.3693591], [8.5398655, 47.3693602], [8.5398686, 47.3693605]]}, "properties": {"layer": "LKZ1315-MLU1", "function": "connection"}}, {"type": "Feature", "geometry": {"type": "LineString", "coordinates": [[8.5398686, 47.3693605], [8.5398705, 47.3693607], [8.5398863, 47.3693629], [8.539894, 47.3693639]]}, "properties": {"layer": "LKZ1315-MLU1", "function": "connection"}}, {"type": "Feature", "geometry": {"type": "LineString", "coordinates": [[8.5399175, 47.369367], [8.539894, 47.3693639]]}, "properties": {"layer": "LKZ1315-MLU1", "function": "connection"}}, {"type": "Feature", "geometry": {"type": "LineString", "coordinates": [[8.5384106, 47.369041], [8.538397, 47.3690317], [8.5383904, 47.3690362]]}, "properties": {"layer": "LKZ1315-MLU1", "function": "connection"}}, {"type": "Feature", "geometry": {"type": "LineString", "coordinates": [[8.5383745, 47.369047], [8.5383068, 47.3690928], [8.5382856, 47.3690924], [8.5382826, 47.3690945]]}, "properties": {"layer": "LKZ1315-MLU1", "function": "connection"}}, {"type": "Feature", "geometry": {"type": "LineString", "coordinates": [[8.5401414, 47.3691897], [8.540148, 47.3691987]]}, "properties": {"layer": "LKZ1315-MLU1", "function": "connection"}}, {"type": "Feature", "geometry": {"type": "LineString", "coordinates": [[8.539891, 47.369192], [8.539893, 47.3691923], [8.5399103, 47.3691948], [8.5399433, 47.369202], [8.5399852, 47.3692105], [8.5400092, 47.3692146], [8.5400367, 47.369219], [8.5400547, 47.3692218], [8.5401398, 47.3691874], [8.5401414, 47.3691897]]}, "properties": {"layer": "LKZ1315-MLU1", "function": "connection"}}, {"type": "Feature", "geometry": {"type": "LineString", "coordinates": [[8.5416994, 47.3703178], [8.5416996, 47.3703167], [8.5417024, 47.3702972]]}, "properties": {"layer": "LKZ1315-MLU1", "function": "connection"}}, {"type": "Feature", "geometry": {"type": "LineString", "coordinates": [[8.5400816, 47.3696003], [8.5400943, 47.3695487], [8.5401284, 47.3694107]]}, "properties": {"layer": "LKZ1314-MLU1", "function": "distribution"}}, {"type": "Feature", "geometry": {"type": "LineString", "coordinates": [[8.5400943, 47.3695487], [8.5400812, 47.3695471]]}, "properties": {"layer": "LKZ1315-MLU1", "function": "connection"}}, {"type": "Feature", "geometry": {"type": "LineString", "coordinates": [[8.5396109, 47.370085], [8.5396077, 47.3700876], [8.5394195, 47.3701969], [8.5394162, 47.3701988], [8.5394151, 47.3702008], [8.5394138, 47.370203]]}, "properties": {"layer": "LKZ1314-MLU1", "function": "distribution"}}, {"type": "Feature", "geometry": {"type": "LineString", "coordinates": [[8.5396824, 47.3700665], [8.5396827, 47.3700661], [8.5396841, 47.3700644], [8.5396852, 47.3700629], [8.5396862, 47.3700617], [8.5396877, 47.3700584], [8.5396947, 47.3700478], [8.5397159, 47.3700216]]}, "properties": {"layer": "LKZ1315-MLU1", "function": "connection"}}, {"type": "Feature", "geometry": {"type": "LineString", "coordinates": [[8.540056, 47.3704845], [8.5400514, 47.3704824], [8.5400307, 47.3704721], [8.5397933, 47.3703614], [8.5397807, 47.3703558], [8.5395367, 47.3702483], [8.539516, 47.3702514], [8.5394957, 47.3702427], [8.5394465, 47.3702218]]}, "properties": {"layer": "LKZ1314-MLU1", "function": "distribution"}}, {"type": "Feature", "geometry": {"type": "LineString", "coordinates": [[8.5394465, 47.3702218], [8.5394384, 47.3702184], [8.5394266, 47.3702069], [8.5394138, 47.370203]]}, "properties": {"layer": "LKZ1314-MLU1", "function": "distribution"}}, {"type": "Feature", "geometry": {"type": "LineString", "coordinates": [[8.5400415, 47.3702367], [8.5400336, 47.3702379], [8.5400104, 47.3702284], [8.5400076, 47.3702189], [8.5400019, 47.3702167], [8.539997, 47.3702142], [8.539943, 47.3701895], [8.5398958, 47.3701674], [8.5397312, 47.3700908], [8.5397174, 47.3700719], [8.5397069, 47.3700676], [8.5396824, 47.3700665], [8.5396525, 47.3700649], [8.5396464, 47.3700644], [8.5396301, 47.3700669], [8.5396109, 47.370085]]}, "properties": {"layer": "LKZ1314-MLU1", "function": "distribution"}}, {"type": "Feature", "geometry": {"type": "LineString", "coordinates": [[8.5381923, 47.369698], [8.5381937, 47.3697056], [8.5377822, 47.3700046], [8.5377591, 47.3700232]]}, "properties": {"layer": "LKZ1314-MLU1", "function": "distribution"}}, {"type": "Feature", "geometry": {"type": "LineString", "coordinates": [[8.5377557, 47.3700255], [8.5377531, 47.3700236], [8.5377466, 47.3700204], [8.5377447, 47.3700195]]}, "properties": {"layer": "LKZ1317-MLU1", "function": "hydrant_connection"}}, {"type": "Feature", "geometry": {"type": "LineString", "coordinates": [[8.5377323, 47.3700441], [8.5377301, 47.3700459], [8.5377117, 47.370061]]}, "properties": {"layer": "LKZ1314-MLU1", "function": "distribution"}}, {"type": "Feature", "geometry": {"type": "LineString", "coordinates": [[8.5377591, 47.3700232], [8.5377557, 47.3700255], [8.5377519, 47.3700283], [8.5377387, 47.3700387], [8.5377365, 47.3700406]]}, "properties": {"layer": "LKZ1314-MLU1", "function": "distribution"}}, {"type": "Feature", "geometry": {"type": "LineString", "coordinates": [[8.5377365, 47.3700406], [8.5377344, 47.3700423], [8.5377323, 47.3700441]]}, "properties": {"layer": "LKZ1314-MLU1", "function": "distribution"}}, {"type": "Feature", "geometry": {"type": "LineString", "coordinates": [[8.5377297, 47.3700397], [8.5377074, 47.3700274], [8.5376902, 47.370018], [8.5376739, 47.3700086], [8.5376715, 47.3700071]]}, "properties": {"layer": "LKZ1315-MLU1", "function": "connection"}}, {"type": "Feature", "geometry": {"type": "LineString", "coordinates": [[8.5377344, 47.3700423], [8.5377318, 47.3700409], [8.5377297, 47.3700397]]}, "properties": {"layer": "LKZ1315-MLU1", "function": "connection"}}, {"type": "Feature", "geometry": {"type": "LineString", "coordinates": [[8.5376715, 47.3700071], [8.5376675, 47.3700045]]}, "properties": {"layer": "LKZ1315-MLU1", "function": "connection"}}, {"type": "Feature", "geometry": {"type": "LineString", "coordinates": [[8.5383272, 47.3697192], [8.5383287, 47.3697172]]}, "properties": {"layer": "LKZ1314-MLU1", "function": "distribution"}}, {"type": "Feature", "geometry": {"type": "LineString", "coordinates": [[8.5377117, 47.370061], [8.5377016, 47.3700695], [8.5376983, 47.3700722], [8.5376965, 47.3700737], [8.5376943, 47.3700755]]}, "properties": {"layer": "LKZ1314-MLU1", "function": "distribution"}}, {"type": "Feature", "geometry": {"type": "LineString", "coordinates": [[8.5376943, 47.3700755], [8.5376968, 47.370077], [8.5376988, 47.3700783], [8.5377447, 47.3701045], [8.53775, 47.3701198]]}, "properties": {"layer": "LKZ1314-MLU1", "function": "distribution"}}, {"type": "Feature", "geometry": {"type": "LineString", "coordinates": [[8.5369139, 47.3696859], [8.5369163, 47.3696874], [8.5369192, 47.3696892], [8.5369244, 47.3696909], [8.5370051, 47.3697224], [8.5370272, 47.369732], [8.5370357, 47.3697374], [8.5370834, 47.3697671], [8.5370873, 47.3697695], [8.5371492, 47.3698022], [8.5372118, 47.3698361], [8.5372738, 47.3698699], [8.537335, 47.3699037], [8.5373979, 47.3699377], [8.5374615, 47.3699716], [8.5374627, 47.3699722], [8.5374763, 47.3699774], [8.5374832, 47.3699814], [8.537539, 47.370013], [8.5375941, 47.3700444], [8.5376081, 47.3700504], [8.5376697, 47.3700702], [8.5376855, 47.3700709], [8.5376894, 47.3700729], [8.5376917, 47.3700741], [8.5376943, 47.3700755]]}, "properties": {"layer": "LKZ1314-MLU1", "function": "distribution"}}, {"type": "Feature", "geometry": {"type": "LineString", "coordinates": [[8.5401747, 47.3697087], [8.5401739, 47.3697103], [8.5401563, 47.369772]]}, "properties": {"layer": "LKZ1315-MLU1", "function": "connection"}}, {"type": "Feature", "geometry": {"type": "LineString", "coordinates": [[8.5397317, 47.3696414], [8.5397713, 47.3696471], [8.5398504, 47.3696563], [8.5399343, 47.3696617], [8.5399588, 47.3696719], [8.5400036, 47.3696775], [8.5400319, 47.3696813], [8.5400813, 47.369688], [8.5401491, 47.3696972], [8.5401597, 47.3696986], [8.5401789, 47.3697012], [8.5403135, 47.3697188], [8.5403915, 47.3697282]]}, "properties": {"layer": "LKZ1314-MLU1", "function": "distribution"}}, {"type": "Feature", "geometry": {"type": "LineString", "coordinates": [[8.5404414, 47.3697356], [8.5404688, 47.3697388]]}, "properties": {"layer": "LKZ1314-MLU1", "function": "distribution"}}, {"type": "Feature", "geometry": {"type": "LineString", "coordinates": [[8.5395035, 47.369605], [8.5395084, 47.3696056], [8.5395133, 47.3696063], [8.5395163, 47.3696067], [8.539582, 47.3696168], [8.5396571, 47.3696286], [8.5397233, 47.3696399], [8.5397317, 47.3696414]]}, "properties": {"layer": "LKZ1314-MLU1", "function": "distribution"}}, {"type": "Feature", "geometry": {"type": "LineString", "coordinates": [[8.5395084, 47.3696056], [8.5395099, 47.3695997], [8.5395155, 47.3695801], [8.5395218, 47.3695573], [8.5395222, 47.3695516], [8.5395254, 47.3695398], [8.5395266, 47.3695353], [8.5395272, 47.3695332]]}, "properties": {"layer": "LKZ1317-MLU1", "function": "hydrant_connection"}}, {"type": "Feature", "geometry": {"type": "LineString", "coordinates": [[8.5403208, 47.3692802], [8.5403247, 47.3692807], [8.5403311, 47.3692815]]}, "properties": {"layer": "LKZ1315-MLU1", "function": "connection"}}, {"type": "Feature", "geometry": {"type": "LineString", "coordinates": [[8.5403311, 47.3692815], [8.5403337, 47.369284], [8.5403431, 47.3692851], [8.5403462, 47.3692855]]}, "properties": {"layer": "LKZ1315-MLU1", "function": "connection"}}, {"type": "Feature", "geometry": {"type": "LineString", "coordinates": [[8.5397233, 47.3696399], [8.5397223, 47.3696427], [8.5397189, 47.3696546], [8.5397097, 47.3697006], [8.5397067, 47.369711], [8.5397062, 47.3697136], [8.5397054, 47.3697165]]}, "properties": {"layer": "LKZ1315-MLU1", "function": "connection"}}, {"type": "Feature", "geometry": {"type": "LineString", "coordinates": [[8.5401789, 47.3697012], [8.540178, 47.3697038], [8.5401775, 47.3697052], [8.5401754, 47.3697073], [8.540175, 47.3697082]]}, "properties": {"layer": "LKZ1315-MLU1", "function": "connection"}}, {"type": "Feature", "geometry": {"type": "LineString", "coordinates": [[8.540175, 47.3697082], [8.5401747, 47.3697087]]}, "properties": {"layer": "LKZ1315-MLU1", "function": "connection"}}, {"type": "Feature", "geometry": {"type": "LineString", "coordinates": [[8.5400319, 47.3696813], [8.5400327, 47.3696783], [8.5400332, 47.3696762], [8.5400337, 47.3696749], [8.5400466, 47.3696291], [8.5400484, 47.3696231], [8.5400775, 47.3696112], [8.5400791, 47.369607], [8.5400816, 47.3696003]]}, "properties": {"layer": "LKZ1314-MLU1", "function": "distribution"}}, {"type": "Feature", "geometry": {"type": "LineString", "coordinates": [[8.5401491, 47.3696972], [8.5401485, 47.3696997], [8.5401477, 47.3697032], [8.5401458, 47.3697113], [8.5401469, 47.3697216], [8.5401298, 47.3697687]]}, "properties": {"layer": "LKZ1315-MLU1", "function": "connection"}}, {"type": "Feature", "geometry": {"type": "LineString", "coordinates": [[8.5403915, 47.3697282], [8.5403947, 47.3697286], [8.5404097, 47.3697305], [8.5404126, 47.3697309], [8.5404156, 47.3697315], [8.5404414, 47.3697356]]}, "properties": {"layer": "LKZ1314-MLU1", "function": "distribution"}}, {"type": "Feature", "geometry": {"type": "LineString", "coordinates": [[8.5407123, 47.3691559], [8.5407105, 47.3691587], [8.5405801, 47.3696044], [8.5405725, 47.3696518]]}, "properties": {"layer": "LKZ1314-MLU1", "function": "distribution"}}, {"type": "Feature", "geometry": {"type": "LineString", "coordinates": [[8.5405699, 47.3696668], [8.5405706, 47.3696624], [8.5405712, 47.3696587]]}, "properties": {"layer": "LKZ1314-MLU1", "function": "distribution"}}, {"type": "Feature", "geometry": {"type": "LineString", "coordinates": [[8.5405725, 47.3696518], [8.5405719, 47.3696551], [8.5405712, 47.3696587]]}, "properties": {"layer": "LKZ1314-MLU1", "function": "distribution"}}, {"type": "Feature", "geometry": {"type": "LineString", "coordinates": [[8.5405719, 47.3696551], [8.540558, 47.3696542], [8.5405401, 47.3696532], [8.5405132, 47.3696668], [8.5404905, 47.3696778], [8.5404886, 47.3696787]]}, "properties": {"layer": "LKZ1317-MLU1", "function": "hydrant_connection"}}, {"type": "Feature", "geometry": {"type": "LineString", "coordinates": [[8.5410855, 47.3693992], [8.5410856, 47.3694001]]}, "properties": {"layer": "LKZ1319-MLU1", "function": "spring"}}, {"type": "Feature", "geometry": {"type": "LineString", "coordinates": [[8.5405174, 47.3690036], [8.5405353, 47.3689476]]}, "properties": {"layer": "LKZ1315-MLU1", "function": "connection"}}, {"type": "Feature", "geometry": {"type": "LineString", "coordinates": [[8.5402672, 47.3694129], [8.5401828, 47.3694016]]}, "properties": {"layer": "LKZ1315-MLU1", "function": "connection"}}, {"type": "Feature", "geometry": {"type": "LineString", "coordinates": [[8.5403042, 47.3693537], [8.5402891, 47.369411]]}, "properties": {"layer": "LKZ1315-MLU1", "function": "connection"}}, {"type": "Feature", "geometry": {"type": "LineString", "coordinates": [[8.5403179, 47.369293], [8.5403087, 47.3693342]]}, "properties": {"layer": "LKZ1315-MLU1", "function": "connection"}}, {"type": "Feature", "geometry": {"type": "LineString", "coordinates": [[8.5403455, 47.3691993], [8.5403233, 47.3692721]]}, "properties": {"layer": "LKZ1315-MLU1", "function": "connection"}}, {"type": "Feature", "geometry": {"type": "LineString", "coordinates": [[8.540148, 47.3691987], [8.5401977, 47.3692666]]}, "properties": {"layer": "LKZ1315-MLU1", "function": "connection"}}, {"type": "Feature", "geometry": {"type": "LineString", "coordinates": [[8.5403542, 47.369193], [8.5404117, 47.3692009]]}, "properties": {"layer": "LKZ1315-MLU1", "function": "connection"}}, {"type": "Feature", "geometry": {"type": "LineString", "coordinates": [[8.5407987, 47.3696581], [8.5408108, 47.3696572]]}, "properties": {"layer": "LKZ1315-MLU1", "function": "connection"}}, {"type": "Feature", "geometry": {"type": "LineString", "coordinates": [[8.5400988, 47.3693754], [8.5401058, 47.369348]]}, "properties": {"layer": "LKZ1314-MLU1", "function": "distribution"}}, {"type": "Feature", "geometry": {"type": "LineString", "coordinates": [[8.5401174, 47.3693347], [8.5401542, 47.3693101], [8.5401893, 47.3692865]]}, "properties": {"layer": "LKZ1314-MLU1", "function": "distribution"}}, {"type": "Feature", "geometry": {"type": "LineString", "coordinates": [[8.5409216, 47.3702256], [8.5408892, 47.3702677]]}, "properties": {"layer": "LKZ1315-MLU1", "function": "connection"}}, {"type": "Feature", "geometry": {"type": "LineString", "coordinates": [[8.5402683, 47.3700832], [8.5402948, 47.3700941]]}, "properties": {"layer": "LKZ1315-MLU1", "function": "connection"}}, {"type": "Feature", "geometry": {"type": "LineString", "coordinates": [[8.5404251, 47.3700125], [8.5404624, 47.3700527]]}, "properties": {"layer": "LKZ1315-MLU1", "function": "connection"}}, {"type": "Feature", "geometry": {"type": "LineString", "coordinates": [[8.5383904, 47.3690362], [8.5383745, 47.369047]]}, "properties": {"layer": "LKZ1315-MLU1", "function": "connection"}}, {"type": "Feature", "geometry": {"type": "LineString", "coordinates": [[8.5410926, 47.3692212], [8.5410926, 47.3692213], [8.5410913, 47.3692277], [8.5410908, 47.3692329], [8.5410908, 47.3692368], [8.5410925, 47.3692422], [8.5410944, 47.3692456], [8.5410966, 47.3692509], [8.5410983, 47.3692551], [8.5411005, 47.3692598], [8.5411021, 47.3692642], [8.5411036, 47.3692686], [8.5411047, 47.3692724], [8.5411061, 47.3692777], [8.5411071, 47.3692816], [8.5411078, 47.3692874], [8.5411082, 47.369292], [8.5411083, 47.3692976], [8.5411084, 47.3693014], [8.5411076, 47.3693068], [8.5411065, 47.3693113], [8.5411053, 47.3693161], [8.5411039, 47.3693201], [8.5411024, 47.3693246], [8.541101, 47.3693295], [8.5410891, 47.3693598], [8.5410874, 47.369365], [8.5410865, 47.3693687], [8.5410854, 47.3693737], [8.5410846, 47.3693777], [8.5410844, 47.3693825], [8.5410848, 47.369387], [8.5410855, 47.3693992]]}, "properties": {"layer": "LKZ1319-MLU1", "function": "spring"}}, {"type": "Feature", "geometry": {"type": "LineString", "coordinates": [[8.5370556, 47.3706375], [8.5370576, 47.3706357], [8.5370622, 47.3706319], [8.5370647, 47.3706298], [8.5370646, 47.3706224], [8.5370745, 47.3706151], [8.5370866, 47.3706143], [8.5372694, 47.3704789], [8.5372716, 47.3704773], [8.5372739, 47.3704756], [8.537279, 47.3704718], [8.5376055, 47.3702287], [8.5376119, 47.3702239], [8.5376151, 47.3702208], [8.5376366, 47.370201], [8.5376367, 47.3702009]]}, "properties": {"layer": "LKZ1314-MLU1", "function": "distribution"}}, {"type": "Feature", "geometry": {"type": "LineString", "coordinates": [[8.5377305, 47.3701237], [8.5377306, 47.3701236], [8.5377339, 47.3701208], [8.53775, 47.3701198]]}, "properties": {"layer": "LKZ1314-MLU1", "function": "distribution"}}, {"type": "Feature", "geometry": {"type": "LineString", "coordinates": [[8.5405932, 47.3700044], [8.5405681, 47.3699652]]}, "properties": {"layer": "LKZ1315-MLU1", "function": "connection"}}, {"type": "Feature", "geometry": {"type": "LineString", "coordinates": [[8.5376367, 47.3702009], [8.5376836, 47.3701623], [8.5377305, 47.3701237]]}, "properties": {"layer": "LKZ1314-MLU1", "function": "distribution"}}, {"type": "Feature", "geometry": {"type": "LineString", "coordinates": [[8.5400345, 47.3693822], [8.5399175, 47.369367]]}, "properties": {"layer": "LKZ1315-MLU1", "function": "connection"}}, {"type": "Feature", "geometry": {"type": "LineString", "coordinates": [[8.54008, 47.3693882], [8.5400631, 47.369386]]}, "properties": {"layer": "LKZ1315-MLU1", "function": "connection"}}, {"type": "Feature", "geometry": {"type": "LineString", "coordinates": [[8.5400631, 47.369386], [8.5400605, 47.3693856], [8.5400617, 47.3693812], [8.5400383, 47.3693782], [8.5400371, 47.3693826], [8.5400345, 47.3693822]]}, "properties": {"layer": "LKZ1315-MLU1", "function": "connection"}}, {"type": "Feature", "geometry": {"type": "LineString", "coordinates": [[8.5395254, 47.3695398], [8.5395287, 47.3695403], [8.5395318, 47.3695408], [8.5396733, 47.3695565], [8.5396755, 47.3695487]]}, "properties": {"layer": "LKZ1315-MLU1", "function": "connection"}}, {"type": "Feature", "geometry": {"type": "LineString", "coordinates": [[8.5398701, 47.3693625], [8.5398696, 47.3693641], [8.5398693, 47.3693651]]}, "properties": {"layer": "LKZ1315-MLU1", "function": "connection"}}, {"type": "Feature", "geometry": {"type": "LineString", "coordinates": [[8.5412235, 47.3703184], [8.5412545, 47.3703184], [8.5412701, 47.3703138], [8.5412899, 47.3703145], [8.5413808, 47.370317], [8.541437, 47.370318], [8.5414686, 47.3703185], [8.5414806, 47.3703229], [8.5415105, 47.3703232], [8.5415341, 47.3703156], [8.5416023, 47.370317], [8.5416605, 47.3703187], [8.5416992, 47.3703192], [8.5417433, 47.3703207], [8.5417974, 47.3703222]]}, "properties": {"layer": "LKZ1314-MLU1", "function": "distribution"}}, {"type": "Feature", "geometry": {"type": "LineString", "coordinates": [[8.5417974, 47.3703222], [8.541825, 47.3703229]]}, "properties": {"layer": "LKZ1315-MLU1", "function": "connection"}}, {"type": "Feature", "geometry": {"type": "LineString", "coordinates": [[8.5388489, 47.3698681], [8.5388503, 47.3698659], [8.5388858, 47.3698036]]}, "properties": {"layer": "LKZ1314-MLU1", "function": "distribution"}}, {"type": "Feature", "geometry": {"type": "LineString", "coordinates": [[8.5388858, 47.3698036], [8.5388877, 47.3698005]]}, "properties": {"layer": "LKZ1315-MLU1", "function": "connection"}}, {"type": "Feature", "geometry": {"type": "LineString", "coordinates": [[8.5401341, 47.3693992], [8.5401352, 47.3693953]]}, "properties": {"layer": "LKZ1314-MLU1", "function": "distribution"}}, {"type": "Feature", "geometry": {"type": "LineString", "coordinates": [[8.5401284, 47.3694107], [8.54013, 47.3694055], [8.5401327, 47.3694043], [8.5401341, 47.3693992]]}, "properties": {"layer": "LKZ1314-MLU1", "function": "distribution"}}, {"type": "Feature", "geometry": {"type": "LineString", "coordinates": [[8.5414128, 47.3702581], [8.5414246, 47.3702539], [8.5413433, 47.3702514], [8.5413551, 47.3702473]]}, "properties": {"layer": "LKZ1315-MLU1", "function": "connection"}}, {"type": "Feature", "geometry": {"type": "LineString", "coordinates": [[8.5374083, 47.3691873], [8.5374209, 47.3691901], [8.5372353, 47.3690486], [8.5372479, 47.3690514]]}, "properties": {"layer": "LKZ1315-MLU1", "function": "connection"}}, {"type": "Feature", "geometry": {"type": "LineString", "coordinates": [[8.5385463, 47.3688568], [8.5385595, 47.3688571], [8.538464, 47.3688172], [8.5384772, 47.3688174]]}, "properties": {"layer": "LKZ1315-MLU1", "function": "connection"}}, {"type": "Feature", "geometry": {"type": "LineString", "coordinates": [[8.538733, 47.3688361], [8.5387462, 47.3688364], [8.5385241, 47.3687425], [8.5385373, 47.3687428]]}, "properties": {"layer": "LKZ1315-MLU1", "function": "connection"}}]}