{"type":"FeatureCollection","features":[{"type":"Feature","geometry":{"type":"LineString","coordinates":[[8.547666096170616,47.364701149593735],[8.547614029976204,47.36465044900434]]},"properties":{"layer":"LKZ141EUMLU0","infraType":"fernwaerme","geomType":"pipe","source":"order_55297/SIA405_LKMap_2015_LV95.dxf","_dedupKey":"2683769.7,1246570.1|2683773.6,1246575.8"}},{"type":"Feature","geometry":{"type":"LineString","coordinates":[[8.547652393222013,47.364664230032886],[8.547630682839847,47.36467452211019]]},"properties":{"layer":"LKZ141EUMLU0","infraType":"fernwaerme","geomType":"pipe","source":"order_55297/SIA405_LKMap_2015_LV95.dxf","_dedupKey":"2683771,1246572.8|2683772.6,1246571.7"}},{"type":"Feature","geometry":{"type":"LineString","coordinates":[[8.547614029976204,47.36465044900434],[8.547607030212601,47.36464363490635],[8.547871177217708,47.36430038764654]]},"properties":{"layer":"LKZ141EUMLU0","infraType":"fernwaerme","geomType":"pipe","source":"order_55297/SIA405_LKMap_2015_LV95.dxf","_dedupKey":"2683769.7,1246570.1|2683789.7,1246531.5"}},{"type":"Feature","geometry":{"type":"LineString","coordinates":[[8.547614029976204,47.36465044900434],[8.547603174691732,47.36465559054318]]},"properties":{"layer":"LKZ141EUMLU0","infraType":"fernwaerme","geomType":"pipe","source":"order_55297/SIA405_LKMap_2015_LV95.dxf","_dedupKey":"2683768.9,1246570.7|2683769.7,1246570.1"}},{"type":"Feature","geometry":{"type":"LineString","coordinates":[[8.547555258618509,47.364760484689114],[8.547566100130961,47.364755316301846]]},"properties":{"layer":"LKZ141EUMLU0","infraType":"fernwaerme","geomType":"pipe","source":"order_55297/SIA405_LKMap_2015_LV95.dxf","_dedupKey":"2683765.1,1246582.3|2683766,1246581.7"}},{"type":"Feature","geometry":{"type":"LineString","coordinates":[[8.547652393222013,47.364664230032886],[8.547622407562642,47.36463503177486],[8.547878186869294,47.36430258710575]]},"properties":{"layer":"LKZ141EUMLU0","infraType":"fernwaerme","geomType":"pipe","source":"order_55297/SIA405_LKMap_2015_LV95.dxf","_dedupKey":"2683772.6,1246571.7|2683790.2,1246531.7"}},{"type":"Feature","geometry":{"type":"LineString","coordinates":[[8.54755450183086,47.364759745355805],[8.547551198146062,47.364761315253595],[8.547550110154548,47.36476183842572],[8.547538852593963,47.364749551161395],[8.547539272766363,47.36474620091985],[8.5474287369064,47.36464054339894],[8.547365456488617,47.364578985240676],[8.547365222298923,47.36457854672516],[8.547360952570648,47.36454194135076],[8.547354499573526,47.36453658820292],[8.54731904482175,47.3645251448874],[8.547294209360007,47.36448893483351],[8.547281343769592,47.36440313637373],[8.547445842424342,47.3641745996979],[8.547447681769736,47.36417200941607],[8.547450357180894,47.364168241733374],[8.547455166542507,47.36416522714764],[8.547464260463713,47.36416197353032],[8.547467004620527,47.364160238098265],[8.547467791854508,47.36415925906008]]},"properties":{"layer":"LKZ141EUMLU1","infraType":"fernwaerme","geomType":"pipe","source":"order_55297/SIA405_LKMap_2015_LV95.dxf","_dedupKey":"2683759.5,1246515.4|2683765.1,1246582.2"}},{"type":"Feature","geometry":{"type":"LineString","coordinates":[[8.547535759912137,47.36474789875814],[8.54754972656464,47.36476312841969],[8.547551954933688,47.36476205458689],[8.547555258618509,47.364760484689114]]},"properties":{"layer":"LKZ141EUMLU1","infraType":"fernwaerme","geomType":"pipe","source":"order_55297/SIA405_LKMap_2015_LV95.dxf","_dedupKey":"2683763.7,1246580.9|2683765.1,1246582.3"}},{"type":"Feature","geometry":{"type":"LineString","coordinates":[[8.547443776120726,47.364170733618316],[8.547434452636116,47.364183956099325],[8.547407152879167,47.3642227715509],[8.547364667497844,47.36428195395245],[8.547319258233097,47.36434442066139],[8.547276922852818,47.36440254915046],[8.547280344007973,47.36443273112069],[8.547282824998181,47.36444889862925],[8.547290002926058,47.36448974879989],[8.547315741747965,47.36452738041609],[8.547351755436406,47.36453896228959],[8.547356713530654,47.36454309744933],[8.547361064921102,47.364579809982075],[8.547419793450988,47.36463703119194],[8.547478732541922,47.36469354872633],[8.547500557914237,47.36471424397031],[8.547535759912137,47.36474789875814]]},"properties":{"layer":"LKZ141EUMLU1","infraType":"fernwaerme","geomType":"pipe","source":"order_55297/SIA405_LKMap_2015_LV95.dxf","_dedupKey":"2683757.6,1246516.6|2683763.7,1246580.9"}},{"type":"Feature","geometry":{"type":"LineString","coordinates":[[8.547682378914248,47.36469342828289],[8.547652393222013,47.364664230032886]]},"properties":{"layer":"LKZ141EUMLU0","infraType":"fernwaerme","geomType":"pipe","source":"order_55297/SIA405_LKMap_2015_LV95.dxf","_dedupKey":"2683772.6,1246571.7|2683774.8,1246575"}},{"type":"Feature","geometry":{"type":"LineString","coordinates":[[8.539442471978186,47.36773209425474],[8.539443156438264,47.36773638741713],[8.539446760701559,47.36774422382852],[8.539449134050757,47.367747592382685],[8.539454706990526,47.36775074154236],[8.539472225547488,47.36775467635975],[8.539492032534273,47.36775850840577],[8.53950301520439,47.367758826495546],[8.539516297919102,47.3677583220916],[8.539522437497865,47.367758776294366],[8.539531675526264,47.36776244821515],[8.539538792235165,47.367767903406786],[8.539545333769146,47.367775639855836],[8.539557853419252,47.367779217527875],[8.5395962419042,47.36778716312406],[8.539621407292838,47.367791447798034],[8.539637758975559,47.36779465611087],[8.539668224775877,47.36780171472663],[8.539724214502463,47.3678182357798],[8.53974463747022,47.36782304238267],[8.539746348276037,47.36782317898996],[8.539748298892816,47.36782274661587],[8.539751435552997,47.36782140341831],[8.539754404211294,47.36782025971583],[8.53975759748849,47.36781973453783]]},"properties":{"layer":"LKZ141EUMLU1","infraType":"fernwaerme","geomType":"pipe","source":"order_55300/SIA405_LKMap_2015_LV95.dxf","_dedupKey":"2683147.7,1246904|2683171.4,1246914.1"}},{"type":"Feature","geometry":{"type":"LineString","coordinates":[[8.539470536716237,47.36746259264056],[8.539462757968959,47.367471239170406],[8.539461900853082,47.36747397287334],[8.539468813193668,47.36749069195746],[8.53946780038495,47.36749358006211],[8.539436251598687,47.367527036921246],[8.539432592318798,47.36752871791253],[8.539391418552363,47.36753463336465],[8.539388495185758,47.36753604648105],[8.539369951772782,47.367557496764015],[8.539362910210953,47.36756593836729],[8.539358702165892,47.36757053901782],[8.539356928364825,47.36757248088707]]},"properties":{"layer":"LKZ141EUMLU1","infraType":"fernwaerme","geomType":"pipe","source":"order_55300/SIA405_LKMap_2015_LV95.dxf","_dedupKey":"2683141.5,1246886.2|2683150.3,1246874.1"}},{"type":"Feature","geometry":{"type":"LineString","coordinates":[[8.539561112374615,47.367397207004096],[8.539575287027061,47.36740271185253],[8.539581146569779,47.367404994738756]]},"properties":{"layer":"LKZ141EUMLU1","infraType":"fernwaerme","geomType":"pipe","source":"order_55300/SIA405_LKMap_2015_LV95.dxf","_dedupKey":"2683157.2,1246866.9|2683158.7,1246867.8"}},{"type":"Feature","geometry":{"type":"LineString","coordinates":[[8.543115008687522,47.36721856143031],[8.543210241681244,47.3672177945935],[8.543310028666488,47.367222750022236],[8.543388949925745,47.36723092733275],[8.543463872182489,47.367242273162574],[8.543543965436514,47.3672584448548],[8.543621488241616,47.36727835608854],[8.543855043476395,47.3673396901715]]},"properties":{"layer":"LKZ141EUMLU-","infraType":"fernwaerme","geomType":"pipe","source":"order_55300/SIA405_LKMap_2015_LV95.dxf","_dedupKey":"2683425.9,1246850.8|2683481.6,1246865.1"}},{"type":"Feature","geometry":{"type":"LineString","coordinates":[[8.539493814224425,47.36778131214219],[8.539494980667834,47.3677807343291],[8.539498027454743,47.367779526922476],[8.539500991575862,47.36777688107821],[8.539504109283861,47.36777013197739]]},"properties":{"layer":"LKZ141EUMLU1","infraType":"fernwaerme","geomType":"pipe","source":"order_55300/SIA405_LKMap_2015_LV95.dxf","_dedupKey":"2683151.5,1246909.6|2683152.3,1246908.3"}},{"type":"Feature","geometry":{"type":"LineString","coordinates":[[8.539267881050181,47.36767023436281],[8.539288070376807,47.36764769798852],[8.539307290957176,47.367626978869566],[8.539322533204947,47.36761044442969],[8.53933324727921,47.36759839675101]]},"properties":{"layer":"LKZ141EUMLU1","infraType":"fernwaerme","geomType":"pipe","source":"order_55300/SIA405_LKMap_2015_LV95.dxf","_dedupKey":"2683134.6,1246897|2683139.7,1246889"}},{"type":"Feature","geometry":{"type":"LineString","coordinates":[[8.539394894102644,47.367536237359076],[8.539394311413858,47.36753687257371],[8.539390496094988,47.36754061494236],[8.53938100180465,47.3675476137121],[8.539369174181754,47.36755895239557],[8.539367421046885,47.367561253874385],[8.539346546220871,47.36758393172421],[8.539337466337884,47.367593688054654],[8.53933324727921,47.36759839675101]]},"properties":{"layer":"LKZ141EUMLU1","infraType":"fernwaerme","geomType":"pipe","source":"order_55300/SIA405_LKMap_2015_LV95.dxf","_dedupKey":"2683139.7,1246889|2683144.4,1246882.2"}},{"type":"Feature","geometry":{"type":"LineString","coordinates":[[8.541815209997093,47.36877532760174],[8.541813448960736,47.36875613076025],[8.541809218686684,47.36870974714372],[8.54180585024997,47.36866150229165],[8.541794524980853,47.36847380949978],[8.541784591221978,47.368341198769244],[8.541779092182939,47.368261653109464],[8.541769563653476,47.36814862096661],[8.541768233681196,47.36814513455155],[8.541762586372654,47.36814159942065],[8.541743686469056,47.368129150728485],[8.541703661808498,47.36810486826457],[8.541669450081555,47.36808316585366],[8.541595980191692,47.368080620243],[8.54153789223277,47.368078557362004],[8.54130580567812,47.368063925444076],[8.54124888864001,47.36805765949375],[8.54121117170084,47.368045075524876],[8.541158150497923,47.368034481646816],[8.541135345319613,47.36803293629049],[8.541128885048318,47.368031702655365],[8.541108780200934,47.36802564293181],[8.541085208862892,47.36802162221458],[8.54104922857823,47.368015543107994],[8.541011203942471,47.36800920465302],[8.5409511412625,47.36800000017769],[8.54087126593205,47.36798861902751],[8.540682572149821,47.36796008798901],[8.540525221775784,47.367938777570245],[8.540419669036904,47.367924600717366],[8.540211800949221,47.36789656665714],[8.540196634966154,47.367893715917845],[8.54017828461472,47.367889258428434],[8.540173193802046,47.36788829952403],[8.54011964493443,47.367875218545144],[8.540035891426854,47.36785490563158],[8.539915384183033,47.36783399862733],[8.539843107494619,47.367832789801085],[8.539751342340354,47.367818813701064],[8.539739563689555,47.36781649730289],[8.53970965170851,47.36781061179188],[8.539674528314267,47.367803696535375],[8.539626070805271,47.36779415586085],[8.539621818065052,47.36779338683664],[8.539536670437725,47.367777998210016],[8.539529254714942,47.36777665665615],[8.539516310434175,47.36777431536536],[8.539497013764938,47.3677817314034],[8.53947375017238,47.36779067844499],[8.539459535895146,47.36779672374574],[8.539439471697664,47.367805442392395],[8.539425971986002,47.36781916274402],[8.53941745686995,47.36783511136148],[8.539406065727862,47.3678637435775],[8.539405927913982,47.36786412268761]]},"properties":{"layer":"LKZ141EUMLU1","infraType":"fernwaerme","geomType":"pipe","source":"order_55300/SIA405_LKMap_2015_LV95.dxf","_dedupKey":"2683144.7,1246918.7|2683325.3,1247022.5"}},{"type":"Feature","geometry":{"type":"LineString","coordinates":[[8.539535860967508,47.36738682441961],[8.539540230531662,47.36738812304762],[8.53955373173992,47.367393715274396],[8.539561112374615,47.367397207004096]]},"properties":{"layer":"LKZ141EUMLU1","infraType":"fernwaerme","geomType":"pipe","source":"order_55300/SIA405_LKMap_2015_LV95.dxf","_dedupKey":"2683155.3,1246865.7|2683157.2,1246866.9"}},{"type":"Feature","geometry":{"type":"LineString","coordinates":[[8.539356928364825,47.36757248088707],[8.539349314985817,47.367580802006906],[8.539337466337884,47.367593688054654],[8.53933324727921,47.36759839675101]]},"properties":{"layer":"LKZ141EUMLU1","infraType":"fernwaerme","geomType":"pipe","source":"order_55300/SIA405_LKMap_2015_LV95.dxf","_dedupKey":"2683139.7,1246889|2683141.5,1246886.2"}},{"type":"Feature","geometry":{"type":"LineString","coordinates":[[8.539504109283861,47.36777013197739],[8.539511854035835,47.36777201910134],[8.539519813612193,47.367773409443345],[8.539537664606462,47.367777413043456],[8.539548232677651,47.3677794531563],[8.539551524324272,47.3677798445526]]},"properties":{"layer":"LKZ141EUMLU1","infraType":"fernwaerme","geomType":"pipe","source":"order_55300/SIA405_LKMap_2015_LV95.dxf","_dedupKey":"2683152.3,1246908.3|2683155.9,1246909.5"}},{"type":"Feature","geometry":{"type":"LineString","coordinates":[[8.540996623384535,47.36337987307565],[8.542868982846743,47.36623232704371],[8.542906126886606,47.366290800302544],[8.54294171903722,47.36635232875495],[8.542978525782186,47.366423272518425],[8.543009462052598,47.36649076428931],[8.54304409503817,47.366578837626534],[8.543069972442213,47.36665840429483],[8.543094023179679,47.36675204787169],[8.543112926220424,47.366856678793404],[8.54312289573656,47.366951248594184],[8.543125988355868,47.36701744143911],[8.543126168375833,47.367054247940786],[8.543122880713815,47.3671396794949],[8.543115008687522,47.36721856143031]]},"properties":{"layer":"LKZ141EUMLU-","infraType":"fernwaerme","geomType":"pipe","source":"order_55300/SIA405_LKMap_2015_LV95.dxf","_dedupKey":"2683271.9,1246421.8|2683425.9,1246850.8"}},{"type":"Feature","geometry":{"type":"LineString","coordinates":[[8.539410187071288,47.367518955825005],[8.539394894102644,47.367536237359076]]},"properties":{"layer":"LKZ141EUMLU0","infraType":"fernwaerme","geomType":"pipe","source":"order_55300/SIA405_LKMap_2015_LV95.dxf","_dedupKey":"2683144.4,1246882.2|2683145.6,1246880.3"}},{"type":"Feature","geometry":{"type":"LineString","coordinates":[[8.539410187071288,47.367518955825005],[8.539389650008504,47.36754067697716],[8.53936734647671,47.367563413423404],[8.539344784913666,47.367585837493536],[8.539321299861406,47.36760842327763],[8.539297481490781,47.36763025663973],[8.539272946045344,47.36765198888822],[8.539247967427874,47.36767341951888],[8.53922253332908,47.36769459362464],[8.53919673696867,47.36771553730233],[8.539170646948008,47.36773636683507],[8.539144551337118,47.36775692656013],[8.53911819652437,47.367777758603495],[8.539092115781406,47.36779839913079],[8.53906606297857,47.36781911134695],[8.539040101147794,47.36783974173372],[8.539014313613261,47.36786047839565],[8.538988773431498,47.36788165345766],[8.538963965010161,47.36790300144537],[8.53893957491672,47.36792473223389],[8.538915545931388,47.36794663948],[8.538891917767224,47.36796872280556],[8.538868508624441,47.36799115485064],[8.53884568210326,47.368013590335835],[8.538823163183796,47.36803617580368],[8.538800768024108,47.36805898496687],[8.538777965202149,47.36808257159199],[8.538757041484914,47.368104827020595],[8.538735669094008,47.36812779733609],[8.538714067871785,47.36815122857984],[8.538692991868896,47.368174447928155],[8.538672103216497,47.368197764434576],[8.538651388305883,47.36822116023852],[8.538630875097182,47.368244707035046],[8.53861067456454,47.36826800798054],[8.538590415434065,47.36829167828159],[8.53857051296136,47.368315309201506],[8.538550718599446,47.36833904702998],[8.53854411816535,47.368347061605725],[8.538531189159793,47.36836279132692],[8.538511886042926,47.36838659643112],[8.538492704460555,47.36841051731141],[8.538473513890867,47.36843464516232],[8.538454570182218,47.36845854578006],[8.538435601650962,47.36848252758717],[8.538416488971674,47.36850658272465],[8.538397215010017,47.36853052245732],[8.538377542970412,47.36855442100106],[8.538357509782719,47.36857814307677],[8.538337154046813,47.36860163434569],[8.538316346909662,47.36862506694248],[8.538295424390345,47.36864804188092],[8.538273804331247,47.36867122134977],[8.538252119800298,47.36869384372842],[8.538229752264808,47.36871673346473],[8.538207285367196,47.36873930031675],[8.538184432698825,47.36876178088505],[8.538161445963448,47.3687841817684],[8.538138324790014,47.36880648497999],[8.53811484654668,47.36882880957598],[8.538091310138672,47.36885088285626],[8.538067651417347,47.36887280437811],[8.538043742455738,47.36889479124285],[8.538019621854167,47.36891678911194],[8.537995144366825,47.368938817358085],[8.537971053794575,47.36896034718254],[8.537946439437293,47.368982160836794],[8.53792166119793,47.36900373317608],[8.53789707316129,47.36902489891758],[8.53787170777869,47.36904625195484],[8.537846350606594,47.36906736203892],[8.537820664506786,47.3690885741941],[8.537794880158051,47.36910951742369],[8.537768840374655,47.3691302741798],[8.537742493317479,47.36915089892646],[8.537715958313079,47.369171399523175],[8.537689457254002,47.36919162094074],[8.537662377599597,47.36921203675568],[8.537634986591705,47.36923212270589],[8.537607353942906,47.36925204903577],[8.537579398742293,47.36927174455379],[8.537551236238087,47.36929101926495],[8.537522490131106,47.369310245550544],[8.537493446279699,47.369329159831096],[8.537464014057502,47.369347861915244],[8.537434324175754,47.369366269602835],[8.537404354422307,47.36938458999344],[8.537374383536037,47.36940285641584],[8.537344370690903,47.369421015287465],[8.537314249141044,47.36943904025781],[8.537283900115348,47.36945695044678],[8.537253472011953,47.36947487936999],[8.537222963904043,47.36949278206036],[8.537192465862898,47.369510531729105],[8.53716176960194,47.36952830126507],[8.537131083778599,47.369545935766084],[8.537100305639457,47.369563589126884],[8.537069565340818,47.36958115216782],[8.537038919170591,47.36959878626634],[8.537008367314066,47.36961650041588],[8.53697792337983,47.3696343124774],[8.536947640505295,47.36965223094086],[8.53691762440951,47.36967024580596],[8.536857971345531,47.36970668568389],[8.536828382882735,47.369724894352096],[8.536798611475344,47.36974322168879],[8.536768863559333,47.36976140487176],[8.536739047950544,47.36977951672912],[8.53670893247711,47.369797856308104],[8.53668072658652,47.36981505333123]]},"properties":{"layer":"LKZ141EUMLU0","infraType":"fernwaerme","geomType":"pipe","source":"order_55300/SIA405_LKMap_2015_LV95.dxf","_dedupKey":"2682935.9,1247132.7|2683145.6,1246880.3"}},{"type":"Feature","geometry":{"type":"LineString","coordinates":[[8.539793656781105,47.36782516564005],[8.539751380195458,47.36781872338856],[8.539739601544678,47.36781640699036],[8.539709689563677,47.36781052147942],[8.53967456616949,47.36780360622289],[8.539626108660565,47.367794065548374],[8.539621855920357,47.36779329652418],[8.539551524324272,47.3677798445526]]},"properties":{"layer":"LKZ141EUMLU1","infraType":"fernwaerme","geomType":"pipe","source":"order_55300/SIA405_LKMap_2015_LV95.dxf","_dedupKey":"2683155.9,1246909.5|2683174.1,1246914.7"}},{"type":"Feature","geometry":{"type":"LineString","coordinates":[[8.539405795166664,47.36786410596252],[8.539405932794836,47.367863717858974],[8.539417323936986,47.367835085642966],[8.53942585191924,47.36781911891258],[8.539439377734656,47.367805380321826],[8.539459468035849,47.367796643436144],[8.539473682313067,47.36779059813534],[8.53949003950514,47.36778317413852],[8.539493814224425,47.36778131214219]]},"properties":{"layer":"LKZ141EUMLU1","infraType":"fernwaerme","geomType":"pipe","source":"order_55300/SIA405_LKMap_2015_LV95.dxf","_dedupKey":"2683144.7,1246918.7|2683151.5,1246909.6"}},{"type":"Feature","geometry":{"type":"LineString","coordinates":[[8.539495022286536,47.36776864443852],[8.539504109283861,47.36777013197739]]},"properties":{"layer":"LKZ141EUMLU1","infraType":"fernwaerme","geomType":"pipe","source":"order_55300/SIA405_LKMap_2015_LV95.dxf","_dedupKey":"2683151.6,1246908.1|2683152.3,1246908.3"}},{"type":"Feature","geometry":{"type":"LineString","coordinates":[[8.543115008687522,47.36721856143031],[8.543014294322012,47.368748702440456]]},"properties":{"layer":"LKZ141EUMLU-","infraType":"fernwaerme","geomType":"pipe","source":"order_55300/SIA405_LKMap_2015_LV95.dxf","_dedupKey":"2683415.9,1247020.8|2683425.9,1246850.8"}},{"type":"Feature","geometry":{"type":"LineString","coordinates":[[8.539495022286536,47.36776864443852],[8.539491250002769,47.36776805972841],[8.539434646970308,47.36775645576545],[8.539349422126543,47.36774052802801],[8.539337268109838,47.367739267599994],[8.53933125037945,47.36773766084585],[8.539281488547342,47.36772906795457],[8.5392753928799,47.367727533901466],[8.53927190376593,47.36772527338616],[8.539270242897246,47.36772114244542],[8.539259629701768,47.3676886991],[8.53925851945886,47.3676817384319],[8.539263066606926,47.3676756053768],[8.539267881050181,47.36767023436281]]},"properties":{"layer":"LKZ141EUMLU1","infraType":"fernwaerme","geomType":"pipe","source":"order_55300/SIA405_LKMap_2015_LV95.dxf","_dedupKey":"2683134.6,1246897|2683151.6,1246908.1"}},{"type":"Feature","geometry":{"type":"LineString","coordinates":[[8.539535860967508,47.36738682441961],[8.539524615523193,47.367400064544825],[8.539503580203334,47.367423940311504],[8.539484717690298,47.367445321694724],[8.539470536716237,47.36746259264056]]},"properties":{"layer":"LKZ141EUMLU1","infraType":"fernwaerme","geomType":"pipe","source":"order_55300/SIA405_LKMap_2015_LV95.dxf","_dedupKey":"2683150.3,1246874.1|2683155.3,1246865.7"}},{"type":"Feature","geometry":{"type":"LineString","coordinates":[[8.539535860967508,47.36738682441961],[8.53953627472316,47.367386343732164],[8.539551226535353,47.36736985700385],[8.539561857370117,47.36735763019235],[8.53956863853061,47.36735004559827],[8.539571525107394,47.36734685178602],[8.539575716957705,47.36734146870252]]},"properties":{"layer":"LKZ141EUMLU1","infraType":"fernwaerme","geomType":"pipe","source":"order_55300/SIA405_LKMap_2015_LV95.dxf","_dedupKey":"2683155.3,1246865.7|2683158.4,1246860.7"}},{"type":"Feature","geometry":{"type":"LineString","coordinates":[[8.539581146569779,47.367404994738756],[8.539592444471978,47.367409681462355]]},"properties":{"layer":"LKZ141EUMLU0","infraType":"fernwaerme","geomType":"pipe","source":"order_55300/SIA405_LKMap_2015_LV95.dxf","_dedupKey":"2683158.7,1246867.8|2683159.5,1246868.3"}},{"type":"Feature","geometry":{"type":"LineString","coordinates":[[8.540822597910061,47.3687937184949],[8.54082759057776,47.368794408453155],[8.540873497799193,47.36880158025717],[8.540930490972782,47.368810211398454],[8.540986920517641,47.36881911774596]]},"properties":{"layer":"LKZ141EUMLU1","infraType":"fernwaerme","geomType":"pipe","source":"order_55301/SIA405_LKMap_2015_LV95.dxf","_dedupKey":"2683250.3,1247023.5|2683262.7,1247026.5"}},{"type":"Feature","geometry":{"type":"LineString","coordinates":[[8.540805474103731,47.36885116307334],[8.540800348680785,47.36885045639059],[8.540736212113202,47.368841497561654]]},"properties":{"layer":"LKZ141EUMLU1","infraType":"fernwaerme","geomType":"pipe","source":"order_55301/SIA405_LKMap_2015_LV95.dxf","_dedupKey":"2683243.7,1247028.7|2683248.9,1247029.9"}},{"type":"Feature","geometry":{"type":"LineString","coordinates":[[8.539481379760497,47.368186428680126],[8.539201871682483,47.36893712966317],[8.539299258313665,47.36895394908153]]},"properties":{"layer":"LKZ141EUMLU0","infraType":"fernwaerme","geomType":"pipe","source":"order_55301/SIA405_LKMap_2015_LV95.dxf","_dedupKey":"2683135,1247039.7|2683149.9,1246954.6"}},{"type":"Feature","geometry":{"type":"LineString","coordinates":[[8.54083080089557,47.36873963328207],[8.540819167882272,47.36878599740069],[8.540818311523076,47.36878940574277],[8.540817381873099,47.36879311162445],[8.540801834243267,47.36884482024034],[8.540804375184862,47.36885436684119],[8.540806915941422,47.36886390444866],[8.540793808416145,47.36890747614413],[8.540779922810865,47.36895119918465],[8.540775898524068,47.36896404669136],[8.5407751410325,47.3689664736172],[8.54077146509084,47.36897823838063],[8.540750396661915,47.36904214313042],[8.540716305016598,47.36914602068951],[8.540706831448052,47.369176442755716],[8.540703404245269,47.369187431559034],[8.540684938467539,47.36924850496824],[8.540662781522256,47.36932509425695],[8.540637406672966,47.36941255340532],[8.540637072115683,47.369413663001644],[8.540596456818864,47.36955234204529]]},"properties":{"layer":"LKZ141EUMLU1","infraType":"fernwaerme","geomType":"pipe","source":"order_55301/SIA405_LKMap_2015_LV95.dxf","_dedupKey":"2683232,1247107.6|2683251,1247017.5"}},{"type":"Feature","geometry":{"type":"LineString","coordinates":[[8.541547270548092,47.36899901452476],[8.541544374587248,47.369008792931176],[8.541504720891025,47.369142623759025]]},"properties":{"layer":"LKZ141EUMLU1","infraType":"fernwaerme","geomType":"pipe","source":"order_55301/SIA405_LKMap_2015_LV95.dxf","_dedupKey":"2683301.3,1247063|2683304.7,1247047.1"}},{"type":"Feature","geometry":{"type":"LineString","coordinates":[[8.540191744677463,47.368883436892055],[8.540189474130234,47.368883125726406],[8.540172145781618,47.36888072737302]]},"properties":{"layer":"LKZ141EUMLU1","infraType":"fernwaerme","geomType":"pipe","source":"order_55301/SIA405_LKMap_2015_LV95.dxf","_dedupKey":"2683201,1247032.5|2683202.5,1247032.8"}},{"type":"Feature","geometry":{"type":"LineString","coordinates":[[8.540736212113202,47.368841497561654],[8.540723238777092,47.368839687395635]]},"properties":{"layer":"LKZ141EUMLU0","infraType":"fernwaerme","geomType":"pipe","source":"order_55301/SIA405_LKMap_2015_LV95.dxf","_dedupKey":"2683242.7,1247028.5|2683243.7,1247028.7"}},{"type":"Feature","geometry":{"type":"LineString","coordinates":[[8.54036429539235,47.3689847136619],[8.540361644084351,47.36899352722104]]},"properties":{"layer":"LKZ141EUMLU1","infraType":"fernwaerme","geomType":"pipe","source":"order_55301/SIA405_LKMap_2015_LV95.dxf","_dedupKey":"2683215.2,1247045.2|2683215.4,1247044.3"}},{"type":"Feature","geometry":{"type":"LineString","coordinates":[[8.540091301477576,47.36894682120857],[8.540088942102527,47.368955667957785]]},"properties":{"layer":"LKZ141EUMLU0","infraType":"fernwaerme","geomType":"pipe","source":"order_55301/SIA405_LKMap_2015_LV95.dxf","_dedupKey":"2683194.6,1247040.7|2683194.8,1247039.8"}},{"type":"Feature","geometry":{"type":"LineString","coordinates":[[8.541348616493059,47.36884761583482],[8.541196083720232,47.368848118549245],[8.541152702731601,47.36884210112384],[8.540986920517641,47.36881911774596]]},"properties":{"layer":"LKZ141EUMLU0","infraType":"fernwaerme","geomType":"pipe","source":"order_55301/SIA405_LKMap_2015_LV95.dxf","_dedupKey":"2683262.7,1247026.5|2683289.9,1247030.1"}},{"type":"Feature","geometry":{"type":"LineString","coordinates":[[8.54038660797072,47.36891051565257],[8.54036429539235,47.3689847136619]]},"properties":{"layer":"LKZ141EUMLU1","infraType":"fernwaerme","geomType":"pipe","source":"order_55301/SIA405_LKMap_2015_LV95.dxf","_dedupKey":"2683215.4,1247044.3|2683217.2,1247036"}},{"type":"Feature","geometry":{"type":"LineString","coordinates":[[8.539388056978186,47.36791173347753],[8.539452234913714,47.367922761537656],[8.539571887725941,47.36794332635862],[8.539481379760497,47.368186428680126]]},"properties":{"layer":"LKZ141EUMLU0","infraType":"fernwaerme","geomType":"pipe","source":"order_55301/SIA405_LKMap_2015_LV95.dxf","_dedupKey":"2683143.3,1246923.9|2683149.9,1246954.6"}},{"type":"Feature","geometry":{"type":"LineString","coordinates":[[8.541348616493059,47.36884761583482],[8.541546537775021,47.36876905127695],[8.541535077326406,47.36862021885692],[8.541590005133543,47.36816747161681]]},"properties":{"layer":"LKZ141EUMLU0","infraType":"fernwaerme","geomType":"pipe","source":"order_55301/SIA405_LKMap_2015_LV95.dxf","_dedupKey":"2683289.9,1247030.1|2683309.2,1246954.7"}},{"type":"Feature","geometry":{"type":"LineString","coordinates":[[8.540163045286535,47.368956769273],[8.54016042042235,47.36896558257509]]},"properties":{"layer":"LKZ141EUMLU0","infraType":"fernwaerme","geomType":"pipe","source":"order_55301/SIA405_LKMap_2015_LV95.dxf","_dedupKey":"2683200,1247041.9|2683200.2,1247040.9"}},{"type":"Feature","geometry":{"type":"LineString","coordinates":[[8.54082275527631,47.3687936450319],[8.540805498719944,47.36885107288686],[8.540805474103731,47.36885116307334]]},"properties":{"layer":"LKZ141EUMLU1","infraType":"fernwaerme","geomType":"pipe","source":"order_55301/SIA405_LKMap_2015_LV95.dxf","_dedupKey":"2683248.9,1247029.9|2683250.3,1247023.5"}},{"type":"Feature","geometry":{"type":"LineString","coordinates":[[8.54174054183632,47.36877122836195],[8.541727323776497,47.36877166943589]]},"properties":{"layer":"LKZ141EUMLU0","infraType":"fernwaerme","geomType":"pipe","source":"order_55301/SIA405_LKMap_2015_LV95.dxf","_dedupKey":"2683318.7,1247022|2683319.7,1247022"}},{"type":"Feature","geometry":{"type":"LineString","coordinates":[[8.541317996166377,47.36801701622867],[8.541316415959088,47.36803087486879],[8.54132206301954,47.36803888061884],[8.541370513524985,47.36810758182839],[8.541383044123977,47.36810847864139],[8.541478987866862,47.36811447082394],[8.541564988534928,47.36811919960909],[8.541604209538676,47.36812128074144],[8.541601676111222,47.36814409867452],[8.541599447145202,47.36816243410942],[8.541598793425898,47.36816795438624]]},"properties":{"layer":"LKZ141EUMLU1","infraType":"fernwaerme","geomType":"pipe","source":"order_55301/SIA405_LKMap_2015_LV95.dxf","_dedupKey":"2683288.9,1246937.7|2683309.9,1246954.8"}},{"type":"Feature","geometry":{"type":"LineString","coordinates":[[8.541348665723648,47.36884743546158],[8.541220107285064,47.3687690016691],[8.54111546950491,47.36875433996082]]},"properties":{"layer":"LKZ141EUMLU0","infraType":"fernwaerme","geomType":"pipe","source":"order_55301/SIA405_LKMap_2015_LV95.dxf","_dedupKey":"2683272.5,1247019.4|2683289.9,1247030"}},{"type":"Feature","geometry":{"type":"LineString","coordinates":[[8.540140778081398,47.36903061599105],[8.540122882932437,47.36908985784879]]},"properties":{"layer":"LKZ141EUMLU0","infraType":"fernwaerme","geomType":"pipe","source":"order_55301/SIA405_LKMap_2015_LV95.dxf","_dedupKey":"2683197,1247055.7|2683198.4,1247049.1"}},{"type":"Feature","geometry":{"type":"LineString","coordinates":[[8.541815344236369,47.368775416271156],[8.541815211858246,47.36877541753559],[8.541806173596582,47.36877565678214],[8.541743201333635,47.36877113999525],[8.54174054183632,47.36877122836195]]},"properties":{"layer":"LKZ141EUMLU0","infraType":"fernwaerme","geomType":"pipe","source":"order_55301/SIA405_LKMap_2015_LV95.dxf","_dedupKey":"2683319.7,1247022|2683325.3,1247022.5"}},{"type":"Feature","geometry":{"type":"LineString","coordinates":[[8.541598793425898,47.36816795438624],[8.54154516466945,47.36862077018267],[8.541556877461547,47.36877283844975],[8.541348641108355,47.36884752564818]]},"properties":{"layer":"LKZ141EUMLU0","infraType":"fernwaerme","geomType":"pipe","source":"order_55301/SIA405_LKMap_2015_LV95.dxf","_dedupKey":"2683289.9,1247030.1|2683309.9,1246954.8"}},{"type":"Feature","geometry":{"type":"LineString","coordinates":[[8.54014593392356,47.369028309035485],[8.540127158356729,47.36909043774063]]},"properties":{"layer":"LKZ141EUMLU0","infraType":"fernwaerme","geomType":"pipe","source":"order_55301/SIA405_LKMap_2015_LV95.dxf","_dedupKey":"2683197.3,1247055.8|2683198.8,1247048.9"}},{"type":"Feature","geometry":{"type":"LineString","coordinates":[[8.539481498899537,47.36818642754456],[8.539575387879125,47.368202560446385]]},"properties":{"layer":"LKZ141EUMLU0","infraType":"fernwaerme","geomType":"pipe","source":"order_55301/SIA405_LKMap_2015_LV95.dxf","_dedupKey":"2683150,1246954.6|2683157,1246956.5"}},{"type":"Feature","geometry":{"type":"LineString","coordinates":[[8.540172145781618,47.36888072737302],[8.540142302558332,47.36887691919549],[8.540114592118224,47.36887316263171],[8.540112787825514,47.36887362959668]]},"properties":{"layer":"LKZ141EUMLU1","infraType":"fernwaerme","geomType":"pipe","source":"order_55301/SIA405_LKMap_2015_LV95.dxf","_dedupKey":"2683196.6,1247031.6|2683201,1247032.5"}},{"type":"Feature","geometry":{"type":"LineString","coordinates":[[8.540770719209515,47.368963295545704],[8.540766190595617,47.36896263713734],[8.540746662665052,47.36896016091231],[8.540738724112385,47.368959157244625],[8.54049105420685,47.36892487401399],[8.540390908186305,47.36891101434164]]},"properties":{"layer":"LKZ141EUMLU1","infraType":"fernwaerme","geomType":"pipe","source":"order_55301/SIA405_LKMap_2015_LV95.dxf","_dedupKey":"2683217.5,1247036.1|2683246.1,1247042.3"}},{"type":"Feature","geometry":{"type":"LineString","coordinates":[[8.540181946530174,47.36888214508665],[8.540173288138647,47.36888090537637],[8.540145748671218,47.368877093218465],[8.540114770014846,47.368872801128866],[8.540111500082476,47.368872823318256]]},"properties":{"layer":"LKZ141EUMLU1","infraType":"fernwaerme","geomType":"pipe","source":"order_55301/SIA405_LKMap_2015_LV95.dxf","_dedupKey":"2683196.5,1247031.6|2683201.8,1247032.7"}},{"type":"Feature","geometry":{"type":"LineString","coordinates":[[8.540390908186305,47.36891101434164],[8.540368571182572,47.36898531153153]]},"properties":{"layer":"LKZ141EUMLU1","infraType":"fernwaerme","geomType":"pipe","source":"order_55301/SIA405_LKMap_2015_LV95.dxf","_dedupKey":"2683215.7,1247044.3|2683217.5,1247036.1"}},{"type":"Feature","geometry":{"type":"LineString","coordinates":[[8.540127158356729,47.36909043774063],[8.540119436862023,47.369115958676815],[8.540111522507969,47.369142398957415],[8.539981778772471,47.369124458537996],[8.539959720715043,47.36918152725397],[8.539953838632735,47.36919674917469]]},"properties":{"layer":"LKZ141EUMLU0","infraType":"fernwaerme","geomType":"pipe","source":"order_55301/SIA405_LKMap_2015_LV95.dxf","_dedupKey":"2683184.1,1247067.4|2683197.3,1247055.8"}},{"type":"Feature","geometry":{"type":"LineString","coordinates":[[8.540188743088779,47.36888555239598],[8.540187391269042,47.36888933425967],[8.540172091334506,47.36893576026359],[8.54016590948404,47.368954412210925],[8.54016511671132,47.36895705535274]]},"properties":{"layer":"LKZ141EUMLU1","infraType":"fernwaerme","geomType":"pipe","source":"order_55301/SIA405_LKMap_2015_LV95.dxf","_dedupKey":"2683200.4,1247041|2683202.3,1247033"}},{"type":"Feature","geometry":{"type":"LineString","coordinates":[[8.540187378090916,47.36888292983341],[8.540181946530174,47.36888214508665]]},"properties":{"layer":"LKZ141EUMLU1","infraType":"fernwaerme","geomType":"pipe","source":"order_55301/SIA405_LKMap_2015_LV95.dxf","_dedupKey":"2683201.8,1247032.7|2683202.2,1247032.8"}},{"type":"Feature","geometry":{"type":"LineString","coordinates":[[8.541560748478595,47.369000891741436],[8.541560639757874,47.369001396508594],[8.54156052582578,47.36901060863943],[8.541560414500015,47.369010987499216],[8.541525010406808,47.36913134798181],[8.541522361012438,47.36913896519463],[8.54153834258891,47.369141538119784],[8.541711085449418,47.369169392579565],[8.541735558078857,47.36917343155027],[8.54173647192347,47.36919135916919],[8.541753420833762,47.36941854992595]]},"properties":{"layer":"LKZ141EUMLU1","infraType":"fernwaerme","geomType":"pipe","source":"order_55301/SIA405_LKMap_2015_LV95.dxf","_dedupKey":"2683305.7,1247047.3|2683319.6,1247094"}},{"type":"Feature","geometry":{"type":"LineString","coordinates":[[8.541348665723648,47.36884743546158],[8.541229292418612,47.36873873522477],[8.541176973456798,47.3687313998899],[8.541280172279482,47.36839164799216],[8.54164516834341,47.36838012113814]]},"properties":{"layer":"LKZ141EUMLU0","infraType":"fernwaerme","geomType":"pipe","source":"order_55301/SIA405_LKMap_2015_LV95.dxf","_dedupKey":"2683289.9,1247030|2683313.1,1246978.4"}},{"type":"Feature","geometry":{"type":"LineString","coordinates":[[8.540836016927448,47.368740240151986],[8.540824383918562,47.36878660427111],[8.540822597910061,47.3687937184949]]},"properties":{"layer":"LKZ141EUMLU1","infraType":"fernwaerme","geomType":"pipe","source":"order_55301/SIA405_LKMap_2015_LV95.dxf","_dedupKey":"2683250.3,1247023.5|2683251.4,1247017.6"}},{"type":"Feature","geometry":{"type":"LineString","coordinates":[[8.539405795166664,47.36786410596252],[8.539402546021362,47.367872826252786]]},"properties":{"layer":"LKZ141EUMLU0","infraType":"fernwaerme","geomType":"pipe","source":"order_55301/SIA405_LKMap_2015_LV95.dxf","_dedupKey":"2683144.5,1246919.6|2683144.7,1246918.7"}},{"type":"Feature","geometry":{"type":"LineString","coordinates":[[8.540368571182572,47.36898531153153],[8.540365919875244,47.368994125090815]]},"properties":{"layer":"LKZ141EUMLU0","infraType":"fernwaerme","geomType":"pipe","source":"order_55301/SIA405_LKMap_2015_LV95.dxf","_dedupKey":"2683215.5,1247045.3|2683215.7,1247044.3"}},{"type":"Feature","geometry":{"type":"LineString","coordinates":[[8.54014593392356,47.369028309035485],[8.54018484077565,47.369033739849804]]},"properties":{"layer":"LKZ141EUMLU0","infraType":"fernwaerme","geomType":"pipe","source":"order_55301/SIA405_LKMap_2015_LV95.dxf","_dedupKey":"2683198.8,1247048.9|2683201.8,1247049.5"}},{"type":"Feature","geometry":{"type":"LineString","coordinates":[[8.540770719209515,47.368963295545704],[8.540766285403084,47.36897746924803],[8.540753340644367,47.36901674869339],[8.540745229834261,47.36904135588384],[8.540711125499255,47.369145260547846],[8.540701652299742,47.3691757006004]]},"properties":{"layer":"LKZ141EUMLU1","infraType":"fernwaerme","geomType":"pipe","source":"order_55301/SIA405_LKMap_2015_LV95.dxf","_dedupKey":"2683240.6,1247065.8|2683246.1,1247042.3"}},{"type":"Feature","geometry":{"type":"LineString","coordinates":[[8.540805474103731,47.36885116307334],[8.540788762043137,47.368906750716164],[8.54077487624796,47.36895046476271],[8.540770851960003,47.36896331226929],[8.540770827343682,47.36896340245574]]},"properties":{"layer":"LKZ141EUMLU1","infraType":"fernwaerme","geomType":"pipe","source":"order_55301/SIA405_LKMap_2015_LV95.dxf","_dedupKey":"2683246.1,1247042.3|2683248.9,1247029.9"}},{"type":"Feature","geometry":{"type":"LineString","coordinates":[[8.54016042042235,47.36896558257509],[8.540140778081398,47.36903061599105]]},"properties":{"layer":"LKZ141EUMLU0","infraType":"fernwaerme","geomType":"pipe","source":"order_55301/SIA405_LKMap_2015_LV95.dxf","_dedupKey":"2683198.4,1247049.1|2683200,1247041.9"}},{"type":"Feature","geometry":{"type":"LineString","coordinates":[[8.540122882932437,47.36908985784879],[8.540115161064108,47.36911536079792],[8.540108113524775,47.369138896371304],[8.539978608824425,47.36912098964946],[8.539955494706684,47.36918077597673],[8.53995071847525,47.36919312689304]]},"properties":{"layer":"LKZ141EUMLU0","infraType":"fernwaerme","geomType":"pipe","source":"order_55301/SIA405_LKMap_2015_LV95.dxf","_dedupKey":"2683183.8,1247067|2683197,1247055.7"}},{"type":"Feature","geometry":{"type":"LineString","coordinates":[[8.541815344236369,47.368775416271156],[8.541813581338811,47.36875612949584],[8.541813205983107,47.368752067268645],[8.541809351064641,47.3687097458793],[8.541805982627809,47.36866150102724],[8.541794657358224,47.368473808235386],[8.541784723599022,47.36834119750488],[8.541779224559779,47.36826165184505],[8.541769695843929,47.36814861070883],[8.541768351889571,47.36814508844672],[8.541762677733503,47.368141535581884],[8.541743777829911,47.36812908688971],[8.541703753169356,47.368104804425876],[8.541669501171228,47.368083075414106],[8.541595991568574,47.368080530182695],[8.541537903609743,47.368078467301736],[8.541305817055482,47.36806383538383],[8.541248926492745,47.368057569180785],[8.541211222977273,47.36804499407892],[8.54115817511316,47.36803439146025],[8.541135369934896,47.36803284610389],[8.541128936324863,47.368031621209454],[8.541108818239874,47.3680255616123],[8.541085246715875,47.36802153190165],[8.54104926643127,47.368015452795056],[8.541011228557945,47.368009114466446],[8.540951165878079,47.36799990999114],[8.540871290547756,47.367988528840996],[8.540682596765832,47.36795999780255],[8.540525246392049,47.367938687383784],[8.540419693653343,47.36792451053092],[8.54026758981109,47.3679039952578],[8.540211825566004,47.367896476470776],[8.540196673006395,47.36789363459861],[8.540178322654981,47.367889177109205],[8.540173231842319,47.367888218204804],[8.540119696212365,47.36787513709966],[8.540035929281501,47.367854815319035],[8.539915408800283,47.367833908441],[8.539843118874417,47.36783269974099],[8.539793656781105,47.36782516564005]]},"properties":{"layer":"LKZ141EUMLU1","infraType":"fernwaerme","geomType":"pipe","source":"order_55301/SIA405_LKMap_2015_LV95.dxf","_dedupKey":"2683174.1,1246914.7|2683325.3,1247022.5"}},{"type":"Feature","geometry":{"type":"LineString","coordinates":[[8.541590005133543,47.36816747161681],[8.541590616137256,47.36816244648186],[8.541591553238549,47.36814374558733],[8.541589511527214,47.36813785526394],[8.541577031873896,47.36813110213667],[8.541554030443907,47.36812647339632],[8.541535766872402,47.36812430006356],[8.541482946123052,47.36812276254696],[8.541416354685492,47.3681211855841],[8.541383604725064,47.368117657348456],[8.54136826918941,47.368113657000336],[8.541358720583574,47.368109061688905],[8.54135547673234,47.368106502053706],[8.541331561221824,47.368076884443575],[8.54130595326957,47.368029454576906],[8.541307498015572,47.36801644182068]]},"properties":{"layer":"LKZ141EUMLU1","infraType":"fernwaerme","geomType":"pipe","source":"order_55301/SIA405_LKMap_2015_LV95.dxf","_dedupKey":"2683288.1,1246937.6|2683309.2,1246954.7"}},{"type":"Feature","geometry":{"type":"LineString","coordinates":[[8.54038660797072,47.36891051565257],[8.540189449512964,47.368883215912774],[8.540187378090916,47.36888292983341]]},"properties":{"layer":"LKZ141EUMLU1","infraType":"fernwaerme","geomType":"pipe","source":"order_55301/SIA405_LKMap_2015_LV95.dxf","_dedupKey":"2683202.2,1247032.8|2683217.2,1247036"}},{"type":"Feature","geometry":{"type":"LineString","coordinates":[[8.539759750150012,47.36782010980165],[8.539761039210878,47.36782034038118],[8.539766075387423,47.3678212188681],[8.539775202994775,47.3678233896307],[8.53978273396734,47.367824541171714],[8.539793656781105,47.36782516564005]]},"properties":{"layer":"LKZ141EUMLU0","infraType":"fernwaerme","geomType":"pipe","source":"order_55301/SIA405_LKMap_2015_LV95.dxf","_dedupKey":"2683171.5,1246914.1|2683174.1,1246914.7"}},{"type":"Feature","geometry":{"type":"LineString","coordinates":[[8.540770827343682,47.36896340245574],[8.540766418153611,47.36897748597163],[8.540745362584943,47.369041372607406],[8.540711258250177,47.36914527727145],[8.540701785050743,47.36917571732404],[8.540701760434203,47.3691758075105]]},"properties":{"layer":"LKZ141EUMLU1","infraType":"fernwaerme","geomType":"pipe","source":"order_55301/SIA405_LKMap_2015_LV95.dxf","_dedupKey":"2683240.6,1247065.9|2683246.1,1247042.3"}},{"type":"Feature","geometry":{"type":"LineString","coordinates":[[8.540187378090916,47.36888292983341],[8.540185319289249,47.368889021200125],[8.540170019352999,47.368935447203825],[8.540163837687677,47.3689541081444],[8.540163045286535,47.368956769273]]},"properties":{"layer":"LKZ141EUMLU1","infraType":"fernwaerme","geomType":"pipe","source":"order_55301/SIA405_LKMap_2015_LV95.dxf","_dedupKey":"2683200.2,1247040.9|2683202.2,1247032.8"}},{"type":"Feature","geometry":{"type":"LineString","coordinates":[[8.540774743497503,47.36895044803919],[8.540770719209515,47.368963295545704]]},"properties":{"layer":"LKZ141EUMLU1","infraType":"fernwaerme","geomType":"pipe","source":"order_55301/SIA405_LKMap_2015_LV95.dxf","_dedupKey":"2683246.1,1247042.3|2683246.4,1247040.9"}},{"type":"Feature","geometry":{"type":"LineString","coordinates":[[8.541307498015572,47.36801644182068],[8.541308557255286,47.36800748152222]]},"properties":{"layer":"LKZ141EUMLU0","infraType":"fernwaerme","geomType":"pipe","source":"order_55301/SIA405_LKMap_2015_LV95.dxf","_dedupKey":"2683288.1,1246937.6|2683288.2,1246936.6"}},{"type":"Feature","geometry":{"type":"LineString","coordinates":[[8.540390908186305,47.36891101434164],[8.540388704011862,47.368910711541936],[8.540305514442931,47.36889919069847],[8.540191744677463,47.368883436892055]]},"properties":{"layer":"LKZ141EUMLU1","infraType":"fernwaerme","geomType":"pipe","source":"order_55301/SIA405_LKMap_2015_LV95.dxf","_dedupKey":"2683202.5,1247032.8|2683217.5,1247036.1"}},{"type":"Feature","geometry":{"type":"LineString","coordinates":[[8.541348641108355,47.36884752564818],[8.541481470674096,47.36890967325849],[8.54157224035173,47.36892213732463],[8.541549262368674,47.368999292344746]]},"properties":{"layer":"LKZ141EUMLU0","infraType":"fernwaerme","geomType":"pipe","source":"order_55301/SIA405_LKMap_2015_LV95.dxf","_dedupKey":"2683289.9,1247030.1|2683304.9,1247047.1"}},{"type":"Feature","geometry":{"type":"LineString","coordinates":[[8.5407751410325,47.3689664736172],[8.540764875439983,47.36896498842816],[8.54074599802316,47.36896259594714],[8.540738032808491,47.368961583538635],[8.540387972979097,47.36891313821275],[8.540188743088779,47.36888555239598],[8.540171414739408,47.36888315404246]]},"properties":{"layer":"LKZ141EUMLU1","infraType":"fernwaerme","geomType":"pipe","source":"order_55301/SIA405_LKMap_2015_LV95.dxf","_dedupKey":"2683201,1247032.8|2683246.4,1247042.7"}},{"type":"Feature","geometry":{"type":"LineString","coordinates":[[8.539481498899537,47.36818642754456],[8.539202015999201,47.36893706532189],[8.53929932116054,47.368953786569804]]},"properties":{"layer":"LKZ141EUMLU0","infraType":"fernwaerme","geomType":"pipe","source":"order_55301/SIA405_LKMap_2015_LV95.dxf","_dedupKey":"2683135,1247039.7|2683150,1246954.6"}},{"type":"Feature","geometry":{"type":"LineString","coordinates":[[8.540111500082476,47.368872823318256],[8.540109341199548,47.36887278993598],[8.54010820437364,47.368873520390174],[8.540107510626381,47.368875829766445],[8.540106411850852,47.368879042521094],[8.540093544233363,47.36892848568087],[8.540089998902836,47.36894209318297],[8.540091635158454,47.36894502799018],[8.540091168727336,47.36894680448422]]},"properties":{"layer":"LKZ141EUMLU1","infraType":"fernwaerme","geomType":"pipe","source":"order_55301/SIA405_LKMap_2015_LV95.dxf","_dedupKey":"2683194.8,1247039.8|2683196.5,1247031.6"}},{"type":"Feature","geometry":{"type":"LineString","coordinates":[[8.542442146068659,47.368758786377306],[8.541973927588717,47.36876403375785],[8.541965855131322,47.36876423680522],[8.541845146668907,47.36877469084568],[8.541828815862113,47.36877507171192],[8.541815344236369,47.368775416271156]]},"properties":{"layer":"LKZ141EUMLU-","infraType":"fernwaerme","geomType":"pipe","source":"order_55301/SIA405_LKMap_2015_LV95.dxf","_dedupKey":"2683325.3,1247022.5|2683372.7,1247021.3"}},{"type":"Feature","geometry":{"type":"LineString","coordinates":[[8.540804375184862,47.36885436684119],[8.54079916996273,47.36885364292965],[8.540735232516786,47.368844709185446]]},"properties":{"layer":"LKZ141EUMLU1","infraType":"fernwaerme","geomType":"pipe","source":"order_55301/SIA405_LKMap_2015_LV95.dxf","_dedupKey":"2683243.6,1247029.1|2683248.8,1247030.2"}},{"type":"Feature","geometry":{"type":"LineString","coordinates":[[8.541348641108355,47.36884752564818],[8.541500772201118,47.3688442470634],[8.541565687513668,47.36885308109509]]},"properties":{"layer":"LKZ141EUMLU0","infraType":"fernwaerme","geomType":"pipe","source":"order_55301/SIA405_LKMap_2015_LV95.dxf","_dedupKey":"2683289.9,1247030.1|2683306.3,1247030.9"}},{"type":"Feature","geometry":{"type":"LineString","coordinates":[[8.541348616493059,47.36884761583482],[8.54148390847106,47.368901428405366],[8.541586136821408,47.368915447149746],[8.541560748478595,47.369000891741436]]},"properties":{"layer":"LKZ141EUMLU0","infraType":"fernwaerme","geomType":"pipe","source":"order_55301/SIA405_LKMap_2015_LV95.dxf","_dedupKey":"2683289.9,1247030.1|2683305.7,1247047.3"}},{"type":"Feature","geometry":{"type":"LineString","coordinates":[[8.541549262368674,47.368999292344746],[8.54154724898715,47.36900629181431],[8.54154900178206,47.369006535936165],[8.541548198630387,47.369009314114635],[8.5415124795103,47.369131728497614],[8.54150862492901,47.36914317116549]]},"properties":{"layer":"LKZ141EUMLU1","infraType":"fernwaerme","geomType":"pipe","source":"order_55301/SIA405_LKMap_2015_LV95.dxf","_dedupKey":"2683301.6,1247063.1|2683304.9,1247047.1"}},{"type":"Feature","geometry":{"type":"LineString","coordinates":[[8.540770827343682,47.36896340245574],[8.540766165979282,47.368962727323805],[8.540746638048686,47.368960251098805],[8.540738699496007,47.368959247431086],[8.540388679394907,47.36891080172834],[8.54038660797072,47.36891051565257]]},"properties":{"layer":"LKZ141EUMLU1","infraType":"fernwaerme","geomType":"pipe","source":"order_55301/SIA405_LKMap_2015_LV95.dxf","_dedupKey":"2683217.2,1247036|2683246.1,1247042.3"}},{"type":"Feature","geometry":{"type":"LineString","coordinates":[[8.539388094833969,47.36791164316515],[8.539452272769397,47.36792267122525],[8.539572045648594,47.367943279877466],[8.539481498899537,47.36818642754456]]},"properties":{"layer":"LKZ141EUMLU0","infraType":"fernwaerme","geomType":"pipe","source":"order_55301/SIA405_LKMap_2015_LV95.dxf","_dedupKey":"2683143.3,1246923.9|2683150,1246954.6"}},{"type":"Feature","geometry":{"type":"LineString","coordinates":[[8.541319028929095,47.36800805618291],[8.541317996166377,47.36801701622867]]},"properties":{"layer":"LKZ141EUMLU0","infraType":"fernwaerme","geomType":"pipe","source":"order_55301/SIA405_LKMap_2015_LV95.dxf","_dedupKey":"2683288.9,1246937.7|2683289,1246936.7"}},{"type":"Feature","geometry":{"type":"LineString","coordinates":[[8.54016738726156,47.36895736651886],[8.540164722684473,47.36896618019982]]},"properties":{"layer":"LKZ141EUMLU0","infraType":"fernwaerme","geomType":"pipe","source":"order_55301/SIA405_LKMap_2015_LV95.dxf","_dedupKey":"2683200.3,1247042|2683200.6,1247041"}},{"type":"Feature","geometry":{"type":"LineString","coordinates":[[8.540171414739408,47.36888315404246],[8.540129403457536,47.36887485639045],[8.540126817990323,47.36887468315428],[8.540124173767131,47.36887487028475],[8.54012176109125,47.36887537003739],[8.540119435089718,47.36887621977451],[8.540117471527214,47.36887730892428],[8.540115805143664,47.36887868308496],[8.540114592377398,47.36888022382756],[8.540113833042621,47.36888192215872],[8.540098325674819,47.368947788664755]]},"properties":{"layer":"LKZ141EUMLU1","infraType":"fernwaerme","geomType":"pipe","source":"order_55301/SIA405_LKMap_2015_LV95.dxf","_dedupKey":"2683195.4,1247039.9|2683201,1247032.8"}},{"type":"Feature","geometry":{"type":"LineString","coordinates":[[8.540191744677463,47.368883436892055],[8.540189649322043,47.36888968152514],[8.540188353612947,47.36889361577141],[8.540174349389378,47.368936107529386],[8.54016818040584,47.368954741363765],[8.54016738726156,47.36895736651886]]},"properties":{"layer":"LKZ141EUMLU1","infraType":"fernwaerme","geomType":"pipe","source":"order_55301/SIA405_LKMap_2015_LV95.dxf","_dedupKey":"2683200.6,1247041|2683202.5,1247032.8"}},{"type":"Feature","geometry":{"type":"LineString","coordinates":[[8.539481379760497,47.368186428680126],[8.539575350023451,47.36820265075883]]},"properties":{"layer":"LKZ141EUMLU0","infraType":"fernwaerme","geomType":"pipe","source":"order_55301/SIA405_LKMap_2015_LV95.dxf","_dedupKey":"2683149.9,1246954.6|2683157,1246956.5"}},{"type":"Feature","geometry":{"type":"LineString","coordinates":[[8.540387972979097,47.36891313821275],[8.5403663668193,47.36898499973802]]},"properties":{"layer":"LKZ141EUMLU1","infraType":"fernwaerme","geomType":"pipe","source":"order_55301/SIA405_LKMap_2015_LV95.dxf","_dedupKey":"2683215.5,1247044.3|2683217.3,1247036.3"}},{"type":"Feature","geometry":{"type":"LineString","coordinates":[[8.540805365969725,47.36885105616327],[8.540788629292775,47.36890673399263],[8.540774743497503,47.36895044803919]]},"properties":{"layer":"LKZ141EUMLU1","infraType":"fernwaerme","geomType":"pipe","source":"order_55301/SIA405_LKMap_2015_LV95.dxf","_dedupKey":"2683246.4,1247040.9|2683248.9,1247029.9"}},{"type":"Feature","geometry":{"type":"LineString","coordinates":[[8.540140778081398,47.36903061599105],[8.540183960726917,47.36903664468363]]},"properties":{"layer":"LKZ141EUMLU0","infraType":"fernwaerme","geomType":"pipe","source":"order_55301/SIA405_LKMap_2015_LV95.dxf","_dedupKey":"2683198.4,1247049.1|2683201.7,1247049.8"}},{"type":"Feature","geometry":{"type":"LineString","coordinates":[[8.540164722684473,47.36896618019982],[8.54014593392356,47.369028309035485]]},"properties":{"layer":"LKZ141EUMLU0","infraType":"fernwaerme","geomType":"pipe","source":"order_55301/SIA405_LKMap_2015_LV95.dxf","_dedupKey":"2683198.8,1247048.9|2683200.3,1247042"}},{"type":"Feature","geometry":{"type":"LineString","coordinates":[[8.540112787825514,47.36887362959668],[8.540110983532767,47.36887409656162],[8.540109070710619,47.368880204525034],[8.54009599560787,47.368929217896294],[8.540091301477576,47.36894682120857]]},"properties":{"layer":"LKZ141EUMLU1","infraType":"fernwaerme","geomType":"pipe","source":"order_55301/SIA405_LKMap_2015_LV95.dxf","_dedupKey":"2683194.8,1247039.8|2683196.6,1247031.6"}},{"type":"Feature","geometry":{"type":"LineString","coordinates":[[8.540987949330189,47.36881572574696],[8.540931626063264,47.36880683637597],[8.540874619655286,47.36879820536159],[8.540828938223308,47.36879106738397],[8.540818311523076,47.36878940574277]]},"properties":{"layer":"LKZ141EUMLU1","infraType":"fernwaerme","geomType":"pipe","source":"order_55301/SIA405_LKMap_2015_LV95.dxf","_dedupKey":"2683250,1247023|2683262.7,1247026.1"}},{"type":"Feature","geometry":{"type":"LineString","coordinates":[[8.540024523550017,47.36967387082216],[8.54002550185873,47.36967123490793],[8.540028331020778,47.369663975824956],[8.54003140723933,47.3696539348831],[8.540039258300105,47.369625066524954],[8.540040707466899,47.36962407223382],[8.540042844594534,47.36962369204795],[8.54005728510385,47.369625371363476],[8.540059690150933,47.36962514153999],[8.540060998575083,47.369623743808795],[8.540062332070654,47.36961843294603],[8.540064855679999,47.369610484148794],[8.540066137850573,47.369605893387835]]},"properties":{"layer":"LKZ141EUMLU1","infraType":"fernwaerme","geomType":"pipe","source":"order_55302/SIA405_LKMap_2015_LV95.dxf","_dedupKey":"2683188.6,1247120.5|2683191.9,1247113"}},{"type":"Feature","geometry":{"type":"LineString","coordinates":[[8.540562793754507,47.36974872162803],[8.540559237443423,47.36976307584438],[8.540556666037618,47.36977319294116],[8.540548536367778,47.36980714625644],[8.540544351422104,47.369823116602234]]},"properties":{"layer":"LKZ141EUMLU1","infraType":"fernwaerme","geomType":"pipe","source":"order_55302/SIA405_LKMap_2015_LV95.dxf","_dedupKey":"2683227.7,1247137.7|2683229.2,1247129.4"}},{"type":"Feature","geometry":{"type":"LineString","coordinates":[[8.539953838632735,47.36919674917469],[8.539853303607806,47.369178817937225]]},"properties":{"layer":"LKZ141EUMLU0","infraType":"fernwaerme","geomType":"pipe","source":"order_55302/SIA405_LKMap_2015_LV95.dxf","_dedupKey":"2683176.5,1247065.3|2683184.1,1247067.4"}},{"type":"Feature","geometry":{"type":"LineString","coordinates":[[8.540559071220292,47.36976464258733],[8.540553200918747,47.36976569705477],[8.540551437227428,47.36977261316532],[8.540547859563265,47.36978849676128],[8.540543320048792,47.3698065303804],[8.540539134543891,47.369822473745835]]},"properties":{"layer":"LKZ141EUMLU1","infraType":"fernwaerme","geomType":"pipe","source":"order_55302/SIA405_LKMap_2015_LV95.dxf","_dedupKey":"2683227.3,1247137.6|2683228.9,1247131.2"}},{"type":"Feature","geometry":{"type":"LineString","coordinates":[[8.539713824119247,47.36972093642694],[8.539714991638615,47.369716562647035],[8.539718342867099,47.36970252524407],[8.539722516006762,47.36969045893944],[8.539724874497685,47.3696822058892],[8.539726410177064,47.36967642535528],[8.539731068647944,47.36965452271966],[8.53973184432208,47.369649127227454],[8.53973429295532,47.36964459731147],[8.539736713666079,47.369641920663426],[8.53974006215342,47.36963928914142],[8.53974603683475,47.36963623679589],[8.539754491808722,47.36963403333414],[8.53976445558698,47.36963372246018],[8.539773094860477,47.36963531319527],[8.539839164650465,47.36964359748668],[8.539959322802584,47.36966215119574],[8.540007361095446,47.36966861939622],[8.540024089149986,47.36967078962644]]},"properties":{"layer":"LKZ141EUMLU1","infraType":"fernwaerme","geomType":"pipe","source":"order_55302/SIA405_LKMap_2015_LV95.dxf","_dedupKey":"2683165.1,1247125.4|2683188.6,1247120.2"}},{"type":"Feature","geometry":{"type":"LineString","coordinates":[[8.540596376683391,47.369168645410966],[8.540566967887994,47.369266568421736],[8.540550146198349,47.369321995152525],[8.540517679023324,47.369317447515336]]},"properties":{"layer":"LKZ141EUMLU0","infraType":"fernwaerme","geomType":"pipe","source":"order_55302/SIA405_LKMap_2015_LV95.dxf","_dedupKey":"2683226.4,1247081.4|2683232.6,1247065"}},{"type":"Feature","geometry":{"type":"LineString","coordinates":[[8.53995071847525,47.36919312689304],[8.53994961262325,47.369195997897265],[8.539894951531434,47.36933743720262],[8.539800128596287,47.36932106158637]]},"properties":{"layer":"LKZ141EUMLU0","infraType":"fernwaerme","geomType":"pipe","source":"order_55302/SIA405_LKMap_2015_LV95.dxf","_dedupKey":"2683172.2,1247081.1|2683183.8,1247067"}},{"type":"Feature","geometry":{"type":"LineString","coordinates":[[8.540632310091105,47.369411963376635],[8.540632013388464,47.369412982660215],[8.540591397893081,47.36955165270869],[8.54059137327618,47.36955174289515]]},"properties":{"layer":"LKZ141EUMLU1","infraType":"fernwaerme","geomType":"pipe","source":"order_55302/SIA405_LKMap_2015_LV95.dxf","_dedupKey":"2683231.6,1247107.5|2683235,1247092"}},{"type":"Feature","geometry":{"type":"LineString","coordinates":[[8.541530392583986,47.36963467462502],[8.54153128008372,47.36964365231248]]},"properties":{"layer":"LKZ141EUMLU0","infraType":"fernwaerme","geomType":"pipe","source":"order_55302/SIA405_LKMap_2015_LV95.dxf","_dedupKey":"2683302.4,1247117.8|2683302.5,1247118.8"}},{"type":"Feature","geometry":{"type":"LineString","coordinates":[[8.53985438280302,47.36917593819294],[8.539841598509186,47.3691736673721]]},"properties":{"layer":"LKZ141EUMLU0","infraType":"fernwaerme","geomType":"pipe","source":"order_55302/SIA405_LKMap_2015_LV95.dxf","_dedupKey":"2683175.6,1247064.7|2683176.6,1247065"}},{"type":"Feature","geometry":{"type":"LineString","coordinates":[[8.540595294061523,47.36955630201242],[8.540586212120434,47.369555075368396],[8.540522367052858,47.36954680626073]]},"properties":{"layer":"LKZ141EUMLU1","infraType":"fernwaerme","geomType":"pipe","source":"order_55302/SIA405_LKMap_2015_LV95.dxf","_dedupKey":"2683226.4,1247106.9|2683231.9,1247108"}},{"type":"Feature","geometry":{"type":"LineString","coordinates":[[8.54059137327618,47.36955174289515],[8.540589010649324,47.36955978911558],[8.54058899852678,47.36955984320217],[8.540570473370039,47.36961805669066],[8.54060997721626,47.36965682671223],[8.540585944548463,47.36972916117124],[8.540566798003765,47.36973297788393],[8.540565871294362,47.36973682765664],[8.54055937000994,47.369763083574846]]},"properties":{"layer":"LKZ141EUMLU1","infraType":"fernwaerme","geomType":"pipe","source":"order_55302/SIA405_LKMap_2015_LV95.dxf","_dedupKey":"2683228.9,1247131|2683231.6,1247107.5"}},{"type":"Feature","geometry":{"type":"LineString","coordinates":[[8.540636231055585,47.36941653148614],[8.54062583467372,47.369415128488434],[8.540558952919593,47.369405988859825]]},"properties":{"layer":"LKZ141EUMLU1","infraType":"fernwaerme","geomType":"pipe","source":"order_55302/SIA405_LKMap_2015_LV95.dxf","_dedupKey":"2683229.4,1247091.3|2683235.2,1247092.6"}},{"type":"Feature","geometry":{"type":"LineString","coordinates":[[8.54059137327618,47.36955174289515],[8.54058729693766,47.36955118810623],[8.540523465112575,47.369542918872824]]},"properties":{"layer":"LKZ141EUMLU1","infraType":"fernwaerme","geomType":"pipe","source":"order_55302/SIA405_LKMap_2015_LV95.dxf","_dedupKey":"2683226.5,1247106.5|2683231.6,1247107.5"}},{"type":"Feature","geometry":{"type":"LineString","coordinates":[[8.541753420833762,47.36941854992595],[8.541739821689896,47.36941913856194],[8.541728220176823,47.36941964515153],[8.541729809718332,47.36943759330129],[8.541598038524922,47.3694433133272]]},"properties":{"layer":"LKZ141EUMLU1","infraType":"fernwaerme","geomType":"pipe","source":"order_55302/SIA405_LKMap_2015_LV95.dxf","_dedupKey":"2683307.8,1247096.6|2683319.6,1247094"}},{"type":"Feature","geometry":{"type":"LineString","coordinates":[[8.540596268549157,47.36916853850078],[8.540550038063895,47.3693218882423],[8.540517996362329,47.36931742649756]]},"properties":{"layer":"LKZ141EUMLU0","infraType":"fernwaerme","geomType":"pipe","source":"order_55302/SIA405_LKMap_2015_LV95.dxf","_dedupKey":"2683226.5,1247081.4|2683232.6,1247064.9"}},{"type":"Feature","geometry":{"type":"LineString","coordinates":[[8.5377486929622,47.370132921548034],[8.537744565979962,47.37014147023232]]},"properties":{"layer":"LKZ141EUMLU0","infraType":"fernwaerme","geomType":"pipe","source":"order_55302/SIA405_LKMap_2015_LV95.dxf","_dedupKey":"2683015.7,1247170.1|2683016,1247169.1"}},{"type":"Feature","geometry":{"type":"LineString","coordinates":[[8.540701760434203,47.3691758075105],[8.540697087487532,47.36917521344259],[8.54066967403677,47.36917174202179],[8.540649123478918,47.36917039993179],[8.540629301899038,47.369169734514784]]},"properties":{"layer":"LKZ141EUMLU1","infraType":"fernwaerme","geomType":"pipe","source":"order_55302/SIA405_LKMap_2015_LV95.dxf","_dedupKey":"2683235.1,1247065.1|2683240.6,1247065.9"}},{"type":"Feature","geometry":{"type":"LineString","coordinates":[[8.540596456818864,47.36955234204529],[8.54059405745331,47.36956053253887],[8.540575992549222,47.36961731140732],[8.540614185537779,47.369654798631444],[8.540614820739453,47.369655422231915],[8.540615248556572,47.36965690235083],[8.540614999040988,47.36965764233421],[8.540591004234681,47.369729886481565],[8.540590841807424,47.36973035577932],[8.540590183956562,47.3697311986052],[8.540589218655882,47.369731900441835],[8.54058801098018,47.36973240669749],[8.540587325204191,47.369732539172446],[8.540571369811508,47.369735722764574],[8.540570967534743,47.36973739970144],[8.540564453386525,47.36976367373298],[8.540559071220292,47.36976464258733]]},"properties":{"layer":"LKZ141EUMLU1","infraType":"fernwaerme","geomType":"pipe","source":"order_55302/SIA405_LKMap_2015_LV95.dxf","_dedupKey":"2683228.9,1247131.2|2683232,1247107.6"}},{"type":"Feature","geometry":{"type":"LineString","coordinates":[[8.540596376683391,47.369168645410966],[8.540563186153129,47.36916753184353]]},"properties":{"layer":"LKZ141EUMLU0","infraType":"fernwaerme","geomType":"pipe","source":"order_55302/SIA405_LKMap_2015_LV95.dxf","_dedupKey":"2683230.1,1247064.8|2683232.6,1247065"}},{"type":"Feature","geometry":{"type":"LineString","coordinates":[[8.540513448109808,47.3699486869495],[8.540414019282597,47.3699734636256]]},"properties":{"layer":"LKZ141EUMLU0","infraType":"fernwaerme","geomType":"pipe","source":"order_55302/SIA405_LKMap_2015_LV95.dxf","_dedupKey":"2683217.6,1247154.2|2683225.1,1247151.6"}},{"type":"Feature","geometry":{"type":"LineString","coordinates":[[8.537086492308747,47.36978253651962],[8.53711151069256,47.36979635800215],[8.537165778179064,47.36982626347097],[8.537211168972581,47.369851404959256],[8.537263942783134,47.369880784880465],[8.537316728777848,47.369910110691066],[8.537357237569214,47.36993286087612],[8.537390781567169,47.36995174642272],[8.537475233554833,47.369994272639616],[8.537576601822058,47.370047450015754],[8.537583282556758,47.37005102049183],[8.537583978541617,47.37005138267094]]},"properties":{"layer":"LKZ141EUMLU1","infraType":"fernwaerme","geomType":"pipe","source":"order_55302/SIA405_LKMap_2015_LV95.dxf","_dedupKey":"2682966.6,1247129.5|2683003.7,1247159.9"}},{"type":"Feature","geometry":{"type":"LineString","coordinates":[[8.540049169633859,47.36967861011889],[8.54004894639395,47.369676777236165],[8.540047819673969,47.369676716019356],[8.540046931424532,47.36967666152368],[8.540033781911738,47.36967466406069],[8.54002813005709,47.36967411528082],[8.540026308128994,47.369673089216505],[8.540025601771845,47.36967158476622],[8.540026320708371,47.369669212184846],[8.54003600716409,47.36963817648296],[8.540040012355117,47.3696243936928],[8.54004124915599,47.36962337444132],[8.540043226126532,47.369622932816654],[8.540054473669603,47.369624516648464],[8.540058047520615,47.36962510323344],[8.540060142704219,47.369624615505394],[8.540061351913726,47.369623542545874],[8.540065858365514,47.36960582409184]]},"properties":{"layer":"LKZ141EUMLU1","infraType":"fernwaerme","geomType":"pipe","source":"order_55302/SIA405_LKMap_2015_LV95.dxf","_dedupKey":"2683190.5,1247121.1|2683191.9,1247113"}},{"type":"Feature","geometry":{"type":"LineString","coordinates":[[8.540523465112575,47.369542918872824],[8.540510454501405,47.36954123496946]]},"properties":{"layer":"LKZ141EUMLU0","infraType":"fernwaerme","geomType":"pipe","source":"order_55302/SIA405_LKMap_2015_LV95.dxf","_dedupKey":"2683225.6,1247106.3|2683226.5,1247106.5"}},{"type":"Feature","geometry":{"type":"LineString","coordinates":[[8.53995071847525,47.36919312689304],[8.53985438280302,47.36917593819294]]},"properties":{"layer":"LKZ141EUMLU0","infraType":"fernwaerme","geomType":"pipe","source":"order_55302/SIA405_LKMap_2015_LV95.dxf","_dedupKey":"2683176.6,1247065|2683183.8,1247067"}},{"type":"Feature","geometry":{"type":"LineString","coordinates":[[8.541527905535379,47.36914584751762],[8.54152925245243,47.36914567274309],[8.541532372876553,47.36914546304301],[8.541535207462772,47.36914551693191],[8.541536854731103,47.369145780051994],[8.541709497284264,47.36917390532683],[8.541711622980138,47.369174253826785],[8.541716863418921,47.36917667744624],[8.541722887612348,47.36918114447633],[8.541726829310656,47.36918671081444],[8.541728113612558,47.36919054847644],[8.541728202692692,47.36919165403023],[8.541747069355544,47.36942962066163],[8.541759713754304,47.3695940393272],[8.541759892847782,47.369596295401315],[8.541758995494657,47.369600279831566],[8.5417561223024,47.36960475987619],[8.541753067386555,47.36960749659573],[8.541748806880069,47.36961019985375],[8.54174379071383,47.36961221770157],[8.541737198316792,47.36961356697131],[8.541732819509685,47.36961375271441],[8.541546903544424,47.36962186977099],[8.54154473399724,47.36962196244936],[8.541538746821589,47.36962312602526],[8.541533349720623,47.36962529142392],[8.541529401518117,47.36962773083199],[8.541526012820537,47.369630974461394],[8.541524235068207,47.36963400481464],[8.541523938009265,47.36963500611365]]},"properties":{"layer":"LKZ141EUMLU1","infraType":"fernwaerme","geomType":"pipe","source":"order_55302/SIA405_LKMap_2015_LV95.dxf","_dedupKey":"2683302,1247117.8|2683303,1247063.4"}},{"type":"Feature","geometry":{"type":"LineString","coordinates":[[8.539717753356975,47.36972142068782],[8.539715646151675,47.36973030100303]]},"properties":{"layer":"LKZ141EUMLU0","infraType":"fernwaerme","geomType":"pipe","source":"order_55302/SIA405_LKMap_2015_LV95.dxf","_dedupKey":"2683165.2,1247126.5|2683165.4,1247125.5"}},{"type":"Feature","geometry":{"type":"LineString","coordinates":[[8.541754227191607,47.36942936339989],[8.541767215614692,47.369593769784004],[8.541769124934241,47.369611813824996]]},"properties":{"layer":"LKZ141EUMLU1","infraType":"fernwaerme","geomType":"pipe","source":"order_55302/SIA405_LKMap_2015_LV95.dxf","_dedupKey":"2683319.7,1247095.2|2683320.5,1247115.5"}},{"type":"Feature","geometry":{"type":"LineString","coordinates":[[8.541753420833762,47.36941854992595],[8.541754227191607,47.36942936339989]]},"properties":{"layer":"LKZ141EUMLU1","infraType":"fernwaerme","geomType":"pipe","source":"order_55302/SIA405_LKMap_2015_LV95.dxf","_dedupKey":"2683319.6,1247094|2683319.7,1247095.2"}},{"type":"Feature","geometry":{"type":"LineString","coordinates":[[8.540544351422104,47.369823116602234],[8.54060044161544,47.36992700622643],[8.540513448109808,47.3699486869495]]},"properties":{"layer":"LKZ141EUMLU0","infraType":"fernwaerme","geomType":"pipe","source":"order_55302/SIA405_LKMap_2015_LV95.dxf","_dedupKey":"2683225.1,1247151.6|2683227.7,1247137.7"}},{"type":"Feature","geometry":{"type":"LineString","coordinates":[[8.540533321117,47.36976222568633],[8.540533771699813,47.369760323409864],[8.54052753888257,47.36975921350212],[8.54045480619549,47.36975080426568],[8.540414976694413,47.36974688453053],[8.540409798238228,47.36974617833581],[8.540406588906732,47.36974529144429],[8.540403557287036,47.36974403405612],[8.540399586032589,47.369741517314225],[8.540396473062168,47.369738245787104],[8.540394647383943,47.369734476242016],[8.540394249103814,47.36973186245103],[8.540393343316651,47.369729037617475],[8.540391817571692,47.369726326639544],[8.540389360888124,47.36972341765327],[8.54038612836442,47.36972076793198],[8.54038209519745,47.369718458668686],[8.540378383234803,47.369716955905254],[8.540373869513509,47.369715739639354],[8.540368744013094,47.36971503293766],[8.540136149768424,47.369685129680036],[8.540043273118476,47.369673269255365],[8.540028656042502,47.36967137573801],[8.54002492541585,47.36966768731867],[8.540034824085298,47.3696309016892],[8.540035770944536,47.36962738454959],[8.540059007750273,47.3696196699981],[8.540064689502167,47.36961653947288],[8.540064770684555,47.36961277872387],[8.540066123869257,47.36960585754056]]},"properties":{"layer":"LKZ141EUMLU1","infraType":"fernwaerme","geomType":"pipe","source":"order_55302/SIA405_LKMap_2015_LV95.dxf","_dedupKey":"2683191.9,1247113|2683226.9,1247130.9"}},{"type":"Feature","geometry":{"type":"LineString","coordinates":[[8.540066137850573,47.369605893387835],[8.54006874878059,47.369597044242305]]},"properties":{"layer":"LKZ141EUMLU0","infraType":"fernwaerme","geomType":"pipe","source":"order_55302/SIA405_LKMap_2015_LV95.dxf","_dedupKey":"2683191.9,1247113|2683192.1,1247112"}},{"type":"Feature","geometry":{"type":"LineString","coordinates":[[8.541759892847782,47.369596295401315],[8.541761092992182,47.36961206144558]]},"properties":{"layer":"LKZ141EUMLU1","infraType":"fernwaerme","geomType":"pipe","source":"order_55302/SIA405_LKMap_2015_LV95.dxf","_dedupKey":"2683319.8,1247113.7|2683319.9,1247115.5"}},{"type":"Feature","geometry":{"type":"LineString","coordinates":[[8.540544483988768,47.36982312433264],[8.540600614826237,47.369927058544754],[8.540513608082483,47.36994873939426]]},"properties":{"layer":"LKZ141EUMLU0","infraType":"fernwaerme","geomType":"pipe","source":"order_55302/SIA405_LKMap_2015_LV95.dxf","_dedupKey":"2683225.2,1247151.6|2683227.7,1247137.7"}},{"type":"Feature","geometry":{"type":"LineString","coordinates":[[8.54150862492901,47.36914317116549],[8.541506026940155,47.36915199323829]]},"properties":{"layer":"LKZ141EUMLU0","infraType":"fernwaerme","geomType":"pipe","source":"order_55302/SIA405_LKMap_2015_LV95.dxf","_dedupKey":"2683301.4,1247064.1|2683301.6,1247063.1"}},{"type":"Feature","geometry":{"type":"LineString","coordinates":[[8.537594955442895,47.37005717904764],[8.537600228190605,47.37005989038977],[8.537610955684231,47.370065149429],[8.537618959051398,47.37006929200311],[8.537626073905386,47.370070798456794]]},"properties":{"layer":"LKZ141EUMLU1","infraType":"fernwaerme","geomType":"pipe","source":"order_55302/SIA405_LKMap_2015_LV95.dxf","_dedupKey":"2683004.6,1247160.6|2683006.9,1247162.1"}},{"type":"Feature","geometry":{"type":"LineString","coordinates":[[8.54055937000994,47.369763083574846],[8.540552636709473,47.369762743031444],[8.540548708762444,47.36976232175267],[8.540524604494967,47.369759457380404]]},"properties":{"layer":"LKZ141EUMLU1","infraType":"fernwaerme","geomType":"pipe","source":"order_55302/SIA405_LKMap_2015_LV95.dxf","_dedupKey":"2683226.3,1247130.6|2683228.9,1247131"}},{"type":"Feature","geometry":{"type":"LineString","coordinates":[[8.540562793754507,47.36974872162803],[8.540558227276009,47.3697564830378],[8.540555156596335,47.36975974159424],[8.54054907374268,47.36976076210873],[8.540527132856585,47.36975814695214]]},"properties":{"layer":"LKZ141EUMLU1","infraType":"fernwaerme","geomType":"pipe","source":"order_55302/SIA405_LKMap_2015_LV95.dxf","_dedupKey":"2683226.5,1247130.4|2683229.2,1247129.4"}},{"type":"Feature","geometry":{"type":"LineString","coordinates":[[8.540559071220292,47.36976464258733],[8.540552364581657,47.369764310784696],[8.540548343596278,47.36976387240322],[8.540545915082236,47.36976360772714],[8.540533321117,47.36976222568633]]},"properties":{"layer":"LKZ141EUMLU1","infraType":"fernwaerme","geomType":"pipe","source":"order_55302/SIA405_LKMap_2015_LV95.dxf","_dedupKey":"2683226.9,1247130.9|2683228.9,1247131.2"}},{"type":"Feature","geometry":{"type":"LineString","coordinates":[[8.540701652299742,47.3691757006004],[8.540698225281869,47.36918669839695],[8.540679746818293,47.36924779891183],[8.540659382198033,47.36931821841093],[8.540657590051767,47.36932439719289],[8.540632201956312,47.36941185646649]]},"properties":{"layer":"LKZ141EUMLU1","infraType":"fernwaerme","geomType":"pipe","source":"order_55302/SIA405_LKMap_2015_LV95.dxf","_dedupKey":"2683235,1247092|2683240.6,1247065.8"}},{"type":"Feature","geometry":{"type":"LineString","coordinates":[[8.540591265141183,47.36955163598493],[8.540588865774865,47.36955982647843],[8.54057032812359,47.3696180760667],[8.540609831969713,47.36965684608834],[8.54058583715676,47.36972909023463],[8.540566677374025,47.369732907073576],[8.540565738542002,47.369736810932885],[8.540562793754507,47.36974872162803]]},"properties":{"layer":"LKZ141EUMLU1","infraType":"fernwaerme","geomType":"pipe","source":"order_55302/SIA405_LKMap_2015_LV95.dxf","_dedupKey":"2683229.2,1247129.4|2683231.6,1247107.5"}},{"type":"Feature","geometry":{"type":"LineString","coordinates":[[8.540524604494967,47.369759457380404],[8.540453832421669,47.36974981509278],[8.540398239468523,47.369741710062314],[8.540396219291278,47.369741342541275],[8.540396763619842,47.36974013199805],[8.540401720790195,47.369725647487044],[8.540402389732582,47.369723419302545],[8.540400575602547,47.36972277096627],[8.540371086716263,47.369718833532005],[8.540138411352903,47.36968885009614],[8.540085915752616,47.36968197469888],[8.540024523550017,47.36967387082216]]},"properties":{"layer":"LKZ141EUMLU1","infraType":"fernwaerme","geomType":"pipe","source":"order_55302/SIA405_LKMap_2015_LV95.dxf","_dedupKey":"2683188.6,1247120.5|2683226.3,1247130.6"}},{"type":"Feature","geometry":{"type":"LineString","coordinates":[[8.540513608082483,47.36994873939426],[8.540414060669884,47.36997354418716]]},"properties":{"layer":"LKZ141EUMLU0","infraType":"fernwaerme","geomType":"pipe","source":"order_55302/SIA405_LKMap_2015_LV95.dxf","_dedupKey":"2683217.6,1247154.2|2683225.2,1247151.6"}},{"type":"Feature","geometry":{"type":"LineString","coordinates":[[8.540596268549157,47.36916853850078],[8.540563210769898,47.36916744165708]]},"properties":{"layer":"LKZ141EUMLU0","infraType":"fernwaerme","geomType":"pipe","source":"order_55302/SIA405_LKMap_2015_LV95.dxf","_dedupKey":"2683230.1,1247064.8|2683232.6,1247064.9"}},{"type":"Feature","geometry":{"type":"LineString","coordinates":[[8.540560128728414,47.36940201977317],[8.540547156005376,47.369400245561174]]},"properties":{"layer":"LKZ141EUMLU0","infraType":"fernwaerme","geomType":"pipe","source":"order_55302/SIA405_LKMap_2015_LV95.dxf","_dedupKey":"2683228.5,1247090.6|2683229.5,1247090.9"}},{"type":"Feature","geometry":{"type":"LineString","coordinates":[[8.539717222348774,47.36972135378878],[8.539714889539177,47.369730209269235]]},"properties":{"layer":"LKZ141EUMLU0","infraType":"fernwaerme","geomType":"pipe","source":"order_55302/SIA405_LKMap_2015_LV95.dxf","_dedupKey":"2683165.2,1247126.4|2683165.4,1247125.5"}},{"type":"Feature","geometry":{"type":"LineString","coordinates":[[8.540706049147847,47.369178950874044],[8.540695783702235,47.36917747467229],[8.540669193232139,47.36917410334062],[8.540648868089749,47.369172777090064],[8.540628595862183,47.369172088987234]]},"properties":{"layer":"LKZ141EUMLU1","infraType":"fernwaerme","geomType":"pipe","source":"order_55302/SIA405_LKMap_2015_LV95.dxf","_dedupKey":"2683235.1,1247065.4|2683240.9,1247066.2"}},{"type":"Feature","geometry":{"type":"LineString","coordinates":[[8.54055937000994,47.369763083574846],[8.540556798790067,47.36977320966494],[8.540553221127462,47.3697890932611],[8.540548669120305,47.36980716298025],[8.540544483988768,47.36982312433264]]},"properties":{"layer":"LKZ141EUMLU1","infraType":"fernwaerme","geomType":"pipe","source":"order_55302/SIA405_LKMap_2015_LV95.dxf","_dedupKey":"2683227.7,1247137.7|2683228.9,1247131"}},{"type":"Feature","geometry":{"type":"LineString","coordinates":[[8.540632310091105,47.369411963376635],[8.540626985860984,47.36941124958754],[8.540560104111531,47.3694021099596]]},"properties":{"layer":"LKZ141EUMLU1","infraType":"fernwaerme","geomType":"pipe","source":"order_55302/SIA405_LKMap_2015_LV95.dxf","_dedupKey":"2683229.5,1247090.9|2683235,1247092"}},{"type":"Feature","geometry":{"type":"LineString","coordinates":[[8.540629301899038,47.369169734514784],[8.540596376683391,47.369168645410966]]},"properties":{"layer":"LKZ141EUMLU0","infraType":"fernwaerme","geomType":"pipe","source":"order_55302/SIA405_LKMap_2015_LV95.dxf","_dedupKey":"2683232.6,1247065|2683235.1,1247065.1"}},{"type":"Feature","geometry":{"type":"LineString","coordinates":[[8.541598038524922,47.3694433133272],[8.541483001178488,47.3694457251148],[8.541480296874951,47.36938605007429],[8.541307119030511,47.369389682470086]]},"properties":{"layer":"LKZ141EUMLU0","infraType":"fernwaerme","geomType":"pipe","source":"order_55302/SIA405_LKMap_2015_LV95.dxf","_dedupKey":"2683286,1247090.3|2683307.8,1247096.6"}},{"type":"Feature","geometry":{"type":"LineString","coordinates":[[8.540629326515697,47.36916964432834],[8.540596268549157,47.36916853850078]]},"properties":{"layer":"LKZ141EUMLU0","infraType":"fernwaerme","geomType":"pipe","source":"order_55302/SIA405_LKMap_2015_LV95.dxf","_dedupKey":"2683232.6,1247064.9|2683235.1,1247065.1"}},{"type":"Feature","geometry":{"type":"LineString","coordinates":[[8.541769124934241,47.369611813824996],[8.541770124292414,47.3696172373554],[8.54173328208525,47.36961883056062],[8.541547364613752,47.369626875670875],[8.541529690893958,47.36962763811717],[8.541530392583986,47.36963467462502]]},"properties":{"layer":"LKZ141EUMLU1","infraType":"fernwaerme","geomType":"pipe","source":"order_55302/SIA405_LKMap_2015_LV95.dxf","_dedupKey":"2683302.4,1247117.8|2683320.5,1247115.5"}},{"type":"Feature","geometry":{"type":"LineString","coordinates":[[8.537583978541617,47.37005138267094],[8.537588702220644,47.37005379340271],[8.537594002927227,47.370056576440355],[8.537602134223393,47.37006050191478],[8.537609202278997,47.37006359196116],[8.537622615077845,47.37006872650238],[8.53763423264529,47.37007284368156],[8.537702341721731,47.3700971841262],[8.53772978421281,47.37010847276249],[8.537741364606326,47.37011335487248],[8.537747346261785,47.37011769657934],[8.537749949994813,47.37012003752653],[8.537751252865494,47.37012221994489],[8.53775156980791,47.37012410591034],[8.537751641417028,47.370125652394705],[8.53775038187447,47.37012942435327],[8.5377486929622,47.370132921548034]]},"properties":{"layer":"LKZ141EUMLU1","infraType":"fernwaerme","geomType":"pipe","source":"order_55302/SIA405_LKMap_2015_LV95.dxf","_dedupKey":"2683003.7,1247159.9|2683016,1247169.1"}},{"type":"Feature","geometry":{"type":"LineString","coordinates":[[8.540701760434203,47.3691758075105],[8.54069835803289,47.36918671512059],[8.540679879569469,47.36924781563546],[8.540657722803116,47.36932441391656],[8.540632334707873,47.3694118731902],[8.540632310091105,47.369411963376635]]},"properties":{"layer":"LKZ141EUMLU1","infraType":"fernwaerme","geomType":"pipe","source":"order_55302/SIA405_LKMap_2015_LV95.dxf","_dedupKey":"2683235,1247092|2683240.6,1247065.9"}},{"type":"Feature","geometry":{"type":"LineString","coordinates":[[8.537583978541617,47.37005138267094],[8.537594955442895,47.37005717904764]]},"properties":{"layer":"LKZ141EUMLU1","infraType":"fernwaerme","geomType":"pipe","source":"order_55302/SIA405_LKMap_2015_LV95.dxf","_dedupKey":"2683003.7,1247159.9|2683004.6,1247160.6"}},{"type":"Feature","geometry":{"type":"LineString","coordinates":[[8.540560104111531,47.3694021099596],[8.540547131388472,47.3694003357476]]},"properties":{"layer":"LKZ141EUMLU0","infraType":"fernwaerme","geomType":"pipe","source":"order_55302/SIA405_LKMap_2015_LV95.dxf","_dedupKey":"2683228.5,1247090.7|2683229.5,1247090.9"}},{"type":"Feature","geometry":{"type":"LineString","coordinates":[[8.539853303607806,47.369178817937225],[8.53984049265171,47.36917653837532]]},"properties":{"layer":"LKZ141EUMLU0","infraType":"fernwaerme","geomType":"pipe","source":"order_55302/SIA405_LKMap_2015_LV95.dxf","_dedupKey":"2683175.5,1247065|2683176.5,1247065.3"}},{"type":"Feature","geometry":{"type":"LineString","coordinates":[[8.540024523550017,47.36967387082216],[8.540011060785341,47.36967209222742],[8.539930637647991,47.36965994205055],[8.539859247109689,47.369651114861355],[8.539782636537499,47.36964213050626],[8.539757926436762,47.36963877701704],[8.539744579859835,47.369636853361186],[8.539741945071645,47.36963749914541],[8.53974013229321,47.369638838715034],[8.539738647193767,47.36964642679312],[8.53972749468354,47.36968726317245],[8.539723031785295,47.36970196781984],[8.539719810767377,47.36971269376489],[8.539719226660798,47.36971454333991],[8.539718497678686,47.36971643027662],[8.539717222348774,47.36972135378878]]},"properties":{"layer":"LKZ141EUMLU1","infraType":"fernwaerme","geomType":"pipe","source":"order_55302/SIA405_LKMap_2015_LV95.dxf","_dedupKey":"2683165.4,1247125.5|2683188.6,1247120.5"}},{"type":"Feature","geometry":{"type":"LineString","coordinates":[[8.540513448109808,47.3699486869495],[8.540522562532,47.36996557385439]]},"properties":{"layer":"LKZ141EUMLU0","infraType":"fernwaerme","geomType":"pipe","source":"order_55302/SIA405_LKMap_2015_LV95.dxf","_dedupKey":"2683225.1,1247151.6|2683225.8,1247153.5"}},{"type":"Feature","geometry":{"type":"LineString","coordinates":[[8.539800128596287,47.36932106158637],[8.539787279566376,47.36931886333779]]},"properties":{"layer":"LKZ141EUMLU0","infraType":"fernwaerme","geomType":"pipe","source":"order_55302/SIA405_LKMap_2015_LV95.dxf","_dedupKey":"2683171.3,1247080.8|2683172.2,1247081.1"}},{"type":"Feature","geometry":{"type":"LineString","coordinates":[[8.539722200364928,47.369721971973796],[8.539723380007088,47.369717544107296],[8.539726264186442,47.36970333125351],[8.539729336523243,47.36969117649614],[8.539730737601452,47.369682725684534],[8.53973496764095,47.369655466021115],[8.539735971470778,47.36965085992741],[8.539738645521856,47.36964634585266],[8.539744747156655,47.36964110647435],[8.539749386048763,47.36963876848532],[8.539754067764308,47.36963722166144],[8.539763084260318,47.36963592135641],[8.539772505135284,47.3696375316255],[8.539805493417257,47.36964166072778],[8.539838495128162,47.36964579868779],[8.539958626808938,47.36966435265002],[8.540006718055858,47.36967082034584],[8.540042656556396,47.36967546995269],[8.54013553321005,47.36968733037786],[8.540368100987878,47.36971723388927],[8.540372908031806,47.369717907648074],[8.540376915733352,47.36971898481832],[8.540380173513103,47.36972029402085],[8.540383777857958,47.36972235551041],[8.540386633396361,47.3697247029925],[8.540388818627195,47.36972729074265],[8.540390152347683,47.36972967972675],[8.54039097275827,47.36973221752978],[8.540391399744886,47.36973493898874],[8.540393448012736,47.36973922812965],[8.540397021114405,47.369742981006],[8.54040155543065,47.36974583419277],[8.540405094557704,47.36974730262353],[8.540408836757441,47.36974834634478],[8.540414413470833,47.36974910271144],[8.54045429592576,47.36975302194161],[8.54052697566355,47.36976143168352],[8.540533321117,47.36976222568633]]},"properties":{"layer":"LKZ141EUMLU1","infraType":"fernwaerme","geomType":"pipe","source":"order_55302/SIA405_LKMap_2015_LV95.dxf","_dedupKey":"2683165.7,1247125.5|2683226.9,1247130.9"}},{"type":"Feature","geometry":{"type":"LineString","coordinates":[[8.540049169633859,47.36967861011889],[8.540028311352348,47.36967584062172],[8.539979231936234,47.36966896858036],[8.539910546071201,47.369659674869794],[8.539819800515232,47.36964713730015],[8.539785321580773,47.369642635621794],[8.539754851126506,47.36963860844222],[8.539744016383331,47.36963713758283],[8.539742342026809,47.36963748636591],[8.53974071086546,47.36963864430101],[8.53973888520386,47.369645129221794],[8.539726420955652,47.3696891264104],[8.53972239635903,47.36970197387752],[8.539719641596214,47.36971347795603],[8.539717753356975,47.36972142068782]]},"properties":{"layer":"LKZ141EUMLU1","infraType":"fernwaerme","geomType":"pipe","source":"order_55302/SIA405_LKMap_2015_LV95.dxf","_dedupKey":"2683165.4,1247125.5|2683190.5,1247121.1"}},{"type":"Feature","geometry":{"type":"LineString","coordinates":[[8.540701652299742,47.3691757006004],[8.540697112104079,47.36917512325612],[8.540669698653367,47.369171651835345],[8.540649134857636,47.36917030987165],[8.540629326515697,47.36916964432834]]},"properties":{"layer":"LKZ141EUMLU1","infraType":"fernwaerme","geomType":"pipe","source":"order_55302/SIA405_LKMap_2015_LV95.dxf","_dedupKey":"2683235.1,1247065.1|2683240.6,1247065.8"}},{"type":"Feature","geometry":{"type":"LineString","coordinates":[[8.539953838632735,47.36919674917469],[8.539898071322,47.36934104149889],[8.539799036343021,47.369323950449605]]},"properties":{"layer":"LKZ141EUMLU0","infraType":"fernwaerme","geomType":"pipe","source":"order_55302/SIA405_LKMap_2015_LV95.dxf","_dedupKey":"2683172.2,1247081.4|2683184.1,1247067.4"}},{"type":"Feature","geometry":{"type":"LineString","coordinates":[[8.540513608082483,47.36994873939426],[8.540522722504736,47.36996562629918]]},"properties":{"layer":"LKZ141EUMLU0","infraType":"fernwaerme","geomType":"pipe","source":"order_55302/SIA405_LKMap_2015_LV95.dxf","_dedupKey":"2683225.2,1247151.6|2683225.8,1247153.5"}},{"type":"Feature","geometry":{"type":"LineString","coordinates":[[8.540527132856585,47.36975814695214],[8.540522554200297,47.369757632933684],[8.5405049628359,47.36975533608396],[8.540494181372297,47.36975388277671],[8.540467519231965,47.36975026021588],[8.540409522154826,47.36974242998969],[8.540399219125225,47.369741062061266],[8.54039773222842,47.36974023070027],[8.540397165489729,47.369739075731424],[8.54039961138061,47.36972993131251],[8.540400556997527,47.36972507390346],[8.540399889971509,47.36972355108988],[8.540398361688112,47.36972263916735],[8.540384887519355,47.36972095067633],[8.540286059805489,47.36970880539694],[8.540132724755283,47.36968918317795],[8.540076852154032,47.36968227701611],[8.540049169633859,47.36967861011889]]},"properties":{"layer":"LKZ141EUMLU1","infraType":"fernwaerme","geomType":"pipe","source":"order_55302/SIA405_LKMap_2015_LV95.dxf","_dedupKey":"2683190.5,1247121.1|2683226.5,1247130.4"}},{"type":"Feature","geometry":{"type":"LineString","coordinates":[[8.539799036343021,47.369323950449605],[8.53978621360259,47.36932174295509]]},"properties":{"layer":"LKZ141EUMLU0","infraType":"fernwaerme","geomType":"pipe","source":"order_55302/SIA405_LKMap_2015_LV95.dxf","_dedupKey":"2683171.2,1247081.1|2683172.2,1247081.4"}}]}